{"type":"Topology","objects":{"land":{"type":"GeometryCollection","geometries":[{"type":"Polygon","properties":{"name":"EASTMORELAND/REED","gid":108},"arcs":[[0]]}]},"buildings":{"type":"GeometryCollection","geometries":[{"type":"Polygon","properties":{"year_built":1928,"gid":11169},"arcs":[[1]]},{"type":"Polygon","properties":{"year_built":1977,"gid":11170},"arcs":[[2]]},{"type":"Polygon","properties":{"year_built":1952,"gid":24134},"arcs":[[3]]},{"type":"Polygon","properties":{"year_built":1922,"gid":24733},"arcs":[[4]]},{"type":"Polygon","properties":{"year_built":1972,"gid":24734},"arcs":[[5]]},{"type":"Polygon","properties":{"year_built":1923,"gid":24779},"arcs":[[6]]},{"type":"Polygon","properties":{"year_built":1928,"gid":24791},"arcs":[[7]]},{"type":"Polygon","properties":{"year_built":1931,"gid":24826},"arcs":[[8]]},{"type":"Polygon","properties":{"year_built":1930,"gid":24841},"arcs":[[9]]},{"type":"Polygon","properties":{"year_built":1928,"gid":24848},"arcs":[[10]]},{"type":"Polygon","properties":{"year_built":1922,"gid":24849},"arcs":[[11]]},{"type":"Polygon","properties":{"year_built":1926,"gid":24937},"arcs":[[12]]},{"type":"Polygon","properties":{"year_built":1930,"gid":24947},"arcs":[[13]]},{"type":"Polygon","properties":{"year_built":1892,"gid":24966},"arcs":[[14]]},{"type":"Polygon","properties":{"year_built":1962,"gid":25020},"arcs":[[15]]},{"type":"Polygon","properties":{"year_built":1892,"gid":25021},"arcs":[[16]]},{"type":"Polygon","properties":{"year_built":1953,"gid":25085},"arcs":[[17]]},{"type":"Polygon","properties":{"year_built":1952,"gid":25134},"arcs":[[18]]},{"type":"Polygon","properties":{"year_built":1952,"gid":25160},"arcs":[[19]]},{"type":"Polygon","properties":{"year_built":1969,"gid":25295},"arcs":[[20]]},{"type":"Polygon","properties":{"year_built":1952,"gid":25450},"arcs":[[21]]},{"type":"Polygon","properties":{"year_built":1957,"gid":25472},"arcs":[[22]]},{"type":"Polygon","properties":{"year_built":1986,"gid":25593},"arcs":[[23]]},{"type":"Polygon","properties":{"year_built":1952,"gid":26130},"arcs":[[24]]},{"type":"Polygon","properties":{"year_built":1952,"gid":26142},"arcs":[[25]]},{"type":"Polygon","properties":{"year_built":1996,"gid":26240},"arcs":[[26]]},{"type":"Polygon","properties":{"year_built":1984,"gid":26441},"arcs":[[27]]},{"type":"Polygon","properties":{"year_built":1962,"gid":26451},"arcs":[[28]]},{"type":"Polygon","properties":{"year_built":1984,"gid":26830},"arcs":[[29]]},{"type":"Polygon","properties":{"year_built":1984,"gid":26941},"arcs":[[30]]},{"type":"Polygon","properties":{"year_built":1984,"gid":27017},"arcs":[[31]]},{"type":"Polygon","properties":{"year_built":2008,"gid":47835},"arcs":[[32]]},{"type":"Polygon","properties":{"year_built":1922,"gid":47836},"arcs":[[33]]},{"type":"Polygon","properties":{"year_built":1961,"gid":77586},"arcs":[[34]]},{"type":"Polygon","properties":{"year_built":1962,"gid":77590},"arcs":[[35]]},{"type":"Polygon","properties":{"year_built":1888,"gid":78071},"arcs":[[36]]},{"type":"Polygon","properties":{"year_built":1888,"gid":78087},"arcs":[[37]]},{"type":"Polygon","properties":{"year_built":1955,"gid":78196},"arcs":[[38]]},{"type":"Polygon","properties":{"year_built":1960,"gid":78202},"arcs":[[39]]},{"type":"Polygon","properties":{"year_built":1967,"gid":78213},"arcs":[[40]]},{"type":"Polygon","properties":{"year_built":1967,"gid":78226},"arcs":[[41]]},{"type":"Polygon","properties":{"year_built":1969,"gid":78227},"arcs":[[42]]},{"type":"Polygon","properties":{"year_built":0,"gid":78228},"arcs":[[43]]},{"type":"Polygon","properties":{"year_built":0,"gid":78770},"arcs":[[44]]},{"type":"Polygon","properties":{"year_built":0,"gid":78771},"arcs":[[45]]},{"type":"Polygon","properties":{"year_built":1981,"gid":78772},"arcs":[[46]]},{"type":"Polygon","properties":{"year_built":1962,"gid":78773},"arcs":[[47]]},{"type":"Polygon","properties":{"year_built":1964,"gid":78774},"arcs":[[48]]},{"type":"Polygon","properties":{"year_built":1962,"gid":78775},"arcs":[[49]]},{"type":"Polygon","properties":{"year_built":1962,"gid":78776},"arcs":[[50]]},{"type":"Polygon","properties":{"year_built":1927,"gid":78777},"arcs":[[51]]},{"type":"Polygon","properties":{"year_built":1950,"gid":78778},"arcs":[[52]]},{"type":"Polygon","properties":{"year_built":1950,"gid":78779},"arcs":[[53]]},{"type":"Polygon","properties":{"year_built":2008,"gid":78780},"arcs":[[54]]},{"type":"Polygon","properties":{"year_built":2008,"gid":78781},"arcs":[[55]]},{"type":"Polygon","properties":{"year_built":1961,"gid":79004},"arcs":[[56]]},{"type":"Polygon","properties":{"year_built":2003,"gid":79005},"arcs":[[57]]},{"type":"Polygon","properties":{"year_built":1973,"gid":79006},"arcs":[[58]]},{"type":"Polygon","properties":{"year_built":1967,"gid":79007},"arcs":[[59]]},{"type":"Polygon","properties":{"year_built":1888,"gid":79009},"arcs":[[60]]},{"type":"Polygon","properties":{"year_built":1974,"gid":79010},"arcs":[[61]]},{"type":"Polygon","properties":{"year_built":1888,"gid":79011},"arcs":[[62]]},{"type":"Polygon","properties":{"year_built":1974,"gid":79012},"arcs":[[63]]},{"type":"Polygon","properties":{"year_built":1974,"gid":79013},"arcs":[[64]]},{"type":"Polygon","properties":{"year_built":1979,"gid":79322},"arcs":[[65]]},{"type":"Polygon","properties":{"year_built":1971,"gid":79330},"arcs":[[66]]},{"type":"Polygon","properties":{"year_built":1960,"gid":79331},"arcs":[[67]]},{"type":"Polygon","properties":{"year_built":1973,"gid":79332},"arcs":[[68]]},{"type":"Polygon","properties":{"year_built":1973,"gid":79333},"arcs":[[69]]},{"type":"Polygon","properties":{"year_built":1973,"gid":79334},"arcs":[[70]]},{"type":"Polygon","properties":{"year_built":1973,"gid":79335},"arcs":[[71]]},{"type":"Polygon","properties":{"year_built":2008,"gid":79413},"arcs":[[72]]},{"type":"Polygon","properties":{"year_built":2008,"gid":79714},"arcs":[[73]]},{"type":"Polygon","properties":{"year_built":2008,"gid":79715},"arcs":[[74]]},{"type":"Polygon","properties":{"year_built":2008,"gid":79716},"arcs":[[75]]},{"type":"Polygon","properties":{"year_built":2008,"gid":79717},"arcs":[[76]]},{"type":"Polygon","properties":{"year_built":1948,"gid":79745},"arcs":[[77]]},{"type":"Polygon","properties":{"year_built":1948,"gid":79746},"arcs":[[78]]},{"type":"Polygon","properties":{"year_built":1948,"gid":79747},"arcs":[[79]]},{"type":"Polygon","properties":{"year_built":1948,"gid":79748},"arcs":[[80]]},{"type":"Polygon","properties":{"year_built":1948,"gid":79749},"arcs":[[81]]},{"type":"Polygon","properties":{"year_built":1952,"gid":79750},"arcs":[[82]]},{"type":"Polygon","properties":{"year_built":1948,"gid":79751},"arcs":[[83]]},{"type":"Polygon","properties":{"year_built":2008,"gid":80068},"arcs":[[84]]},{"type":"Polygon","properties":{"year_built":2008,"gid":80069},"arcs":[[85]]},{"type":"Polygon","properties":{"year_built":2008,"gid":81520},"arcs":[[86]]},{"type":"Polygon","properties":{"year_built":1955,"gid":82357},"arcs":[[87]]},{"type":"Polygon","properties":{"year_built":2008,"gid":82361},"arcs":[[88]]},{"type":"Polygon","properties":{"year_built":2008,"gid":82366},"arcs":[[89]]},{"type":"Polygon","properties":{"year_built":2008,"gid":82367},"arcs":[[90]]},{"type":"Polygon","properties":{"year_built":2008,"gid":82368},"arcs":[[91]]},{"type":"Polygon","properties":{"year_built":2008,"gid":82369},"arcs":[[92]]},{"type":"Polygon","properties":{"year_built":1964,"gid":82844},"arcs":[[93]]},{"type":"Polygon","properties":{"year_built":1948,"gid":82960},"arcs":[[94]]},{"type":"Polygon","properties":{"year_built":2008,"gid":83216},"arcs":[[95,96]]},{"type":"Polygon","properties":{"year_built":2008,"gid":83217},"arcs":[[97]]},{"type":"Polygon","properties":{"year_built":2008,"gid":83585},"arcs":[[98]]},{"type":"Polygon","properties":{"year_built":2008,"gid":83586},"arcs":[[99,100]]},{"type":"Polygon","properties":{"year_built":2008,"gid":83587},"arcs":[[101]]},{"type":"Polygon","properties":{"year_built":2008,"gid":83588},"arcs":[[102]]},{"type":"Polygon","properties":{"year_built":2008,"gid":83590},"arcs":[[103,104]]},{"type":"Polygon","properties":{"year_built":2008,"gid":83591},"arcs":[[105],[106],[107],[108]]},{"type":"Polygon","properties":{"year_built":2008,"gid":83592},"arcs":[[109]]},{"type":"Polygon","properties":{"year_built":2008,"gid":83593},"arcs":[[110]]},{"type":"Polygon","properties":{"year_built":2008,"gid":83594},"arcs":[[111]]},{"type":"Polygon","properties":{"year_built":2008,"gid":83596},"arcs":[[112,113]]},{"type":"Polygon","properties":{"year_built":1959,"gid":83598},"arcs":[[114]]},{"type":"Polygon","properties":{"year_built":2008,"gid":83599},"arcs":[[115,116]]},{"type":"Polygon","properties":{"year_built":2008,"gid":83601},"arcs":[[117]]},{"type":"Polygon","properties":{"year_built":1959,"gid":83602},"arcs":[[118]]},{"type":"Polygon","properties":{"year_built":2008,"gid":83603},"arcs":[[119]]},{"type":"Polygon","properties":{"year_built":1967,"gid":83604},"arcs":[[120]]},{"type":"Polygon","properties":{"year_built":2008,"gid":83607},"arcs":[[121,122,123,124]]},{"type":"Polygon","properties":{"year_built":2006,"gid":83611},"arcs":[[125]]},{"type":"Polygon","properties":{"year_built":1960,"gid":83612},"arcs":[[126]]},{"type":"Polygon","properties":{"year_built":2008,"gid":83796},"arcs":[[127,128,-96,129]]},{"type":"Polygon","properties":{"year_built":2008,"gid":83797},"arcs":[[-128,130]]},{"type":"Polygon","properties":{"year_built":2008,"gid":83798},"arcs":[[131,132]]},{"type":"Polygon","properties":{"year_built":2008,"gid":83799},"arcs":[[-100,133,-133,134]]},{"type":"Polygon","properties":{"year_built":2008,"gid":83800},"arcs":[[-104,135]]},{"type":"Polygon","properties":{"year_built":2008,"gid":83801},"arcs":[[-108]]},{"type":"Polygon","properties":{"year_built":2008,"gid":83802},"arcs":[[-107]]},{"type":"Polygon","properties":{"year_built":2008,"gid":83803},"arcs":[[-109]]},{"type":"Polygon","properties":{"year_built":2008,"gid":83804},"arcs":[[136,137]]},{"type":"Polygon","properties":{"year_built":2008,"gid":83805},"arcs":[[138,-138,139,-114]]},{"type":"Polygon","properties":{"year_built":2008,"gid":83806},"arcs":[[-116,140]]},{"type":"Polygon","properties":{"year_built":2008,"gid":83807},"arcs":[[-124,141,142,143]]},{"type":"Polygon","properties":{"year_built":2008,"gid":83808},"arcs":[[-122,144]]},{"type":"Polygon","properties":{"year_built":2008,"gid":83809},"arcs":[[145,146]]},{"type":"Polygon","properties":{"year_built":2008,"gid":83810},"arcs":[[-146,147,-143,148]]}]},"roads":{"type":"GeometryCollection","geometries":[{"type":"LineString","properties":{"highway":"residential","gid":81783},"arcs":[149]},{"type":"LineString","properties":{"highway":"tertiary","gid":82329},"arcs":[150]},{"type":"LineString","properties":{"highway":"tertiary","gid":82336},"arcs":[151,152,153]},{"type":"LineString","properties":{"highway":"tertiary","gid":82337},"arcs":[154,155,156,157,158,159,160,161]},{"type":"LineString","properties":{"highway":"tertiary","gid":82342},"arcs":[162,163]},{"type":"LineString","properties":{"highway":"service","gid":82343},"arcs":[164,165,166,167]},{"type":"LineString","properties":{"highway":"service","gid":82344},"arcs":[168,169]},{"type":"LineString","properties":{"highway":"tertiary","gid":82348},"arcs":[170]},{"type":"LineString","properties":{"highway":"tertiary","gid":82353},"arcs":[171]},{"type":"LineString","properties":{"highway":"service","gid":82380},"arcs":[172]},{"type":"LineString","properties":{"highway":"service","gid":82456},"arcs":[173]},{"type":"LineString","properties":{"highway":"service","gid":82459},"arcs":[174,175,176]},{"type":"LineString","properties":{"highway":"service","gid":82460},"arcs":[177]},{"type":"LineString","properties":{"highway":"footway","gid":82466},"arcs":[178,179,180,181,182,183]},{"type":"LineString","properties":{"highway":"footway","gid":82490},"arcs":[184]},{"type":"LineString","properties":{"highway":"footway","gid":82567},"arcs":[185,186,187,188,189,190]},{"type":"LineString","properties":{"highway":"service","gid":82590},"arcs":[191]},{"type":"LineString","properties":{"highway":"service","gid":82591},"arcs":[192]},{"type":"LineString","properties":{"highway":"footway","gid":82653},"arcs":[193]},{"type":"LineString","properties":{"highway":"footway","gid":82659},"arcs":[194]},{"type":"LineString","properties":{"highway":"service","gid":82670},"arcs":[195,196,197,198,199]},{"type":"LineString","properties":{"highway":"footway","gid":82716},"arcs":[200,201,202]},{"type":"LineString","properties":{"highway":"footway","gid":82717},"arcs":[203,204,205]},{"type":"LineString","properties":{"highway":"footway","gid":82814},"arcs":[206,207]},{"type":"LineString","properties":{"highway":"service","gid":82873},"arcs":[208,209]},{"type":"LineString","properties":{"highway":"service","gid":82885},"arcs":[210]},{"type":"LineString","properties":{"highway":"footway","gid":82891},"arcs":[211,212,213]},{"type":"LineString","properties":{"highway":"footway","gid":82909},"arcs":[214]},{"type":"LineString","properties":{"highway":"service","gid":82916},"arcs":[215,216,217]},{"type":"LineString","properties":{"highway":"footway","gid":82935},"arcs":[218,219]},{"type":"LineString","properties":{"highway":"footway","gid":82964},"arcs":[220]},{"type":"LineString","properties":{"highway":"service","gid":83008},"arcs":[221]},{"type":"LineString","properties":{"highway":"service","gid":83013},"arcs":[222,223]},{"type":"LineString","properties":{"highway":"tertiary","gid":83055},"arcs":[224]},{"type":"LineString","properties":{"highway":"tertiary_link","gid":83056},"arcs":[225,226]},{"type":"LineString","properties":{"highway":"footway","gid":83077},"arcs":[227,228]},{"type":"LineString","properties":{"highway":"footway","gid":83081},"arcs":[229,230,231,232,233]},{"type":"LineString","properties":{"highway":"footway","gid":83116},"arcs":[234]},{"type":"LineString","properties":{"highway":"footway","gid":83120},"arcs":[235,236]},{"type":"LineString","properties":{"highway":"residential","gid":83121},"arcs":[237]},{"type":"LineString","properties":{"highway":"footway","gid":83128},"arcs":[238]},{"type":"LineString","properties":{"highway":"footway","gid":83129},"arcs":[239]},{"type":"LineString","properties":{"highway":"service","gid":83132},"arcs":[240]},{"type":"LineString","properties":{"highway":"footway","gid":83168},"arcs":[241]},{"type":"MultiLineString","properties":{"highway":"tertiary","gid":83211},"arcs":[[242,243,244,245,246,247,248,249],[250,251,252,253]]},{"type":"LineString","properties":{"highway":"footway","gid":83212},"arcs":[254,255,256]},{"type":"LineString","properties":{"highway":"steps","gid":83225},"arcs":[257]},{"type":"LineString","properties":{"highway":"footway","gid":83248},"arcs":[258]},{"type":"LineString","properties":{"highway":"service","gid":83299},"arcs":[259]},{"type":"LineString","properties":{"highway":"service","gid":83364},"arcs":[260,261,262,263]},{"type":"LineString","properties":{"highway":"footway","gid":83366},"arcs":[264]},{"type":"LineString","properties":{"highway":"footway","gid":83391},"arcs":[265]},{"type":"LineString","properties":{"highway":"footway","gid":83401},"arcs":[266]},{"type":"LineString","properties":{"highway":"footway","gid":83404},"arcs":[267,268]},{"type":"LineString","properties":{"highway":"path","gid":83407},"arcs":[269]},{"type":"LineString","properties":{"highway":"footway","gid":83408},"arcs":[270,271]},{"type":"LineString","properties":{"highway":"steps","gid":83425},"arcs":[272]},{"type":"LineString","properties":{"highway":"footway","gid":83426},"arcs":[273]},{"type":"LineString","properties":{"highway":"steps","gid":83429},"arcs":[274]},{"type":"LineString","properties":{"highway":"footway","gid":83448},"arcs":[275]},{"type":"LineString","properties":{"highway":"footway","gid":83452},"arcs":[276]},{"type":"LineString","properties":{"highway":"footway","gid":83453},"arcs":[277]},{"type":"LineString","properties":{"highway":"pedestrian","gid":83454},"arcs":[278,279,280,281,282,283,284]},{"type":"LineString","properties":{"highway":"footway","gid":83460},"arcs":[285,286,287,288,289]},{"type":"LineString","properties":{"highway":"pedestrian","gid":83461},"arcs":[290,291,292,293,294]},{"type":"LineString","properties":{"highway":"footway","gid":83462},"arcs":[295,296]},{"type":"LineString","properties":{"highway":"pedestrian","gid":83463},"arcs":[297]},{"type":"LineString","properties":{"highway":"service","gid":83464},"arcs":[298,299]},{"type":"LineString","properties":{"highway":"tertiary","gid":83470},"arcs":[300,301,302,303]},{"type":"LineString","properties":{"highway":"service","gid":83498},"arcs":[304]},{"type":"LineString","properties":{"highway":"footway","gid":83516},"arcs":[305,306]},{"type":"LineString","properties":{"highway":"footway","gid":83524},"arcs":[307,308,309]},{"type":"LineString","properties":{"highway":"footway","gid":83526},"arcs":[310]},{"type":"LineString","properties":{"highway":"footway","gid":83541},"arcs":[311,312]},{"type":"LineString","properties":{"highway":"residential","gid":83570},"arcs":[313]},{"type":"MultiLineString","properties":{"highway":"footway","gid":83571},"arcs":[[314,315,316,317,318,319,320,321,322],[323,324,325,326]]},{"type":"LineString","properties":{"highway":"service","gid":83572},"arcs":[327]},{"type":"LineString","properties":{"highway":"residential","gid":83578},"arcs":[328]},{"type":"LineString","properties":{"highway":"footway","gid":83597},"arcs":[329]},{"type":"LineString","properties":{"highway":"steps","gid":83611},"arcs":[330]},{"type":"LineString","properties":{"highway":"footway","gid":83656},"arcs":[331,332]},{"type":"LineString","properties":{"highway":"footway","gid":83659},"arcs":[333,334]},{"type":"LineString","properties":{"highway":"pedestrian","gid":83660},"arcs":[335]},{"type":"LineString","properties":{"highway":"steps","gid":83661},"arcs":[336]},{"type":"LineString","properties":{"highway":"footway","gid":83666},"arcs":[337]},{"type":"LineString","properties":{"highway":"footway","gid":83667},"arcs":[338]},{"type":"LineString","properties":{"highway":"footway","gid":83670},"arcs":[339]},{"type":"LineString","properties":{"highway":"footway","gid":83671},"arcs":[340]},{"type":"LineString","properties":{"highway":"footway","gid":83672},"arcs":[341]},{"type":"LineString","properties":{"highway":"footway","gid":83688},"arcs":[342]},{"type":"LineString","properties":{"highway":"footway","gid":83739},"arcs":[343]},{"type":"LineString","properties":{"highway":"path","gid":83781},"arcs":[344,345,346,347,348,349]},{"type":"LineString","properties":{"highway":"pedestrian","gid":83782},"arcs":[350]},{"type":"LineString","properties":{"highway":"service","gid":83818},"arcs":[351,352,353,354]},{"type":"LineString","properties":{"highway":"footway","gid":83827},"arcs":[355,356,357]},{"type":"LineString","properties":{"highway":"pedestrian","gid":83828},"arcs":[358,359,360,361]},{"type":"LineString","properties":{"highway":"path","gid":83829},"arcs":[362,363,364]},{"type":"LineString","properties":{"highway":"footway","gid":83830},"arcs":[365,366,367,368]},{"type":"LineString","properties":{"highway":"footway","gid":83831},"arcs":[369]},{"type":"LineString","properties":{"highway":"footway","gid":83832},"arcs":[370,371]},{"type":"LineString","properties":{"highway":"pedestrian","gid":83838},"arcs":[372,373,374,375,376]},{"type":"LineString","properties":{"highway":"footway","gid":83847},"arcs":[377,378]},{"type":"LineString","properties":{"highway":"footway","gid":83848},"arcs":[379]},{"type":"LineString","properties":{"highway":"service","gid":83870},"arcs":[380,381]},{"type":"LineString","properties":{"highway":"path","gid":83881},"arcs":[382]},{"type":"LineString","properties":{"highway":"residential","gid":83914},"arcs":[383]},{"type":"LineString","properties":{"highway":"footway","gid":83931},"arcs":[384]},{"type":"LineString","properties":{"highway":"residential","gid":83933},"arcs":[385]},{"type":"LineString","properties":{"highway":"path","gid":83947},"arcs":[386,387]},{"type":"LineString","properties":{"highway":"footway","gid":83984},"arcs":[388]},{"type":"LineString","properties":{"highway":"footway","gid":84008},"arcs":[389]},{"type":"LineString","properties":{"highway":"path","gid":84057},"arcs":[390]},{"type":"LineString","properties":{"highway":"footway","gid":84083},"arcs":[391]},{"type":"LineString","properties":{"highway":"service","gid":84116},"arcs":[392,393,394]},{"type":"LineString","properties":{"highway":"footway","gid":84123},"arcs":[395,396]},{"type":"LineString","properties":{"highway":"path","gid":84124},"arcs":[397]},{"type":"LineString","properties":{"highway":"service","gid":84126},"arcs":[398]},{"type":"LineString","properties":{"highway":"path","gid":84138},"arcs":[399,400]},{"type":"LineString","properties":{"highway":"footway","gid":84139},"arcs":[401]},{"type":"LineString","properties":{"highway":"footway","gid":84140},"arcs":[402]},{"type":"LineString","properties":{"highway":"footway","gid":84160},"arcs":[403,404]},{"type":"LineString","properties":{"highway":"footway","gid":84188},"arcs":[405]},{"type":"LineString","properties":{"highway":"service","gid":84325},"arcs":[406,407,408,409,410]},{"type":"LineString","properties":{"highway":"footway","gid":84381},"arcs":[411,412]},{"type":"LineString","properties":{"highway":"service","gid":84390},"arcs":[413]},{"type":"LineString","properties":{"highway":"residential","gid":84409},"arcs":[414]},{"type":"LineString","properties":{"highway":"footway","gid":84416},"arcs":[415]},{"type":"LineString","properties":{"highway":"service","gid":84419},"arcs":[416,417,418,419]},{"type":"LineString","properties":{"highway":"service","gid":84432},"arcs":[420,421]},{"type":"LineString","properties":{"highway":"pedestrian","gid":84433},"arcs":[422,423,424,425,426,427]},{"type":"LineString","properties":{"highway":"service","gid":84436},"arcs":[428,429]},{"type":"LineString","properties":{"highway":"service","gid":84437},"arcs":[430,431]},{"type":"LineString","properties":{"highway":"footway","gid":84442},"arcs":[432]},{"type":"LineString","properties":{"highway":"residential","gid":84448},"arcs":[433]},{"type":"LineString","properties":{"highway":"service","gid":84451},"arcs":[434,435,436,437]},{"type":"LineString","properties":{"highway":"footway","gid":84502},"arcs":[438]},{"type":"LineString","properties":{"highway":"pedestrian","gid":84555},"arcs":[439]},{"type":"LineString","properties":{"highway":"footway","gid":84603},"arcs":[440]},{"type":"LineString","properties":{"highway":"footway","gid":84611},"arcs":[441]},{"type":"LineString","properties":{"highway":"footway","gid":84612},"arcs":[442]},{"type":"LineString","properties":{"highway":"footway","gid":84618},"arcs":[443]},{"type":"LineString","properties":{"highway":"footway","gid":84626},"arcs":[444,445,446]},{"type":"LineString","properties":{"highway":"footway","gid":84706},"arcs":[447,448,449,450]},{"type":"LineString","properties":{"highway":"residential","gid":84707},"arcs":[451]},{"type":"LineString","properties":{"highway":"footway","gid":84713},"arcs":[452,453]},{"type":"LineString","properties":{"highway":"footway","gid":84758},"arcs":[454]},{"type":"LineString","properties":{"highway":"footway","gid":84788},"arcs":[455]},{"type":"LineString","properties":{"highway":"steps","gid":84803},"arcs":[456]},{"type":"LineString","properties":{"highway":"footway","gid":84821},"arcs":[457]},{"type":"LineString","properties":{"highway":"footway","gid":84869},"arcs":[458]},{"type":"LineString","properties":{"highway":"service","gid":84953},"arcs":[459,460,461,462,463]},{"type":"LineString","properties":{"highway":"service","gid":84988},"arcs":[464]},{"type":"LineString","properties":{"highway":"footway","gid":84996},"arcs":[465]},{"type":"LineString","properties":{"highway":"residential","gid":84999},"arcs":[466]},{"type":"LineString","properties":{"highway":"footway","gid":85006},"arcs":[467,468]},{"type":"LineString","properties":{"highway":"footway","gid":85050},"arcs":[469]},{"type":"LineString","properties":{"highway":"footway","gid":85155},"arcs":[470,471]},{"type":"LineString","properties":{"highway":"tertiary","gid":85198},"arcs":[472,473]},{"type":"LineString","properties":{"highway":"service","gid":85199},"arcs":[474]},{"type":"LineString","properties":{"highway":"footway","gid":85270},"arcs":[475]},{"type":"LineString","properties":{"highway":"footway","gid":85362},"arcs":[476,477]},{"type":"LineString","properties":{"highway":"footway","gid":85363},"arcs":[478]},{"type":"LineString","properties":{"highway":"footway","gid":85483},"arcs":[479]},{"type":"LineString","properties":{"highway":"residential","gid":85521},"arcs":[480,481]},{"type":"LineString","properties":{"highway":"footway","gid":85533},"arcs":[482]},{"type":"LineString","properties":{"highway":"residential","gid":85680},"arcs":[483,484]},{"type":"LineString","properties":{"highway":"residential","gid":85764},"arcs":[485]},{"type":"LineString","properties":{"highway":"residential","gid":85769},"arcs":[486]},{"type":"LineString","properties":{"highway":"residential","gid":85826},"arcs":[487,488]},{"type":"LineString","properties":{"highway":"residential","gid":85844},"arcs":[489,490]},{"type":"LineString","properties":{"highway":"secondary","gid":85997},"arcs":[491,492,493]},{"type":"LineString","properties":{"highway":"tertiary","gid":86032},"arcs":[494]},{"type":"LineString","properties":{"highway":"secondary","gid":86042},"arcs":[495]}]},"water":{"type":"GeometryCollection","geometries":[{"type":"Polygon","properties":{"amenity":null,"gid":17082,"name":null},"arcs":[[496]]}]},"parks":{"type":null}},"arcs":[[[8823,6698],[284,-2],[-3,-1156],[-251,-20],[-5,-23],[-51,0],[-19,-132],[-46,-78],[-73,-65],[-179,1],[1,276],[-273,2],[-1,-676],[-188,2],[-1,-524],[820,-5],[0,529],[388,-2],[0,-463],[182,0],[-1,-74],[592,-7],[-3,-2398],[-3,-1243],[-2154,23],[-112,-7],[-136,31],[-120,63],[-79,55],[-124,67],[-134,22],[-181,-19],[-205,-83],[-165,-84],[-103,-67],[-77,-37],[-109,-25],[-100,20],[-74,-2],[-217,65],[-107,13],[-213,-22],[-226,-94],[-191,-65],[-84,-9],[-148,6],[-73,17],[-149,64],[-242,148],[-107,20],[-77,-19],[-74,-39],[-101,-78],[-182,-219],[-55,-47],[-195,-116],[-304,-159],[-204,-63],[-99,175],[-291,1634],[-66,381],[-273,1459],[-45,243],[-52,250],[-66,185],[-65,108],[-74,92],[-109,71],[-126,23],[-211,70],[-93,121],[-793,-2],[-808,15],[5,2498],[61,977],[2,1695],[1231,3],[64,-42],[411,-11],[1151,-3],[2810,-6],[-4,-141],[0,-1223],[0,-300],[0,-1499],[-2,-600],[1,-555],[872,-81],[342,415],[672,227],[592,532],[274,-11],[341,-2]],[[9303,1486],[0,193],[73,0],[0,-193],[-73,0]],[[9167,1624],[0,-280],[-63,1],[0,90],[-16,0],[0,103],[18,0],[0,87],[61,-1]],[[9910,3662],[0,-98],[-15,0],[-1,-286],[-98,1],[1,133],[19,-1],[1,252],[93,-1]],[[8824,1143],[0,-188],[-78,1],[0,187],[78,0]],[[9574,1183],[0,-195],[-64,1],[0,194],[64,0]],[[9831,982],[0,-113],[-76,0],[0,156],[41,-1],[-2,-42],[37,0]],[[9678,1031],[-1,-144],[-65,1],[1,144],[65,-1]],[[9274,1076],[0,-123],[-84,0],[0,124],[84,-1]],[[9394,1115],[-1,-150],[-82,1],[0,150],[83,-1]],[[9159,1120],[0,-144],[-116,1],[2,145],[114,-2]],[[8713,1100],[0,-153],[-37,-26],[-45,0],[0,179],[82,0]],[[9862,1232],[0,-112],[-79,1],[0,169],[48,-1],[0,-57],[31,0]],[[9329,1283],[-1,-88],[-65,1],[0,87],[66,0]],[[9931,1386],[0,-67],[-46,1],[0,66],[46,0]],[[9676,1649],[-1,-190],[-72,0],[0,-17],[-79,1],[0,162],[79,-1],[0,45],[73,0]],[[9874,1665],[-2,-223],[-56,1],[1,222],[57,0]],[[9634,2360],[-44,-164],[-75,81],[43,165],[76,-82]],[[9884,2294],[0,-225],[-83,1],[0,225],[83,-1]],[[9754,2356],[0,-104],[-50,0],[0,105],[50,-1]],[[9880,2605],[0,-225],[-115,1],[0,225],[115,-1]],[[9669,2628],[-23,-97],[-123,122],[44,187],[82,-82],[-20,-88],[40,-42]],[[9871,2897],[-1,-190],[-84,0],[1,191],[84,-1]],[[9728,3617],[0,-133],[-57,1],[0,-100],[-35,0],[0,-66],[-57,2],[0,297],[149,-1]],[[9695,4056],[0,-196],[-130,2],[0,195],[130,-1]],[[9908,3882],[-55,-102],[-32,-10],[-38,87],[41,77],[1,45],[-37,1],[0,116],[87,-1],[0,-83],[13,0],[0,-84],[20,-46]],[[8690,5460],[0,-184],[-120,9],[0,176],[120,-1]],[[9024,6667],[0,-185],[-84,0],[0,186],[84,-1]],[[9147,4637],[0,-124],[-94,1],[2,248],[76,-1],[0,-124],[16,0]],[[9014,5843],[0,-181],[-78,1],[0,181],[78,-1]],[[9032,6093],[0,-180],[-90,0],[2,182],[88,-2]],[[9042,6326],[5,-160],[-105,2],[0,90],[34,0],[0,69],[66,-1]],[[8324,3249],[2,-193],[50,0],[0,116],[295,-3],[-1,-347],[-184,2],[0,-115],[-223,2],[1,393],[-23,0],[0,107],[50,44],[33,-6]],[[8611,1147],[0,113],[28,-1],[0,-113],[-28,1]],[[209,8883],[241,-2],[0,-205],[-243,2],[2,205]],[[461,8216],[9,0],[1,361],[96,-1],[0,-429],[-106,1],[0,68]],[[1155,5304],[6,-163],[-75,-14],[-8,162],[77,15]],[[1243,5068],[59,3],[21,-36],[2,-135],[-81,-4],[-1,172]],[[235,9732],[0,-99],[-56,0],[0,100],[56,-1]],[[339,9213],[-82,0],[0,495],[222,-1],[-1,-542],[-77,1],[0,20],[-62,1],[0,26]],[[788,7590],[0,349],[195,-2],[0,-205],[62,0],[0,-150],[-131,1],[0,-46],[-37,0],[0,53],[-89,0]],[[670,7951],[-1,-646],[-53,1],[2,646],[52,-1]],[[141,7917],[260,-3],[0,-199],[-47,1],[0,-464],[-134,1],[0,-21],[-80,1],[1,684]],[[896,6956],[0,-72],[-98,1],[0,72],[98,-1]],[[1539,9342],[-61,1],[1,293],[24,28],[149,-1],[-1,-273],[-112,1],[0,-49]],[[1603,9224],[0,-120],[19,0],[-1,-262],[-20,0],[-7,-133],[-98,1],[0,133],[-17,0],[1,246],[16,0],[1,136],[106,-1]],[[1589,8516],[0,-73],[34,-1],[0,-143],[-161,2],[2,339],[163,-1],[0,-124],[-38,1]],[[2061,7253],[-2,-37],[67,-1],[-2,-655],[-104,1],[1,692],[40,0]],[[1684,7832],[-1,-458],[-93,1],[1,105],[-34,-13],[1,269],[33,-10],[0,107],[93,-1]],[[1576,6629],[-47,0],[1,556],[46,-1],[0,51],[39,0],[-1,-607],[-38,1]],[[1674,7183],[0,-62],[254,-3],[0,-150],[-296,4],[0,212],[42,-1]],[[1629,6427],[0,-147],[-93,14],[0,73],[25,0],[0,60],[68,0]],[[1618,5737],[0,-102],[14,-64],[-119,1],[0,166],[105,-1]],[[1642,5494],[1,74],[44,-1],[0,-73],[-45,0]],[[2850,5304],[0,402],[128,-2],[-2,-402],[-126,2]],[[5031,5994],[252,-240],[-38,-165],[-251,241],[37,164]],[[496,8644],[1,173],[157,-2],[-2,-172],[-156,1]],[[987,9194],[0,-133],[-65,0],[0,134],[-27,0],[1,224],[92,-1],[-1,-224]],[[1021,8295],[-74,1],[1,278],[18,0],[0,415],[78,-1],[-1,-415],[-22,1],[0,-279]],[[1067,7411],[0,460],[148,-2],[0,-459],[-148,1]],[[968,5158],[0,116],[49,-1],[0,-116],[-49,1]],[[1122,6539],[0,110],[46,0],[0,-111],[-46,1]],[[1170,4827],[0,100],[55,0],[0,-100],[-55,0]],[[1064,6786],[0,-27],[45,-1],[0,-163],[-92,1],[2,190],[45,0]],[[1252,6525],[-69,0],[0,91],[69,0],[0,41],[73,-1],[-2,-132],[-71,1]],[[1040,9523],[1,268],[105,-1],[0,-268],[-106,1]],[[124,8021],[2,282],[251,-2],[0,-283],[-253,3]],[[695,8003],[0,310],[205,-2],[0,-309],[-205,1]],[[1068,8812],[0,162],[172,-2],[0,-162],[-172,2]],[[1086,8639],[0,106],[58,0],[0,-106],[-58,0]],[[1169,8309],[1,410],[87,0],[0,-411],[-88,1]],[[1049,8295],[1,168],[100,-1],[0,-168],[-101,1]],[[4693,6473],[289,-106],[-16,-174],[-288,114],[15,166]],[[7624,3488],[94,-337],[46,55],[47,-172],[-158,-184],[-74,263],[-134,-175],[-256,2],[0,-80],[-98,1],[1,401],[98,0],[0,-91],[158,-2],[276,319]],[[7466,3514],[81,103],[33,-110],[-81,-101],[-33,108]],[[6824,1666],[0,-123],[17,0],[-2,-227],[-90,0],[1,351],[74,-1]],[[3730,854],[0,-133],[-48,1],[0,55],[-26,1],[-8,77],[2,242],[121,-1],[0,-128],[-22,0],[0,-114],[-19,0]],[[8312,921],[-28,0],[0,185],[79,-1],[0,-159],[-51,1],[0,-26]],[[8398,951],[0,139],[74,-1],[0,-139],[-74,1]],[[8349,1145],[0,93],[27,-1],[0,-92],[-27,0]],[[8388,1151],[0,83],[29,0],[0,-83],[-29,0]],[[8307,1179],[-24,1],[0,83],[38,0],[-14,-84]],[[8472,1794],[10,-135],[-10,1],[0,-295],[-92,1],[0,301],[65,-1],[-19,44],[0,85],[46,-1]],[[8517,950],[0,227],[84,0],[-2,-228],[-82,1]],[[7395,1127],[0,139],[132,-1],[0,-139],[-132,1]],[[7686,1008],[0,152],[104,-1],[0,-152],[-104,1]],[[7849,1408],[0,126],[82,-1],[0,-126],[-82,1]],[[2022,6359],[0,-14],[87,0],[0,-152],[-117,1],[1,69],[-38,0],[1,96],[66,0]],[[7828,915],[1,356],[120,-1],[-1,-356],[-120,1]],[[2971,7014],[0,-100],[23,0],[0,-148],[-23,0],[-1,-48],[-87,1],[1,58],[-153,2],[0,137],[40,0],[0,42],[74,-1],[0,-42],[39,0],[0,100],[87,-1]],[[2457,7256],[0,-104],[33,0],[0,-165],[-34,0],[0,-292],[-82,1],[0,162],[-15,0],[0,263],[17,0],[0,136],[81,-1]],[[2628,7584],[0,-76],[-64,1],[0,76],[-94,1],[0,-138],[-73,0],[1,275],[256,-2],[0,-137],[-26,0]],[[2822,7470],[0,-54],[23,0],[0,-228],[-23,0],[0,-49],[-71,0],[0,141],[-21,0],[0,104],[21,0],[0,86],[-15,0],[2,189],[117,-1],[-1,-189],[-32,1]],[[2058,7932],[0,99],[55,-1],[0,-99],[-55,1]],[[8463,1136],[0,102],[32,0],[0,-102],[-32,0]],[[3328,1651],[0,-142]],[[3328,1509],[-1,-345],[-88,1],[1,561],[88,-1],[0,-74]],[[3952,2210],[0,-225],[-9,0],[-1,-390],[24,0],[0,-157],[-116,1],[5,157],[1,390],[-12,0],[0,225],[108,-1]],[[7102,2630],[17,-61],[0,-121],[21,0],[-1,-269],[-22,0],[-1,-378],[-16,-54],[-68,0],[-19,55],[1,378],[-45,1],[0,168],[21,0],[0,100],[24,0],[0,121],[19,0],[0,61],[69,-1]],[[6651,1793],[0,102],[-17,1],[0,236],[-60,1],[4,797]],[[6578,2930],[102,-1],[-3,-688],[-11,-52],[70,0],[0,-397],[-85,1]],[[4159,3390],[704,-6],[0,33],[62,-1],[0,-216],[-64,1],[0,17],[-330,3],[0,-45],[-47,1],[0,45],[-325,3],[0,-41],[-67,1],[0,230],[67,-1],[0,-24]],[[5300,3743],[435,-4],[0,69],[74,-1],[0,-404],[-75,1],[0,69],[-434,4],[-1,-73],[-77,0],[0,409],[78,-1],[0,-69]],[[7515,3983],[-25,0],[-1,-115]],[[7489,3868],[-20,-50],[-316,3],[0,43],[-56,1],[0,-39],[-61,1],[1,119],[-14,0],[14,81],[0,136],[51,-1],[9,-20],[418,-4],[0,-155]],[[7004,3693],[-1,-881],[-58,0],[0,-70],[-117,1],[0,70],[-55,1],[4,1498],[166,-1],[-2,-618],[63,0]],[[6810,3166],[92,-1],[0,231],[-92,1],[0,-231]],[[6810,3487],[92,-1],[0,188],[-92,1],[0,-188]],[[6963,3255],[-37,1],[0,-143],[37,-1],[0,143]],[[6129,4290],[0,-89],[70,-1],[0,50],[152,-1],[0,-25],[232,-2],[0,-298],[-232,2],[0,-70],[-153,1],[0,102],[-171,-6],[-69,91],[70,214],[60,0],[0,33],[41,-1]],[[3960,4399],[-2,-432],[35,0],[0,-124],[-160,2],[0,-29],[-176,2],[0,138],[-71,1],[0,298],[227,-2],[0,148],[147,-2]],[[4480,4680],[0,-292],[255,-2],[0,-68],[171,-1],[-3,-620],[-120,1],[2,404],[-50,19],[-426,5],[0,-20],[-213,2],[1,350],[27,-1],[1,226],[355,-3]],[[3506,4759],[1,304],[112,-1],[0,44],[85,-1],[0,-56],[111,-1],[0,21],[123,-1],[0,-491],[-124,1],[-5,105]],[[3809,4683],[0,212],[-103,1],[0,-139],[-200,2]],[[303,5256],[0,-277],[-233,3],[0,276],[233,-2]],[[4048,5520],[1,220]],[[4049,5740],[112,6],[0,-367],[-113,1],[0,140]],[[5652,6595],[0,-211],[-102,3],[-1,-420],[131,-2],[-1,-208],[-232,0],[1,662],[-60,1],[0,179],[264,-4]],[[590,6846],[-3,-1597],[-233,2],[3,928],[-71,1],[0,304],[-28,0],[0,168],[28,-1],[2,198],[302,-3]],[[4335,7109],[266,-271],[8,33],[74,-76],[35,-5],[12,46],[221,82],[20,-24],[6,-147],[-255,-90],[-66,67],[-6,-28],[-74,75],[-22,-88],[-259,264],[40,162]],[[1005,7210],[0,-202],[-271,3],[0,202],[271,-3]],[[4613,7950],[0,130]],[[4613,8080],[10,-2],[0,314],[177,3],[3,-193],[-76,-2],[0,-96],[-16,0],[1,-381],[8,-70],[-184,-4]],[[4536,7649],[1,135]],[[4537,7784],[3,71],[75,2],[-2,93]],[[1140,9487],[-2,-442],[-141,2],[1,441],[142,-1]],[[804,9751],[-1,-760],[-46,0],[0,-44],[-47,0],[0,36],[-185,1],[1,295],[83,-1],[0,475],[195,-2]],[[3421,1650],[-1,-142]],[[3420,1508],[-92,1]],[[3328,1651],[93,-1]],[[3421,1650],[0,32],[248,-3],[-1,-173],[-248,2]],[[6547,1773],[-71,-2],[1,459],[-38,-23],[-93,1],[1,791],[94,-1],[0,-70]],[[6441,2928],[-1,-597],[109,-1],[-2,-557]],[[6651,1793],[-22,0],[0,53],[-56,1],[-4,-74],[-22,0]],[[6441,2928],[137,2]],[[7515,3983],[115,-8],[-1,-61],[-61,0],[0,-46],[-79,0]],[[3527,4686],[-1,-357],[-129,2],[0,-106],[-143,2],[2,542],[127,-2]],[[3383,4767],[0,-66],[144,-3],[0,-12]],[[3809,4683],[-18,0],[0,-76],[-58,0],[1,77],[-207,2]],[[3383,4767],[40,-17],[0,81],[71,-1],[12,-71]],[[4048,5520],[-100,1],[0,219],[101,0]],[[4536,7649],[-23,39],[-46,-78],[-28,0]],[[4439,7610],[0,142]],[[4439,7752],[5,-41],[50,72],[43,1]],[[4613,7950],[-26,0],[0,137],[26,-7]],[[4369,7757],[-19,0],[0,207]],[[4350,7964],[38,1],[0,-91],[-20,0],[1,-117]],[[4369,7757],[70,-5]],[[4439,7610],[0,-42],[-134,-3],[-50,-19],[-1,91],[13,0],[-3,341],[-11,0],[-1,133],[-82,-2],[-1,192],[180,4],[1,-341]],[[68,9977],[1223,-12],[71,-19]],[[1362,9957],[0,-11]],[[1362,9946],[1,-170],[15,-1649]],[[1378,8127],[0,-228]],[[1378,7899],[4,-885]],[[1362,9946],[85,-21],[244,-1]],[[1691,9924],[623,0]],[[2314,9924],[268,0]],[[2582,9924],[110,0]],[[2692,9924],[175,2]],[[2867,9926],[326,-1]],[[3193,9925],[754,3]],[[3947,9928],[83,1]],[[1382,7014],[3,-430]],[[1385,6584],[6,-824],[9,-302]],[[1378,7899],[114,-6]],[[1492,7893],[-3,-613],[403,-2],[41,-27],[13,-66],[-5,-603]],[[1941,6582],[-268,4]],[[1673,6586],[-288,-2]],[[1378,8127],[248,18],[70,15]],[[1696,8160],[487,6]],[[1400,5458],[10,-153]],[[1410,5305],[15,-109],[27,-113],[37,-108],[87,-163]],[[1492,7893],[32,52],[258,2],[2,-162]],[[1673,6586],[-1,307]],[[1691,9924],[1,-222]],[[1692,9702],[0,-564]],[[1692,9138],[4,-978]],[[1692,9702],[130,2],[1,-564],[-131,-2]],[[1706,7620],[69,7]],[[1775,7627],[116,-34],[170,-167],[103,-72]],[[2164,7354],[121,-5]],[[2285,7349],[228,-2]],[[2513,7347],[9,-2],[166,-248],[15,-4]],[[2703,7093],[309,-3],[14,31]],[[1775,7627],[0,129],[9,29]],[[1941,6582],[20,-25],[216,-9],[90,14],[15,29]],[[2282,6591],[185,9],[45,-5]],[[2512,6595],[189,-17]],[[2701,6578],[88,10],[121,46],[153,66],[103,67]],[[3166,6767],[64,22],[401,228],[249,151]],[[3880,7168],[188,169],[134,97],[75,28],[197,53]],[[2314,9924],[0,20]],[[2582,9943],[0,-19]],[[2164,7354],[62,-180],[36,-154],[19,-52]],[[2183,8166],[33,-75],[65,-37]],[[2208,4442],[86,366],[34,99],[64,95],[46,30],[130,17],[254,-19]],[[2822,5030],[117,22]],[[2939,5052],[155,43],[242,99],[74,8],[483,-5]],[[3893,5197],[30,-1]],[[3923,5196],[91,-1]],[[2282,6591],[-1,377]],[[2281,6968],[4,381]],[[2285,7349],[-4,705]],[[2281,8054],[223,-4],[199,-11]],[[2703,8039],[86,-42],[89,-115],[61,-166],[35,-168],[14,-192],[16,-153],[22,-82]],[[3026,7121],[11,-42],[57,-111],[49,-164],[23,-37]],[[2512,6595],[1,752]],[[2513,7347],[2,153],[188,-1]],[[2822,5030],[0,-195],[-18,-176],[-74,-278],[-36,-166],[-37,-305],[-6,-288],[22,-293],[26,-191],[29,-142],[45,-174],[44,-122],[103,-218],[56,-83]],[[2976,2399],[88,-126]],[[2692,9924],[0,19]],[[2703,8039],[0,-540]],[[2703,7499],[0,-406]],[[2703,7093],[-2,-515]],[[2763,1911],[69,44],[29,44],[40,137],[11,88],[64,175]],[[3064,2273],[-85,-293],[-35,-73]],[[2944,1907],[-132,-105]],[[2812,1802],[-27,-19]],[[2812,1802],[29,-111],[139,107]],[[2980,1798],[83,43],[47,12],[421,11],[26,23],[247,368],[23,25],[106,2],[65,152]],[[3401,8443],[-174,456],[-145,371],[-116,326],[-54,122],[-43,63],[-2,145]],[[2939,5052],[45,-202],[65,-245],[48,-200],[51,-245]],[[2944,1907],[36,-109]],[[2980,1798],[211,-1174]],[[3058,263],[36,-123]],[[3369,61],[-45,32],[-79,-13],[-61,39]],[[3184,119],[-57,71],[-82,142]],[[3155,30],[9,13]],[[3164,43],[20,76]],[[5318,5829],[-13,-223],[-42,-76],[-75,90],[-216,234],[32,158],[-25,118],[-28,61],[-184,69],[-66,-3],[-193,104],[-74,6],[-45,-20]],[[4389,6347],[-3,83],[-49,146]],[[4337,6576],[-126,-82],[-67,-16],[-94,47],[-61,-19],[-10,-79],[-41,6],[-49,-160],[-30,-52]],[[3859,6221],[-59,-97],[-153,-115],[-176,-142]],[[3471,5867],[-173,-73],[-46,-67],[-86,-300],[-94,-56]],[[3164,43],[10,-43]],[[3166,6767],[16,-32]],[[3182,6735],[102,-191]],[[3193,9942],[0,-17]],[[3184,119],[19,84],[69,-19],[-1,26],[-80,414]],[[3416,6082],[-24,126],[-87,338],[-104,191],[-19,-2]],[[3947,9928],[0,12]],[[3284,6544],[105,-195],[64,-174],[92,-308],[64,-172],[38,-80],[180,-299]],[[3416,83],[42,41],[329,174],[97,66],[137,140],[61,90],[93,93]],[[4175,687],[63,43]],[[4238,730],[57,24],[68,7],[89,-13],[56,-24],[167,-120],[157,-73],[97,-23],[84,-10],[134,6],[107,25],[213,96]],[[5467,625],[170,59],[151,11],[88,-9],[99,-24]],[[5975,662],[86,-26]],[[6061,636],[59,-18]],[[6120,618],[54,-14]],[[6174,604],[139,-22]],[[6439,622],[172,125],[135,78]],[[6746,825],[88,39],[95,27],[177,17],[134,-16],[108,-42],[135,-97],[101,-49],[128,-25]],[[7712,679],[75,-2]],[[7787,677],[277,-5]],[[3401,8443],[9,385],[0,253],[18,210],[19,106],[56,163],[74,80],[144,41],[133,-1],[109,-25],[181,-83],[95,-1],[141,67],[133,43],[88,2],[75,-14],[133,17],[227,7],[144,11],[59,-14],[60,-50],[37,-76],[19,-89],[2,-136],[-6,-325],[-13,-186],[-38,-152],[-56,-73],[-86,-45],[-72,-7],[-78,17],[-86,46],[-99,39],[-42,3],[-162,-44],[-388,-42],[-72,-39]],[[4159,8531],[-40,-104],[-45,-255],[-12,-209],[-8,-421],[-15,-67],[-164,-153],[-103,-113]],[[3772,7209],[-101,10],[-98,52],[-76,90],[-59,121],[-40,131],[-19,166],[4,228],[13,239],[5,197]],[[3471,5867],[-55,215]],[[4013,4455],[-177,2],[-50,43],[-56,7],[-97,-30],[-19,-27],[-54,-155],[-88,-150]],[[3623,1196],[39,32],[106,14]],[[3994,840],[89,68]],[[4083,908],[-62,272],[-33,81]],[[3988,1261],[-76,59],[-67,5],[-77,-83]],[[3768,1242],[0,-423],[13,-57],[32,-38],[55,5],[126,111]],[[3880,7168],[-67,41],[-41,0]],[[3827,5316],[45,-76]],[[3859,6221],[14,-85],[41,-58],[24,-115]],[[3872,5240],[21,-43]],[[3893,5197],[96,-185],[24,-66]],[[4337,6576],[-25,71],[-63,106],[-176,140],[-148,175],[-45,100]],[[4975,6721],[-124,-19],[-78,-40],[-52,-41]],[[4721,6621],[-117,-38],[-116,134],[-23,59],[-224,222],[-60,81],[-53,22],[-97,2],[-114,25],[-37,40]],[[3923,5566],[0,-370]],[[3928,5747],[-5,-181]],[[3938,5963],[-10,-216]],[[3998,2434],[-10,-1173]],[[4011,3146],[-8,-46],[-5,-666]],[[3998,2434],[402,608],[33,75]],[[4013,4946],[0,-491]],[[4013,4455],[0,-378]],[[4013,4077],[4,-569]],[[4017,3508],[-19,-130],[0,-169],[13,-63]],[[4011,3146],[51,-22],[74,-8],[297,1]],[[4433,3117],[66,0]],[[4499,3117],[421,1],[78,82],[79,104]],[[4013,4077],[97,2]],[[4110,4079],[162,-12]],[[4272,4067],[98,-52],[47,5],[77,45]],[[4494,4065],[43,-49],[138,-249]],[[4675,3767],[153,-262]],[[4017,3508],[420,-2]],[[4437,3506],[63,0]],[[4500,3506],[59,0]],[[4559,3506],[269,-1]],[[4828,3505],[102,-1]],[[4017,3508],[186,408]],[[4203,3916],[69,151]],[[4013,4946],[1,249]],[[4238,5683],[-102,-447]],[[4136,5236],[-50,-42],[-72,1]],[[4030,9929],[570,-3]],[[4600,9926],[592,5]],[[5192,9931],[261,0]],[[5453,9931],[282,-1]],[[4083,908],[67,-147],[25,-74]],[[4110,4079],[93,-163]],[[4203,3916],[234,-410]],[[4136,5236],[38,-69]],[[4174,5167],[171,-244],[66,-86]],[[4411,4837],[68,-89],[6,-26],[0,-282],[430,-5],[-1,-217]],[[4159,8531],[-17,43],[-3,128],[14,148],[28,50],[36,14]],[[4174,5167],[88,28],[43,-15]],[[4305,5180],[5,78],[23,102],[9,143]],[[4238,730],[3,-32]],[[4238,5683],[90,-76]],[[4328,5607],[128,-135],[34,-154],[55,-165],[50,-69],[33,-100],[102,-144],[122,-109],[106,-75],[101,-46],[214,16],[47,13]],[[5320,4639],[31,7],[55,116]],[[5406,4762],[38,46],[97,21]],[[5541,4829],[162,-64],[136,-68],[207,-32],[297,-118],[281,-37],[147,46],[244,124]],[[7015,4680],[152,76],[117,13],[43,39],[53,18]],[[7380,4826],[152,-85],[33,-32],[63,-265]],[[7628,4444],[17,-26]],[[7645,4418],[35,16],[36,63],[40,123],[44,105],[154,142],[47,64],[97,221],[15,116],[43,131],[52,40]],[[8295,5501],[79,88]],[[8374,5589],[1,468]],[[8375,6057],[1,70],[-71,322],[-33,126],[-184,-152],[-68,-103],[-118,-139],[-53,-49],[-202,-47],[-198,-50],[-139,-69],[-64,0],[-145,-23],[-125,-126],[-44,-23],[-53,0],[-66,-29],[-35,-69],[-93,-136],[-52,-57],[-133,-120],[-81,-29],[-92,6],[-285,51],[-154,51],[-226,47],[-117,-35],[-97,-16]],[[5448,5458],[-233,-50],[-114,9],[-162,182],[-39,75],[-36,243],[-45,95],[-102,106],[-50,79],[-155,100],[-123,50]],[[4389,6347],[-98,-370],[-27,-120],[-26,-174]],[[4600,9938],[0,-12]],[[4305,5180],[36,-184],[70,-159]],[[4342,5503],[-14,104]],[[4471,7869],[0,81]],[[4471,7950],[-1,301],[11,81],[64,155],[31,31],[244,-2],[35,-22],[24,-46],[13,-70],[4,-306],[9,-177]],[[4474,7515],[-3,292]],[[4471,7807],[60,2],[0,136],[-14,-2],[0,-108],[-9,0],[-1,116],[-36,-1]],[[4474,7515],[278,2],[66,11]],[[4471,7807],[0,62]],[[4494,4065],[6,-559]],[[4494,4065],[182,0],[-1,-298]],[[4499,3117],[0,125]],[[4499,3242],[0,179]],[[4500,3506],[-1,-85]],[[4675,3767],[-116,-261]],[[4721,6621],[28,-40],[93,-73],[64,6],[82,32]],[[4818,7528],[65,-142],[19,-88],[102,-299],[27,-257]],[[5031,6742],[37,-241],[32,-127]],[[5100,6374],[80,-172],[68,-124]],[[5248,6078],[49,-157]],[[5297,5921],[21,-92]],[[5318,5829],[22,-99]],[[4818,7528],[107,116]],[[5467,8020],[9,-42]],[[5476,7978],[-4,-142],[-24,-34],[-482,-165],[-41,7]],[[4925,7644],[-14,52],[-6,199]],[[4905,7895],[23,28],[479,156],[27,-5],[33,-54]],[[5231,3308],[-155,421]],[[5076,3729],[-49,133]],[[5027,3862],[-113,306]],[[4914,4218],[0,-50]],[[4914,4168],[-2,-305]],[[4912,3863],[0,-293]],[[4912,3570],[18,-66]],[[4912,3570],[164,159]],[[5076,3729],[136,131]],[[5212,3860],[20,48],[238,387]],[[4912,3863],[115,-1]],[[5027,3862],[185,-2]],[[5212,3860],[301,-3]],[[5513,3857],[190,3],[29,18],[88,96]],[[4914,4218],[39,-66],[203,-236],[56,-56]],[[5470,4295],[-41,0],[-119,-73],[-97,-12]],[[5213,4210],[-260,-1],[-39,9]],[[4930,3504],[50,-97],[60,-84],[37,-19]],[[5077,3304],[154,4]],[[5231,3308],[282,-1]],[[5513,3307],[46,-1]],[[5559,3306],[277,1],[112,11]],[[4975,6721],[-3,-117],[16,-58]],[[4988,6546],[33,-71],[34,-110],[45,9]],[[5031,6742],[-56,-21]],[[5416,7010],[-131,-95],[-107,-41],[-74,21],[-32,117],[-2,77],[53,67],[126,60],[130,78],[54,-35],[80,-129]],[[5513,7130],[-97,-120]],[[5100,6374],[88,-25],[44,12],[57,53]],[[5192,9937],[0,-6]],[[5213,4210],[-1,-350]],[[5467,625],[0,-22]],[[5248,6078],[12,203],[29,133]],[[5289,6414],[63,176],[63,137],[16,105],[-15,178]],[[5448,5458],[-106,402],[-45,61]],[[5320,4639],[150,-344]],[[5340,5730],[107,-424],[34,-192],[21,-148],[14,-207],[-6,-398]],[[5406,4762],[-40,89]],[[5513,7130],[34,98],[48,274]],[[5595,7502],[21,258],[-2,269]],[[5614,8029],[-14,253],[-26,188],[-30,188],[-54,238],[-27,172],[-7,135],[-8,264],[5,464]],[[5517,3506],[-4,-199]],[[5513,3307],[-3,-2501],[-43,-181]],[[5510,4361],[-40,-66]],[[5476,7978],[138,51]],[[5510,4361],[151,-194],[159,-193]],[[5820,3974],[119,-175]],[[5510,4361],[3,-504]],[[5541,4829],[-15,-325],[-16,-143]],[[5559,3306],[501,-622],[8,-83]],[[6068,2601],[55,6]],[[5731,7503],[-136,-1]],[[6118,3430],[16,100]],[[6134,3530],[-10,143],[-46,112],[-60,45],[-79,-31]],[[5939,3799],[-42,-71],[-24,-109],[1,-127],[19,-83],[55,-91]],[[5948,3318],[53,-24]],[[6001,3294],[46,17],[37,42],[34,77]],[[6068,2601],[9,-148],[2,-500],[-16,-136],[-27,-118],[-19,-206],[2,-68],[37,-86]],[[6056,1339],[-1,-197],[-9,-81],[-36,-113],[-20,-111],[-15,-175]],[[6001,3294],[59,-40],[32,-70],[29,-105]],[[6061,636],[0,-25]],[[6056,1339],[67,28]],[[6166,1550],[0,11]],[[6166,1561],[-15,68],[-28,21]],[[6123,1650],[-23,-15],[-21,-75],[17,-68],[27,-19]],[[6123,1473],[20,8],[23,69]],[[6121,3079],[-11,217]],[[6110,3296],[8,134]],[[6110,3296],[181,3]],[[6291,3299],[19,0]],[[6310,3299],[82,1]],[[6392,3300],[63,6],[26,34],[15,62]],[[6496,3402],[19,101]],[[6515,3503],[127,461],[1,88]],[[6123,1473],[0,-106]],[[6123,1367],[-3,-749]],[[6121,3079],[3,-306],[-1,-166]],[[6123,2607],[0,-957]],[[6310,3299],[-176,231]],[[6174,598],[0,6]],[[6166,1561],[157,-8],[84,-21]],[[6407,1532],[78,-15],[57,15],[98,92],[101,133],[91,36],[48,-12]],[[6880,1781],[37,-25],[98,-102],[39,-8],[43,24],[93,165],[31,33],[209,4],[45,-19],[53,-73],[216,-2]],[[7744,1778],[329,-3]],[[6291,3299],[-5,-299],[5,-682],[22,-151],[99,-543],[-5,-92]],[[6392,3300],[66,-170],[92,-116]],[[6496,3402],[39,-129],[39,-202]],[[6515,3503],[21,-60],[61,76],[12,-19],[0,-409]],[[6515,3503],[8,115]],[[6523,3618],[4,339]],[[6732,2672],[-14,20],[-1,223],[-18,57],[-53,97],[-37,22]],[[6609,3091],[-35,-20]],[[6574,3071],[-24,-57]],[[6732,2672],[18,0]],[[6750,2672],[236,7]],[[6986,2679],[73,14]],[[7059,2693],[-18,1057]],[[6746,825],[0,-33]],[[6750,2672],[10,-52],[64,-165],[23,-77],[27,-165]],[[6874,2213],[7,-69],[8,-253],[-9,-110]],[[6874,2213],[28,186],[84,280]],[[7036,4586],[0,-63],[-42,-61],[-21,-61],[-6,-95],[15,-169],[24,-152]],[[7015,4680],[21,-94]],[[7059,2693],[56,9],[469,-7],[-1,-159]],[[7380,4826],[35,170],[9,134],[-41,102],[-30,15],[-43,-25],[-102,70]],[[8064,672],[9,1103]],[[8073,1775],[2,633],[-11,63],[-30,60]],[[8034,2531],[-48,150]],[[7986,2681],[-51,242],[-59,136],[-182,620],[-78,58]],[[7616,3737],[-83,-13],[-50,-50]],[[8034,2531],[-451,5]],[[7628,4444],[-22,-298],[25,-198],[-15,-211]],[[7712,679],[0,-20]],[[7645,4418],[167,-364],[104,-251],[93,-179],[93,-83],[74,-32],[93,0],[50,19],[56,60],[107,136],[353,-103],[96,-33]],[[8931,3588],[56,36],[138,142],[232,297],[61,107],[24,118]],[[7744,1778],[2,-158],[32,-165],[22,-72],[11,-104],[0,-281],[-25,-132],[1,-189]],[[7986,2681],[217,-24]],[[8203,2657],[154,-17]],[[8064,672],[176,-5],[1190,-15]],[[9430,652],[501,-10],[56,1]],[[8073,1775],[74,-37],[219,-3]],[[8203,2657],[103,-232],[37,-59],[47,-24],[211,-29],[125,-53],[113,-61],[86,-18],[196,-111],[153,-150]],[[8374,5589],[126,389]],[[8500,5978],[33,104],[49,105],[67,66],[78,56],[115,53]],[[8500,5978],[-125,79]],[[8931,3588],[-54,-225],[-34,-47],[-156,-92]],[[8823,6698],[11,-92],[8,-244]],[[8842,6362],[-5,-750]],[[8817,5497],[0,66],[20,49]],[[9134,1873],[47,51],[93,-4]],[[9274,1920],[97,-44],[51,-52]],[[9430,652],[4,1125],[-12,47]],[[9430,646],[0,6]],[[9593,1891],[397,0]],[[9990,1891],[6,0]],[[9635,3084],[357,1]],[[9992,3085],[4,0]],[[9992,4281],[0,-1196]],[[9992,3085],[-2,-1194]],[[9990,1891],[-4,-1102],[1,-146]],[[9987,643],[0,-3]],[[9987,643],[6,0]],[[8195,4302],[273,-2],[-97,-71],[-139,33],[-37,40]]],"transform":{"scale":[0.0000017170951421132714,5.942862203319619e-7],"translate":[-122.63981725256,45.4788145466873]}}