{"type":"Topology","objects":{"land":{"type":"GeometryCollection","geometries":[{"type":"MultiPolygon","properties":{"name":"FOREST PARK/LINNTON","gid":4},"arcs":[[[0,1,2,3,4,5,6,7,8,9,10,11,12,13,14,15,16,17,18,19,20,21,22,23,24,25,26,27,28,29,30,31,32,33,34,35,36,37,38,39,40,41,42,43,44,45,46,47,48,49,50,51,52,53,54,55,56,57,58,59,60,61,62,63,64,65,66,67,68,69,70,71,72,73,74,75,76,77,78,79,80,81,82,83,84,85,86,87,88,89,90,91,92,93,94,95,96,97,98,99,100,101,102,103,104,105,106,107,108,109,110,111,112,113,114,115,116,117,118,119,120,121,122,123,124,125,126,127,128,129,130,131,132,133,134,135,136,137,138,139,140,141,142,143,144,145,146,147,148,149,150,151,152,153,154,155,156,157,158,159,160,161,162,163,164,165,166,167,168,169,170,171,172,173,174,175,176,177,178,179,180,181,182,183,184,185,186,187,188,189,190,191,192,193,194,195,196,197,198,199,200,201,202,203,204,205,206,207,208,209,210,211,212,213,214,215,216,217,218,219,220,221,222,223,224,225,226,227,228,229,230,231,232,233,234,235,236,237,238,239,240,241,242,243,244,245,246,247,248,249,250,251,252,253,254,255,256,257,258,259,260,261,262,263,264,265,266,267,268,269,270,271,272,273,274,275,276,277,278,279,280,281,282,283,284,285,286,287,288,289,290,291,292,293,294,295,296,297,298,299,300,301,302,303,304,305,306,307,308,309,310,311,312,313,314,315,316,317,318,319,320,321,322,323,324,325,326,327,328,329,330,331,332,333,334,335,336,337,338,339,340,341,342,343,344,345,346,347,348,349,350,351,352,353,354,355,356,357,358,359,360,361,362,363,364,365,366,367,368,369,370,371,372,373,374,375,376,377,378,379,380,381,382,383,384,385,386,387,388,389,390,391,392,393,394,395,396,397,398,399,400,401,402,403]]]}]},"buildings":{"type":"GeometryCollection","geometries":[{"type":"Polygon","properties":{"year_built":1986,"gid":185976},"arcs":[[404]]},{"type":"Polygon","properties":{"year_built":1911,"gid":236844},"arcs":[[405]]},{"type":"Polygon","properties":{"year_built":1943,"gid":236971},"arcs":[[406]]},{"type":"Polygon","properties":{"year_built":0,"gid":236988},"arcs":[[407]]},{"type":"Polygon","properties":{"year_built":1968,"gid":237446},"arcs":[[408]]},{"type":"Polygon","properties":{"year_built":1956,"gid":237484},"arcs":[[409]]},{"type":"Polygon","properties":{"year_built":1995,"gid":237511},"arcs":[[410]]},{"type":"Polygon","properties":{"year_built":1981,"gid":237512},"arcs":[[411]]},{"type":"MultiPolygon","properties":{"year_built":1956,"gid":237552},"arcs":[[[412]]]},{"type":"Polygon","properties":{"year_built":1956,"gid":238873},"arcs":[[413]]},{"type":"Polygon","properties":{"year_built":2001,"gid":239097},"arcs":[[414]]}]},"roads":{"type":"GeometryCollection","geometries":[{"type":"MultiLineString","properties":{"highway":"footway","gid":35429},"arcs":[[415],[416],[417]]},{"type":"LineString","properties":{"highway":"track","gid":36446},"arcs":[418,419,420]},{"type":"LineString","properties":{"highway":"footway","gid":36743},"arcs":[421,422]},{"type":"LineString","properties":{"highway":"service","gid":36863},"arcs":[423]},{"type":"LineString","properties":{"highway":"track","gid":37183},"arcs":[424]},{"type":"MultiLineString","properties":{"highway":"track","gid":37428},"arcs":[[425],[426,427]]},{"type":"LineString","properties":{"highway":"footway","gid":37477},"arcs":[428,429,430,431,432,433]},{"type":"LineString","properties":{"highway":"track","gid":37644},"arcs":[434,435]},{"type":"LineString","properties":{"highway":"track","gid":38329},"arcs":[436,437]},{"type":"LineString","properties":{"highway":"track","gid":38435},"arcs":[438]},{"type":"LineString","properties":{"highway":"track","gid":38436},"arcs":[439,440,441,442,443,444]},{"type":"LineString","properties":{"highway":"track","gid":38546},"arcs":[445]},{"type":"MultiLineString","properties":{"highway":"service","gid":39119},"arcs":[[446],[447]]},{"type":"LineString","properties":{"highway":"track","gid":39350},"arcs":[448]},{"type":"LineString","properties":{"highway":"track","gid":39430},"arcs":[449]},{"type":"LineString","properties":{"highway":"track","gid":39535},"arcs":[450]},{"type":"LineString","properties":{"highway":"track","gid":39586},"arcs":[451,452,453]},{"type":"LineString","properties":{"highway":"track","gid":39660},"arcs":[454,455]},{"type":"LineString","properties":{"highway":"footway","gid":39676},"arcs":[456]},{"type":"LineString","properties":{"highway":"track","gid":39685},"arcs":[457]},{"type":"LineString","properties":{"highway":"track","gid":39697},"arcs":[458,459]},{"type":"LineString","properties":{"highway":"track","gid":39777},"arcs":[460]},{"type":"LineString","properties":{"highway":"footway","gid":39778},"arcs":[461]},{"type":"LineString","properties":{"highway":"track","gid":40027},"arcs":[462]},{"type":"LineString","properties":{"highway":"track","gid":40082},"arcs":[463]},{"type":"LineString","properties":{"highway":"track","gid":40091},"arcs":[464]},{"type":"LineString","properties":{"highway":"secondary","gid":40305},"arcs":[465,466,467,468,469]},{"type":"LineString","properties":{"highway":"path","gid":40313},"arcs":[470]},{"type":"LineString","properties":{"highway":"track","gid":40454},"arcs":[471]},{"type":"LineString","properties":{"highway":"track","gid":40455},"arcs":[472]},{"type":"LineString","properties":{"highway":"footway","gid":40757},"arcs":[473]},{"type":"LineString","properties":{"highway":"footway","gid":40758},"arcs":[474]},{"type":"LineString","properties":{"highway":"track","gid":40804},"arcs":[475]},{"type":"LineString","properties":{"highway":"service","gid":40891},"arcs":[476]},{"type":"LineString","properties":{"highway":"track","gid":40938},"arcs":[477]},{"type":"LineString","properties":{"highway":"service","gid":41025},"arcs":[478]},{"type":"MultiLineString","properties":{"highway":"footway","gid":41096},"arcs":[[479,480,481],[482]]},{"type":"LineString","properties":{"highway":"footway","gid":41100},"arcs":[483]},{"type":"LineString","properties":{"highway":"living_street","gid":41229},"arcs":[484]},{"type":"LineString","properties":{"highway":"footway","gid":41342},"arcs":[485,486]},{"type":"LineString","properties":{"highway":"footway","gid":41354},"arcs":[487,488]},{"type":"LineString","properties":{"highway":"footway","gid":41380},"arcs":[489,490]},{"type":"LineString","properties":{"highway":"footway","gid":41452},"arcs":[491]},{"type":"LineString","properties":{"highway":"footway","gid":41570},"arcs":[492,493]},{"type":"LineString","properties":{"highway":"footway","gid":41740},"arcs":[494]},{"type":"LineString","properties":{"highway":"track","gid":41744},"arcs":[495]},{"type":"LineString","properties":{"highway":"service","gid":41966},"arcs":[496,497,498]},{"type":"LineString","properties":{"highway":"service","gid":41987},"arcs":[499,500,501]},{"type":"LineString","properties":{"highway":"footway","gid":42066},"arcs":[502]},{"type":"MultiLineString","properties":{"highway":"secondary","gid":42072},"arcs":[[503],[504,505]]},{"type":"LineString","properties":{"highway":"track","gid":42073},"arcs":[506]},{"type":"LineString","properties":{"highway":"service","gid":42274},"arcs":[507]},{"type":"LineString","properties":{"highway":"residential","gid":42381},"arcs":[508]},{"type":"LineString","properties":{"highway":"residential","gid":42396},"arcs":[509]},{"type":"MultiLineString","properties":{"highway":"residential","gid":42401},"arcs":[[510,511],[512,513]]},{"type":"LineString","properties":{"highway":"residential","gid":42417},"arcs":[514]},{"type":"LineString","properties":{"highway":"service","gid":42421},"arcs":[515]},{"type":"LineString","properties":{"highway":"steps","gid":42585},"arcs":[516]},{"type":"LineString","properties":{"highway":"service","gid":42694},"arcs":[517,518]},{"type":"LineString","properties":{"highway":"footway","gid":42796},"arcs":[519]},{"type":"LineString","properties":{"highway":"track","gid":42985},"arcs":[520]},{"type":"LineString","properties":{"highway":"footway","gid":42986},"arcs":[521]},{"type":"MultiLineString","properties":{"highway":"track","gid":43045},"arcs":[[522,523],[524],[525],[526]]},{"type":"LineString","properties":{"highway":"footway","gid":43064},"arcs":[527,528]},{"type":"MultiLineString","properties":{"highway":"residential","gid":43139},"arcs":[[529],[530]]},{"type":"MultiLineString","properties":{"highway":"secondary","gid":43203},"arcs":[[531],[532,533],[534]]},{"type":"LineString","properties":{"highway":"footway","gid":43236},"arcs":[535]},{"type":"LineString","properties":{"highway":"footway","gid":43246},"arcs":[536]},{"type":"LineString","properties":{"highway":"track","gid":43262},"arcs":[537,538]},{"type":"MultiLineString","properties":{"highway":"track","gid":43470},"arcs":[[539],[540],[541,542,543,544]]},{"type":"LineString","properties":{"highway":"footway","gid":43512},"arcs":[545,546,547,548,549,550,551]},{"type":"LineString","properties":{"highway":"footway","gid":43583},"arcs":[552]},{"type":"LineString","properties":{"highway":"footway","gid":43587},"arcs":[553,554]},{"type":"LineString","properties":{"highway":"service","gid":43622},"arcs":[555,556]},{"type":"MultiLineString","properties":{"highway":"service","gid":43623},"arcs":[[557],[558],[559],[560]]},{"type":"LineString","properties":{"highway":"residential","gid":43762},"arcs":[561]},{"type":"LineString","properties":{"highway":"residential","gid":43842},"arcs":[562]},{"type":"LineString","properties":{"highway":"track","gid":44004},"arcs":[563]},{"type":"LineString","properties":{"highway":"footway","gid":44005},"arcs":[564]},{"type":"MultiLineString","properties":{"highway":"service","gid":44028},"arcs":[[565],[566]]},{"type":"LineString","properties":{"highway":"footway","gid":44029},"arcs":[567]},{"type":"LineString","properties":{"highway":"residential","gid":44056},"arcs":[568]},{"type":"LineString","properties":{"highway":"footway","gid":44080},"arcs":[569]},{"type":"LineString","properties":{"highway":"footway","gid":44320},"arcs":[570]},{"type":"LineString","properties":{"highway":"track","gid":44329},"arcs":[571]},{"type":"LineString","properties":{"highway":"track","gid":44359},"arcs":[572]},{"type":"LineString","properties":{"highway":"footway","gid":44606},"arcs":[573]},{"type":"MultiLineString","properties":{"highway":"residential","gid":44703},"arcs":[[574],[575]]},{"type":"LineString","properties":{"highway":"footway","gid":44759},"arcs":[576]},{"type":"LineString","properties":{"highway":"track","gid":44940},"arcs":[577]},{"type":"LineString","properties":{"highway":"track","gid":45315},"arcs":[578]},{"type":"LineString","properties":{"highway":"track","gid":45316},"arcs":[579]},{"type":"LineString","properties":{"highway":"footway","gid":45464},"arcs":[580,581]},{"type":"LineString","properties":{"highway":"footway","gid":45622},"arcs":[582]},{"type":"LineString","properties":{"highway":"service","gid":45765},"arcs":[583,584,585,586,587,588]},{"type":"LineString","properties":{"highway":"footway","gid":45867},"arcs":[589]},{"type":"LineString","properties":{"highway":"residential","gid":45871},"arcs":[590]},{"type":"LineString","properties":{"highway":"service","gid":45954},"arcs":[591,592]},{"type":"LineString","properties":{"highway":"track","gid":46170},"arcs":[593]},{"type":"LineString","properties":{"highway":"path","gid":46235},"arcs":[594]},{"type":"MultiLineString","properties":{"highway":"footway","gid":46283},"arcs":[[595],[596]]},{"type":"LineString","properties":{"highway":"service","gid":46308},"arcs":[597]},{"type":"LineString","properties":{"highway":"footway","gid":46338},"arcs":[598,599,600,601]},{"type":"LineString","properties":{"highway":"footway","gid":46404},"arcs":[602,603]},{"type":"LineString","properties":{"highway":"footway","gid":46451},"arcs":[604]},{"type":"LineString","properties":{"highway":"footway","gid":46466},"arcs":[605,606]},{"type":"LineString","properties":{"highway":"service","gid":46467},"arcs":[607]},{"type":"LineString","properties":{"highway":"footway","gid":46474},"arcs":[608]},{"type":"LineString","properties":{"highway":"footway","gid":46503},"arcs":[609]},{"type":"LineString","properties":{"highway":"footway","gid":46693},"arcs":[610]},{"type":"LineString","properties":{"highway":"footway","gid":46729},"arcs":[611]},{"type":"LineString","properties":{"highway":"primary","gid":46775},"arcs":[612]},{"type":"LineString","properties":{"highway":"footway","gid":46820},"arcs":[613,614]},{"type":"LineString","properties":{"highway":"footway","gid":46821},"arcs":[615]},{"type":"LineString","properties":{"highway":"steps","gid":46897},"arcs":[616]},{"type":"LineString","properties":{"highway":"footway","gid":47040},"arcs":[617]},{"type":"LineString","properties":{"highway":"footway","gid":47079},"arcs":[618]},{"type":"LineString","properties":{"highway":"footway","gid":47115},"arcs":[619]},{"type":"LineString","properties":{"highway":"footway","gid":47193},"arcs":[620]},{"type":"LineString","properties":{"highway":"service","gid":47432},"arcs":[621]},{"type":"LineString","properties":{"highway":"service","gid":47521},"arcs":[622,623,624,625,626,627,628,629,630,631]},{"type":"LineString","properties":{"highway":"track","gid":47598},"arcs":[632]},{"type":"LineString","properties":{"highway":"footway","gid":47638},"arcs":[633]},{"type":"LineString","properties":{"highway":"footway","gid":47952},"arcs":[634]},{"type":"LineString","properties":{"highway":"service","gid":47981},"arcs":[635]},{"type":"LineString","properties":{"highway":"track","gid":48004},"arcs":[636]},{"type":"LineString","properties":{"highway":"footway","gid":48101},"arcs":[637]},{"type":"LineString","properties":{"highway":"footway","gid":48133},"arcs":[638,639]},{"type":"LineString","properties":{"highway":"footway","gid":48152},"arcs":[640]},{"type":"LineString","properties":{"highway":"footway","gid":48177},"arcs":[641]},{"type":"LineString","properties":{"highway":"footway","gid":48200},"arcs":[642]},{"type":"LineString","properties":{"highway":"footway","gid":48263},"arcs":[643]},{"type":"LineString","properties":{"highway":"trunk_link","gid":48300},"arcs":[644]},{"type":"LineString","properties":{"highway":"footway","gid":48518},"arcs":[645]},{"type":"LineString","properties":{"highway":"footway","gid":48579},"arcs":[646]},{"type":"LineString","properties":{"highway":"track","gid":48647},"arcs":[647]},{"type":"LineString","properties":{"highway":"footway","gid":48655},"arcs":[648]},{"type":"LineString","properties":{"highway":"track","gid":48659},"arcs":[649]},{"type":"LineString","properties":{"highway":"footway","gid":48664},"arcs":[650]},{"type":"LineString","properties":{"highway":"footway","gid":48676},"arcs":[651]},{"type":"LineString","properties":{"highway":"footway","gid":48774},"arcs":[652]},{"type":"LineString","properties":{"highway":"service","gid":48796},"arcs":[653]},{"type":"LineString","properties":{"highway":"footway","gid":48940},"arcs":[654,655]},{"type":"LineString","properties":{"highway":"service","gid":48955},"arcs":[656]},{"type":"LineString","properties":{"highway":"footway","gid":48963},"arcs":[657]},{"type":"LineString","properties":{"highway":"track","gid":49039},"arcs":[658]},{"type":"LineString","properties":{"highway":"track","gid":49336},"arcs":[659]},{"type":"LineString","properties":{"highway":"footway","gid":49611},"arcs":[660]},{"type":"LineString","properties":{"highway":"footway","gid":49792},"arcs":[661]},{"type":"LineString","properties":{"highway":"track","gid":49983},"arcs":[662]},{"type":"LineString","properties":{"highway":"residential","gid":49985},"arcs":[663]},{"type":"LineString","properties":{"highway":"track","gid":50031},"arcs":[664]},{"type":"LineString","properties":{"highway":"footway","gid":50058},"arcs":[665]},{"type":"LineString","properties":{"highway":"footway","gid":50068},"arcs":[666]},{"type":"LineString","properties":{"highway":"footway","gid":50313},"arcs":[667]},{"type":"LineString","properties":{"highway":"footway","gid":50318},"arcs":[668]},{"type":"LineString","properties":{"highway":"footway","gid":50398},"arcs":[669]},{"type":"LineString","properties":{"highway":"track","gid":50798},"arcs":[670]},{"type":"LineString","properties":{"highway":"track","gid":50821},"arcs":[671]},{"type":"LineString","properties":{"highway":"service","gid":50948},"arcs":[672]},{"type":"LineString","properties":{"highway":"track","gid":51139},"arcs":[673,674]},{"type":"LineString","properties":{"highway":"path","gid":51194},"arcs":[675]},{"type":"LineString","properties":{"highway":"footway","gid":51404},"arcs":[676]},{"type":"LineString","properties":{"highway":"residential","gid":51876},"arcs":[677]}]},"water":{"type":null},"parks":{"type":"GeometryCollection","geometries":[{"type":"Polygon","properties":{"amenity":null,"gid":5879,"name":"Linnton Park"},"arcs":[[98,678,679,189,680,681,682,199,683,684,202,685,686]]},{"type":"MultiPolygon","properties":{"amenity":null,"gid":6042,"name":"Forest Park"},"arcs":[[[687,1,688,3,689,5,690,691,8,692,10,693,12,694,14,695,16,696,697,698,699,21,700,701,702,25,703,27,704,705,706,31,707,708,34,709,710,37,711,39,712,41,713,714,715,716,46,717,718,719,720,51,721,722,723,55,724,725,243,726,727,246,728,729,730,731,251,732,253,733,255,734,258,735,260,736,737,263,738,265,739,267,740,741,270,742,272,743,744,275,745,746,278,747,748,749,750,751,284,752,286,753,288,754,290,755,756,757,758,759,760,761,762,302,763,764,765,766,307,767,309,768,769,770,313,771,772,316,773,774,319,775,776,777,778,324,779,780,327,781,329,782,783,784,785,334,786,336,787,788,339,789,790,791,792,344,793,346,794,795,796,797,798,799,800,801,802,356,803,358,804,360,805,806,363,807,808,366,809,368,810,370,811,372,812,374,813,814,815,378,816,817,818,382,819,384,820,821,387,822,823,390,824,825,826,827,395,828,397,829,399,830,401,831,403],[832],[833],[834],[835]],[[836,59,837,838,839,63,840,841,66,842,68,843,844,71,845,846,74,847,848,77,849,850,851,81,852,853,854,85,855,856,857,89,858,91,859,860,94,861,862,97,-687,204,863,864,865]],[[866,100,867,868,108,869,110,870,112,871,872,873,116,874,875,876,120,877,878,879,124,880,881,882,883,884,885,886,132,887,134,888,136,889,890,140,891,142,892,893,145,894,895,148,896,897,898,899,900,154,901,156,902,903,159,904,905,906,907,908,909,910,911,168,912,913,914,172,915,174,916,917,918,178,919,180,920,182,921,184,922,186,923,924,-680]],[[104,925,106,926,927]],[[928]],[[190,929,193,930,931,196,-681]],[[932,933,216,934,935,219,936]],[[221,937,938,224,939,940,941,942,943,230,944,945,232,946,947,948,949,950,238,951,240,952,953,954]],[[955,956,957]]]},{"type":"Polygon","properties":{"amenity":null,"gid":6270,"name":"Clark and Wilson Park"},"arcs":[[208,958,210,959,960,213,961,-937,-954,962,-865]]}]}},"arcs":[[[7910,331],[-8,-262]],[[7902,69],[-127,-69],[10,330],[-398,-6]],[[7387,324],[-23,0]],[[7364,324],[-284,-3],[-169,-2],[-94,-1],[0,77]],[[6817,395],[2,154],[2,254]],[[6821,803],[0,69]],[[6821,872],[5,416]],[[6826,1288],[-1019,949],[-9,9]],[[5798,2246],[0,0],[-15,-29],[11,-40],[-23,-4]],[[5771,2173],[-103,-113],[-14,22]],[[5654,2082],[19,78],[-19,124]],[[5654,2284],[-53,0]],[[5601,2284],[-26,-46],[-38,-7]],[[5537,2231],[-42,-35]],[[5495,2196],[-76,-18],[-49,-74]],[[5370,2104],[-22,31]],[[5348,2135],[-27,32]],[[5321,2167],[-26,4],[-2,219]],[[5293,2390],[-206,5]],[[5087,2395],[-316,7]],[[4771,2402],[-85,-100]],[[4686,2302],[-13,3]],[[4673,2305],[82,97]],[[4755,2402],[-233,7]],[[4522,2409],[-2,252]],[[4520,2661],[0,66]],[[4520,2727],[-3,182],[-3,185]],[[4514,3094],[-4,317],[-10,504],[-10,503],[-29,0],[-86,1],[-19,0],[-24,-137],[12,-62],[-28,-71],[-24,-51],[-68,-42],[-59,-12],[-75,-3],[-13,-6],[-16,-7]],[[4061,4028],[-47,-24]],[[4014,4004],[-103,-125],[-19,-15]],[[3892,3864],[-40,-36],[-22,-55],[-16,4],[-18,2],[-18,1],[-12,-1],[-114,-6],[-9,-1],[-19,2],[-16,5],[-9,4],[-7,6],[-98,65],[-18,12],[-8,11],[-5,10],[-2,5],[-3,12],[0,13],[6,15],[12,22]],[[3476,3954],[16,27],[1,1]],[[3493,3982],[9,19]],[[3502,4001],[7,18]],[[3509,4019],[4,21],[2,20],[0,14],[-3,176]],[[3512,4250],[170,-1]],[[3682,4249],[-3,59]],[[3679,4308],[-1,38],[-6,38],[-8,36]],[[3664,4420],[0,97]],[[3664,4517],[13,6]],[[3677,4523],[-7,34]],[[3670,4557],[-6,18]],[[3664,4575],[-4,17]],[[3660,4592],[-13,25]],[[3647,4617],[-116,-57]],[[3531,4560],[-15,22],[-11,16],[-21,33]],[[3484,4631],[-32,53]],[[3452,4684],[77,39]],[[3529,4723],[-45,52],[-8,8],[-80,94]],[[3396,4877],[-46,-67],[-2,-2]],[[3348,4808],[-69,82],[-26,29],[-25,32],[-53,60]],[[3175,5011],[5,4]],[[3180,5015],[-51,61]],[[3129,5076],[6,3]],[[3135,5079],[-3,77]],[[3132,5156],[-1,47]],[[3131,5203],[-2,28],[-46,26]],[[3083,5257],[-51,18],[-7,-3]],[[3025,5272],[-4,-1]],[[3021,5271],[-26,-2],[-20,-5],[-19,-7],[-20,-15],[-7,-7],[-28,35],[-12,12],[-11,11],[-21,14],[-16,6],[-23,9]],[[2818,5322],[-41,12],[-3,0],[-17,5],[-18,8]],[[2739,5347],[-17,11],[-18,11],[-37,29]],[[2667,5398],[70,36]],[[2737,5434],[64,32]],[[2801,5466],[-30,35],[-80,97]],[[2691,5598],[-44,50],[-51,59],[-41,49]],[[2555,5756],[-41,49],[-41,48],[92,48],[-51,81],[-60,98]],[[2454,6080],[-6,-9]],[[2448,6071],[-17,-25],[-4,-10],[-5,-13],[-1,-6],[1,-7],[0,-17]],[[2422,5993],[4,-24],[-1,-4]],[[2425,5965],[-6,-5]],[[2419,5960],[-9,-2],[-10,-7],[-1,-4]],[[2399,5947],[-8,-9],[-5,-5],[-4,0]],[[2382,5933],[-6,6],[-19,31]],[[2357,5970],[-6,9],[-8,6],[-8,6],[-14,3],[-16,0],[-5,-1]],[[2300,5993],[-63,-15]],[[2237,5978],[-2,0]],[[2235,5978],[-2,3],[-13,-1],[-16,52],[0,2],[-6,9],[6,5],[-94,148],[-92,-48],[-31,-16]],[[1987,6132],[-21,35]],[[1966,6167],[-18,28]],[[1948,6195],[-28,41]],[[1920,6236],[-10,18]],[[1910,6254],[-6,7]],[[1904,6261],[33,17],[91,47],[10,6],[136,69]],[[2174,6400],[82,-129],[51,-77]],[[2307,6194],[11,-7]],[[2318,6187],[2,5],[5,4]],[[2325,6196],[24,12],[9,2]],[[2358,6210],[66,0]],[[2424,6210],[11,0],[9,2]],[[2444,6212],[5,1]],[[2449,6213],[34,8],[131,32],[8,3],[5,4],[5,7],[1,4],[0,13]],[[2633,6284],[0,10]],[[2633,6294],[-7,23],[-2,17],[0,16],[1,10]],[[2625,6360],[-1,10],[-3,20],[-7,22],[-19,34]],[[2595,6446],[-2,5]],[[2593,6451],[-35,147]],[[2558,6598],[75,38]],[[2633,6636],[-136,281]],[[2497,6917],[-6,9]],[[2491,6926],[-251,-133]],[[2240,6793],[-653,-341],[-116,-60]],[[1471,6392],[-1,16],[-5,16],[-6,17],[-5,7]],[[1454,6448],[-3,5]],[[1451,6453],[-10,15],[-26,20],[-12,8],[-7,3],[-133,62],[-13,4]],[[1250,6565],[-24,53]],[[1226,6618],[450,236]],[[1676,6854],[81,42],[36,63]],[[1793,6959],[1,1]],[[1794,6960],[-49,-1]],[[1745,6959],[-68,1]],[[1677,6960],[-405,0],[-26,2]],[[1246,6962],[-187,0],[-114,-218],[-8,6]],[[937,6750],[113,212]],[[1050,6962],[-41,0]],[[1009,6962],[102,202]],[[1111,7164],[19,0]],[[1130,7164],[65,-32]],[[1195,7132],[51,80]],[[1246,7212],[-134,69]],[[1112,7281],[1,184],[-746,5],[6,331],[-177,1],[-196,1],[2,150],[2,179],[1117,-5],[5,331]],[[1126,8458],[18,500]],[[1144,8958],[0,47],[-2,460]],[[1142,9465],[476,0]],[[1618,9465],[74,-1],[2,5],[21,50],[13,19],[23,31],[32,66],[11,25],[-5,10],[-27,28],[10,52],[17,53],[33,50],[36,20],[37,15],[19,37],[35,15],[51,18],[17,6],[22,14],[19,10],[19,11]],[[2077,9999],[9,-8],[46,-37]],[[2132,9954],[-15,-15],[-25,-26],[-4,-2],[-13,-15],[-16,-14],[-8,-8]],[[2051,9874],[42,-34],[14,-12]],[[2107,9828],[32,-26],[16,-13]],[[2155,9789],[16,-13],[14,-13]],[[2185,9763],[32,-26],[16,-13]],[[2233,9724],[33,-28],[16,-13]],[[2282,9683],[9,-7],[17,-15],[19,-15],[22,-19],[5,-5],[18,-14]],[[2372,9608],[15,-12],[8,-7]],[[2395,9589],[6,-6],[6,-4],[11,-9],[-52,-51]],[[2366,9519],[17,-15],[16,-13]],[[2399,9491],[16,-13]],[[2415,9478],[15,-13],[16,-13]],[[2446,9452],[9,9]],[[2455,9461],[42,42],[55,-44],[53,-45]],[[2605,9414],[-59,-58],[-9,-9]],[[2537,9347],[11,-6]],[[2548,9341],[28,-50]],[[2576,9291],[54,-78]],[[2630,9213],[53,-17]],[[2683,9196],[0,154]],[[2683,9350],[0,15]],[[2683,9365],[-21,19]],[[2662,9384],[-17,13]],[[2645,9397],[-15,13],[-16,13]],[[2614,9423],[-31,25],[-16,13]],[[2567,9461],[-15,13]],[[2552,9474],[29,28]],[[2581,9502],[-33,26],[-19,17]],[[2529,9545],[20,-4],[6,3],[6,5]],[[2561,9549],[1,3],[6,7],[4,0]],[[2572,9559],[6,-2],[16,14],[-18,14]],[[2576,9585],[28,27]],[[2604,9612],[-15,13]],[[2589,9625],[-28,-27],[-6,4]],[[2555,9602],[3,16]],[[2558,9618],[19,22]],[[2577,9640],[18,8]],[[2595,9648],[9,16]],[[2604,9664],[20,-32]],[[2624,9632],[11,-19]],[[2635,9613],[16,-13]],[[2651,9600],[32,-8]],[[2683,9592],[13,-3]],[[2696,9589],[-29,-28]],[[2667,9561],[16,-13]],[[2683,9548],[16,-13]],[[2699,9535],[22,21],[0,19]],[[2721,9575],[51,-41]],[[2772,9534],[66,-48],[46,-35],[14,-11]],[[2898,9440],[16,-10],[10,-8]],[[2924,9422],[10,-8],[57,-51]],[[2991,9363],[10,-9]],[[3001,9354],[12,-16],[18,-18],[81,-85],[49,-52],[41,-43],[16,-16],[22,-25],[20,-21],[11,-10]],[[3271,9068],[15,-15]],[[3286,9053],[-69,0],[101,-124],[48,-56],[21,-27],[68,-81]],[[3455,8765],[12,-15]],[[3467,8750],[34,-39],[12,-11]],[[3513,8700],[51,-42]],[[3564,8658],[56,-59]],[[3620,8599],[79,-108]],[[3699,8491],[49,-43],[41,-63]],[[3789,8385],[30,-107]],[[3819,8278],[107,-137],[56,-78]],[[3982,8063],[8,4],[108,-168],[24,-33],[13,-15],[-20,-10]],[[4115,7841],[4,-11],[1,1]],[[4120,7831],[21,-33],[27,-45],[-35,-15],[-55,-28],[23,-41],[47,-79]],[[4148,7590],[29,-45],[60,-104],[-48,-23],[-60,-30],[29,-46],[14,-26]],[[4172,7316],[-36,-19],[-16,25]],[[4120,7322],[-4,10]],[[4116,7332],[-25,39],[-28,-14],[-14,-8],[-124,-61]],[[3925,7288],[-2,7],[-39,64],[-9,-5],[-20,-9],[-29,-15],[-81,-7],[3,-5]],[[3748,7318],[66,-114],[38,-67],[104,-183]],[[3956,6954],[210,106]],[[4166,7060],[37,20]],[[4203,7080],[4,3],[68,35],[100,51],[7,1],[69,-116]],[[4451,7054],[46,24],[37,18]],[[4534,7096],[33,18]],[[4567,7114],[91,-160],[-33,-16],[-9,-6],[-57,-28],[-37,-18],[-1,0],[-60,-31],[-58,-29]],[[4403,6826],[6,-6],[33,-25],[51,-39],[-9,-4],[-7,-4],[-12,-11],[-5,-12],[-1,-10]],[[4459,6715],[12,-12],[7,-12],[9,-7],[6,-4],[14,-2],[12,-4],[11,-11],[7,-11],[2,-14],[-2,-8],[-6,-34]],[[4531,6596],[-1,-9],[2,-10],[7,-11],[9,-7],[11,-7],[13,-4],[4,-3],[2,-7]],[[4578,6538],[1,-9],[-2,-5],[10,-3]],[[4587,6521],[60,-30]],[[4647,6491],[60,-29]],[[4707,6462],[2,0],[19,12],[11,10],[7,12]],[[4746,6496],[22,-17]],[[4768,6479],[37,40],[11,12]],[[4816,6531],[9,-7]],[[4825,6524],[31,33],[24,-19]],[[4880,6538],[3,-2]],[[4883,6536],[0,-4]],[[4883,6532],[0,-4]],[[4883,6528],[1,-2]],[[4884,6526],[1,-2]],[[4885,6524],[12,1],[6,-2]],[[4903,6523],[12,1]],[[4915,6524],[10,-12]],[[4925,6512],[32,16]],[[4957,6528],[5,-7],[-18,-9],[15,-26],[7,-9]],[[4966,6477],[-16,-6]],[[4950,6471],[-7,6]],[[4943,6477],[-18,24]],[[4925,6501],[-7,-6]],[[4918,6495],[11,-14],[-46,-22],[-3,2],[-10,1],[-12,0],[-8,-1],[-16,5]],[[4834,6466],[-11,-5],[-28,-14],[3,-6],[14,-5],[3,-5]],[[4815,6431],[4,-6],[-13,0]],[[4806,6425],[-52,-27]],[[4754,6398],[7,-8]],[[4761,6390],[9,2],[10,-6]],[[4780,6386],[10,-10],[3,-6]],[[4793,6370],[-29,-15],[-45,-22],[-26,-35]],[[4693,6298],[11,-17],[2,-3],[-9,-3]],[[4697,6275],[-10,-3],[-8,-3],[-4,-5]],[[4675,6264],[-6,-3],[-35,-31],[-23,-17],[-20,-10],[-5,-5]],[[4586,6198],[-17,-8],[-18,-15]],[[4551,6175],[8,-10],[-18,-19],[-23,-30],[-14,-22],[-5,-13]],[[4499,6081],[-5,-10],[14,-6]],[[4508,6065],[38,-8],[33,-6],[32,39],[14,6],[53,26],[11,-16],[11,-18]],[[4700,6088],[25,-37],[4,-11],[7,-6],[6,-7]],[[4742,6027],[3,-7],[98,-158]],[[4843,5862],[17,-3],[9,0]],[[4869,5859],[15,2],[-2,-15],[1,-7],[8,-8],[32,-12],[7,-1],[6,2],[4,5],[1,7],[-14,16],[-5,3],[2,5],[35,55],[3,6],[2,12],[-4,15],[-9,10],[-7,3],[-10,5],[-44,5],[-7,2],[-4,8],[0,4],[5,8],[43,22],[20,21],[24,29],[7,10],[10,-1],[15,7],[10,3],[19,3],[8,0],[9,-2],[17,-3],[4,0],[3,-8],[-9,-3]],[[5064,6067],[-62,-32]],[[5002,6035],[10,-17]],[[5012,6018],[69,36]],[[5081,6054],[15,6]],[[5096,6060],[12,9],[6,-3],[8,-9],[4,-10],[6,-32],[5,-13],[5,-7],[-12,-4]],[[5130,5991],[-20,-11],[-55,-28],[21,-34],[10,-16],[11,-16],[32,16],[39,19],[1,1]],[[5169,5922],[36,13],[20,8],[3,-6]],[[5228,5937],[18,-34],[8,2],[29,-28],[37,19],[15,-16]],[[5335,5880],[4,-5],[6,4],[6,-13],[8,-15]],[[5359,5851],[59,30]],[[5418,5881],[1,2]],[[5419,5883],[-15,16]],[[5404,5899],[-14,15],[-41,-23],[-45,44],[44,23]],[[5348,5958],[-8,9],[62,-20],[8,-3]],[[5410,5944],[12,-5],[6,-5],[17,-17]],[[5445,5917],[12,-11],[15,-9],[14,-5],[30,-9]],[[5516,5883],[-26,-29]],[[5490,5854],[16,-5]],[[5506,5849],[31,-12]],[[5537,5837],[26,30],[1,2]],[[5564,5869],[31,-14],[14,-7],[46,-27],[10,-6]],[[5665,5815],[-2,-2],[-28,-13],[-10,-7]],[[5625,5793],[-1,0]],[[5624,5793],[-232,-119],[-61,-33]],[[5331,5641],[-1,-1]],[[5330,5640],[29,-44],[23,-38]],[[5382,5558],[-18,-10]],[[5364,5548],[-26,-13],[-29,24],[-35,54]],[[5274,5613],[-37,-21],[-9,-4]],[[5228,5588],[39,-62],[14,-20],[54,-86],[-11,-5]],[[5324,5415],[-45,-17]],[[5279,5398],[50,-78]],[[5329,5320],[-30,-35]],[[5299,5285],[-6,-5],[-16,11],[-21,-7],[-9,-13],[-54,-13],[-5,5],[-19,32],[-3,3],[-19,31]],[[5147,5329],[-9,-6],[-82,-42]],[[5056,5281],[-39,62],[-7,7],[-48,2],[-22,-73],[11,-20],[-47,-18],[-25,26],[-44,-10],[5,-7],[68,-106]],[[4908,5144],[26,-43]],[[4934,5101],[91,0],[15,5],[37,9],[14,9],[35,22],[30,8],[39,11],[50,10],[34,-52],[-182,-92],[57,-89],[80,-23],[25,36],[30,23],[23,15],[12,23],[6,16],[19,13],[39,21],[40,20],[29,-48]],[[5457,5038],[40,20]],[[5497,5058],[28,-41],[17,15],[23,28],[8,7]],[[5573,5067],[36,18],[-11,18],[-36,-20]],[[5562,5083],[-9,-4],[-36,54],[94,49],[13,-23],[9,-13],[19,-29],[12,-21],[2,-3],[25,-38],[30,-49],[20,-29]],[[5741,4977],[9,4],[37,20]],[[5787,5001],[-54,82]],[[5733,5083],[-11,18]],[[5722,5101],[-30,49]],[[5692,5150],[-21,33],[-11,17]],[[5660,5200],[-4,5],[47,24],[21,-35],[35,-53],[11,-17],[10,-17],[52,-82],[9,4],[38,19]],[[5879,5048],[-76,118]],[[5803,5166],[-2,4],[-34,54]],[[5767,5224],[-15,23]],[[5752,5247],[-3,6],[45,23],[13,-18],[23,-37],[9,5]],[[5839,5226],[73,38]],[[5912,5264],[9,6],[-6,12],[-23,35],[-5,7],[13,8],[66,33],[21,13],[-9,15]],[[5978,5393],[38,18]],[[6016,5411],[-9,13]],[[6007,5424],[32,17]],[[6039,5441],[8,-5],[11,-16]],[[6058,5420],[7,3]],[[6065,5423],[9,-13],[7,8],[16,-12],[49,-36],[-2,-2],[20,-30],[-27,-26],[14,-8]],[[6151,5304],[12,-10]],[[6163,5294],[28,-21]],[[6191,5273],[23,-52]],[[6214,5221],[113,-64]],[[6327,5157],[14,9]],[[6341,5166],[23,-33],[13,7],[1,-3],[-27,-15],[8,-11],[9,8],[21,-25],[87,-119]],[[6476,4975],[2,-2],[15,-15],[10,-16],[4,-14]],[[6507,4928],[4,-11],[1,-11],[0,-19],[-4,-11]],[[6508,4876],[12,-10]],[[6520,4866],[10,3]],[[6530,4869],[4,-2]],[[6534,4867],[11,-3],[10,0],[8,3]],[[6563,4867],[4,3],[9,4],[10,2],[2,-1]],[[6588,4875],[14,-14]],[[6602,4861],[16,-15],[14,-13]],[[6632,4833],[16,-14],[14,-13]],[[6662,4806],[16,-14]],[[6678,4792],[-30,-27]],[[6648,4765],[13,-14]],[[6661,4751],[13,-15],[15,-14]],[[6689,4722],[13,-16],[14,-15],[13,-15]],[[6729,4676],[13,-13],[1,0]],[[6743,4663],[31,26]],[[6774,4689],[30,-27]],[[6804,4662],[-34,-29]],[[6770,4633],[37,-22]],[[6807,4611],[35,-23],[23,-13],[8,-17],[14,6],[10,-16],[-15,-8],[10,-16],[17,-36]],[[6909,4488],[10,-16],[18,-36]],[[6937,4436],[10,-16]],[[6947,4420],[18,-35],[11,-18]],[[6976,4367],[43,18],[11,-18],[19,-36]],[[7049,4331],[36,23],[5,2]],[[7090,4356],[11,-16],[25,-31],[11,-16],[12,-16]],[[7149,4277],[11,-16],[85,-113],[259,-347],[67,-89],[11,-16]],[[7582,3696],[19,-27],[10,-17]],[[7611,3652],[-13,-4],[-42,-18]],[[7556,3630],[10,-17],[55,23]],[[7621,3636],[10,-18],[18,-34],[9,-19]],[[7658,3565],[-18,-5]],[[7640,3560],[-32,-13]],[[7608,3547],[10,-18]],[[7618,3529],[20,-33]],[[7638,3496],[11,-17]],[[7649,3479],[45,18]],[[7694,3497],[43,-69],[16,-20],[12,-17]],[[7765,3391],[-19,-16]],[[7746,3375],[-13,-12]],[[7733,3363],[13,-15],[12,-15]],[[7758,3333],[34,28]],[[7792,3361],[13,-14]],[[7805,3347],[10,-12]],[[7815,3335],[19,-16]],[[7834,3319],[-38,-33]],[[7796,3286],[106,-152]],[[7902,3134],[77,-65],[-36,-34],[35,-29]],[[7978,3006],[16,-15],[17,-14]],[[8011,2977],[18,-15],[33,-30]],[[8062,2932],[-50,-45]],[[8012,2887],[19,-13]],[[8031,2874],[5,-3],[15,-10]],[[8051,2861],[46,42]],[[8097,2903],[30,-26]],[[8127,2877],[15,-13],[16,15],[30,-26]],[[8188,2853],[-16,-15],[-45,-40],[-7,-8],[27,-16],[72,-72]],[[8219,2702],[-47,-38],[26,-25],[24,4],[4,-25],[69,10],[-33,-42],[-71,-97],[151,-64]],[[8342,2425],[-9,-118],[-3,-48]],[[8330,2259],[-43,-89],[42,-14]],[[8329,2156],[65,151],[47,106]],[[8441,2413],[41,-12]],[[8482,2401],[10,63]],[[8492,2464],[-24,9],[4,12]],[[8472,2485],[79,34]],[[8551,2519],[26,-25],[114,-106]],[[8691,2388],[25,23]],[[8716,2411],[14,-14],[14,-14],[15,-14],[13,-16],[16,-14]],[[8788,2339],[-32,-27]],[[8756,2312],[6,-3],[9,-11],[14,-14],[15,-13],[13,-15],[16,-14],[28,-29]],[[8857,2213],[31,26]],[[8888,2239],[54,-55]],[[8942,2184],[32,26]],[[8974,2210],[13,-14],[19,-17],[22,-26],[15,-16]],[[9043,2137],[-33,-26]],[[9010,2111],[-16,-14],[1,-67],[31,27]],[[9026,2057],[156,-155]],[[9182,1902],[151,-152]],[[9333,1750],[8,-8],[6,-5]],[[9347,1737],[22,-23]],[[9369,1714],[96,76],[69,-70],[50,-44]],[[9584,1676],[57,-41]],[[9641,1635],[59,-35],[30,-14],[0,-1]],[[9730,1585],[32,-15],[-2,-3]],[[9760,1567],[0,-1]],[[9760,1566],[51,-23],[49,-27]],[[9860,1516],[-70,-92]],[[9790,1424],[9,-4],[28,-22],[26,-23],[14,-14],[94,-109],[38,-43],[-25,-12]],[[9974,1197],[-368,-199],[-23,-13],[-1194,-650],[-158,-1],[-127,-1],[-165,-2],[-29,0]],[[8723,2364],[20,17],[13,-14],[-20,-17],[-13,14]],[[4917,6475],[-15,-7],[-1,1],[14,7],[2,-1]],[[8281,2451],[5,-2],[-3,-3],[-4,3],[2,2]],[[4618,6942],[10,3],[1,-3],[-10,-3],[-1,3]],[[3314,4883],[8,8],[8,-11],[-8,-5],[-8,8]],[[3818,3864],[4,3],[-3,2],[5,5],[3,-2],[10,-6],[-9,-11],[-10,9]],[[3495,3896],[18,8],[3,-7],[3,2],[4,-7],[-3,-1],[3,-8],[-7,-3],[3,-2],[-12,-6],[-7,15],[2,1],[-7,8]],[[3550,3858],[2,-2],[4,6],[19,-18],[-16,-15],[-8,5],[1,3],[-11,8],[9,13]],[[8203,2689],[-8,-7],[0,4],[8,3]],[[3820,3849],[6,6],[7,-2],[-7,-8],[-6,4]],[[7169,4055],[31,19],[33,-41],[34,22],[19,-26],[18,11],[31,-40],[-30,-20],[-31,41],[-35,-20],[-20,25],[-18,-12],[-32,41]],[[1451,7817],[-2,13],[-8,10],[-9,5],[-11,3],[-7,-2],[-18,-5],[-29,-12],[-14,-6],[-25,-19],[-22,-18],[-6,-4],[-7,6],[-1,4],[4,10],[5,15],[-3,22],[6,6],[17,9],[13,21],[9,25],[7,25],[1,17],[-8,86],[-7,15],[-9,13],[-14,12],[-38,21],[-16,5],[-16,0],[-9,0],[-17,-5],[-13,-8],[-8,-11],[-8,-2],[-15,5],[-22,4],[-22,0],[-10,-3],[-20,-6],[-10,-5],[-12,-8],[-3,-4],[-6,-5],[-7,0],[-36,19],[-14,14],[-9,9],[-10,18],[-9,22]],[[795,8129],[-9,0]],[[727,8129],[-17,-23],[-10,-11],[-6,-3],[-9,-3],[-12,-8],[-11,-12],[-3,-6],[-7,-16],[1,-22],[6,-16],[10,-11],[14,-10],[23,-10],[28,-12],[3,-4],[-1,-8],[4,-10],[6,-3],[1,-5],[-6,-8],[-3,-2],[-16,0],[-14,-2],[-21,-6],[-4,-2],[-3,-9],[1,-12],[-8,-8],[-8,-3],[-8,-6],[-4,-4],[-1,-10],[1,-3],[29,-120],[-2,-7],[-7,-3],[-6,3],[-6,6],[-69,77],[-2,3],[-9,4],[-10,-1],[-28,-20],[-29,-14],[-15,-8],[-33,-8],[-32,-7],[-7,3],[-2,7],[4,6],[34,89],[1,5],[-3,10],[-7,7],[-10,5],[-87,6],[-5,3],[-3,7],[3,5],[6,3],[9,7],[11,11],[11,13],[4,4],[2,11],[-3,12],[-7,10],[-19,14],[-7,6],[-11,15],[-10,7],[-7,3],[-13,4],[-12,-3],[-10,-3],[-5,0],[-4,3],[-3,6],[2,12],[-1,14],[-3,9],[-6,14],[-33,40]],[[901,7466],[3,45],[3,13],[5,7],[24,20],[13,6],[13,2],[27,0],[5,-1],[7,2],[7,7],[9,8],[12,5],[13,5],[17,0],[12,6],[5,7],[2,5],[-1,8],[-13,20],[-3,15],[-1,16],[3,14],[9,24],[8,14],[5,4],[7,4],[7,-1],[7,-5],[3,-3],[4,-16],[5,-8],[3,-33],[8,-29],[7,-14]],[[1136,7613],[14,-8],[8,-5],[10,-12],[8,-13],[3,-15],[-1,-10],[1,-16],[2,-5],[2,-12],[-5,-6],[0,-10],[3,-14],[13,-17],[12,-5],[26,0],[13,-3],[10,-4],[10,-1],[10,1],[11,6],[26,22],[13,15],[7,10],[10,17],[10,16],[12,16],[9,7],[16,12],[10,16],[6,8],[5,10],[-1,24],[6,17],[3,12],[0,38],[-8,20],[0,17],[1,11],[4,17],[8,18],[12,16],[16,14]],[[1451,7817],[9,19],[5,17],[4,18],[0,13],[2,12],[-1,12],[-6,12],[0,21],[5,13],[7,13],[0,18],[-2,29],[-2,19],[-2,21],[-5,9],[-5,7],[-15,8],[-57,38],[-6,3],[-3,3],[-2,9],[6,6],[8,4],[116,3],[24,-1],[19,-7],[18,-7],[14,-11],[7,-8],[10,-13],[20,-33],[8,-4],[3,3],[4,5],[-9,29],[-12,24],[-15,23],[-19,23],[-4,10],[-3,10]],[[947,6769],[2,0]],[[949,6769],[5,-6]],[[949,6769],[99,181],[8,25],[5,64],[2,12],[7,25],[10,23],[13,22],[8,11],[19,18],[15,11]],[[1191,7241],[12,16],[4,13],[2,13],[6,10],[1,11],[-4,9],[-2,12],[-5,22],[-8,21],[-11,18],[-15,19],[-6,7],[-10,5],[-7,4],[-9,9],[-4,10],[-3,26],[2,23],[4,25],[7,19],[2,14],[-2,15],[2,18],[-2,15],[-6,12],[-3,6]],[[1277,6553],[-1,8],[-2,3],[-19,19],[-6,6],[-6,13],[-3,13],[4,9],[8,6],[226,113],[19,8],[13,1],[32,-2],[16,1],[14,5],[59,31],[21,11],[17,15],[8,8],[5,11],[2,11],[1,15]],[[1683,6960],[-3,47],[0,28],[4,16],[4,13],[6,8],[12,13],[19,16],[22,8],[16,3],[32,18],[9,10]],[[1804,7140],[19,17],[11,12],[15,10],[13,5],[19,15],[4,7],[5,11],[3,16],[0,14],[-1,9],[-4,14],[-6,19],[0,13],[2,17],[5,13],[2,15],[2,21],[0,12],[-10,23],[-4,32],[0,34],[2,18],[10,42],[4,33],[-1,25],[-10,44]],[[3152,5870],[-7,8],[0,14],[-4,20],[-13,21],[-14,14],[-29,46],[-8,9],[-12,4],[-5,1],[-13,-2],[-11,-4],[-3,-5],[-2,-9],[-6,-7],[-8,-4],[-12,-1],[-10,4],[-6,4],[-4,12],[-9,7],[-8,2],[-13,1],[-8,0],[-66,-7],[-6,-2],[-10,-5],[-8,-2],[-7,2],[-1,2],[8,40],[0,10],[-5,12],[-14,15],[-9,6],[-19,5],[-13,2],[-6,2],[-15,13],[-9,5],[-29,16],[-17,4],[-5,3],[-10,10],[-14,5],[-4,3],[-5,8],[-9,8],[-1,8],[6,5],[3,1],[42,3],[25,4],[12,2],[22,11],[26,15],[4,8],[0,9],[3,27]],[[2816,6253],[-14,38],[-2,9],[-2,20],[2,19],[4,8],[-2,22],[2,13],[8,23],[1,8],[0,22],[-4,8],[-9,6],[-10,3],[-16,-4],[-11,-8],[-4,1],[-5,6],[7,44]],[[2761,6491],[22,26],[0,8],[-5,2],[-27,-8],[-3,0],[-5,5],[0,4],[11,12],[22,22],[16,13],[2,9],[-1,2],[-13,50],[-3,4],[-9,11],[-13,7],[-18,3],[-3,2],[1,5],[6,4],[2,4],[-2,5],[-10,7],[-7,6],[-11,7],[-11,1],[-6,5],[2,6],[5,3],[38,8],[6,3],[4,11],[-1,5],[-6,8],[-1,8],[5,7],[1,10],[-4,27],[-4,36],[1,14],[8,12],[10,9],[5,4],[12,3],[7,8],[8,13],[5,15],[0,13],[-6,13],[-3,8],[-9,7]],[[2779,6958],[-17,9],[-10,2],[-22,10],[-17,1],[-21,-1],[-17,-4],[-19,-9],[-18,0],[-3,1],[0,10],[7,4],[11,15],[7,17],[1,7],[1,27],[4,17],[6,7],[11,31],[19,41],[19,40],[20,41],[20,40],[16,28],[6,8],[0,5],[-3,7],[-13,14],[-6,8],[-6,12],[-3,12],[-1,14],[6,21],[4,12],[12,21],[17,21],[19,15],[10,16],[8,21],[5,34],[-3,7],[-10,6]],[[2819,7546],[-20,2],[-13,-8],[-12,-9],[-10,-14],[-12,-8],[-13,-7],[-15,-1],[-50,-28],[-10,-8],[-4,-8],[-28,-55],[-8,-12],[-4,-15],[-2,-6],[2,-17],[-5,-9],[-5,-6],[-7,-2],[-39,-29],[-11,-8],[-5,-6],[-1,-8],[1,-5],[8,-28],[3,-7],[-2,-8],[-3,-4],[-11,-4],[-5,1],[-31,-8],[-10,-2],[-10,1],[-10,8],[-7,0],[-64,12],[-9,1],[-7,-3],[-4,-4],[-4,-4],[-8,-6],[-12,1],[-11,-3],[-10,-6],[-4,-12],[-19,-44],[-3,-11],[2,-12],[3,-5],[8,-11],[11,-9],[1,-5],[-6,-5],[-5,-1],[-5,2],[-5,-1],[-17,-6],[-13,-7],[-17,-19],[-11,-20],[-8,-20],[-8,-13],[-5,-8],[-18,-16],[-12,-13],[-12,-13],[-20,-28],[-7,-15],[-7,-17],[-12,-31],[-7,-2],[-6,2],[-7,12],[-6,14],[-1,7],[17,114],[-3,7],[-10,6],[-43,-3],[-4,1],[-5,6],[1,3],[14,18],[10,9],[14,11],[17,7],[9,10],[3,13],[0,12],[-9,22],[0,7],[2,7],[-10,21],[-3,19],[0,21],[2,10],[-2,7],[-8,7],[-52,4],[-6,2],[-2,5],[0,5],[25,37],[1,3],[-7,7],[-22,-6],[-20,3],[-5,1],[-3,4],[-1,4],[21,49],[-2,8],[-7,2],[-9,-2],[-26,-35],[-12,-10],[-14,-8],[-4,-5],[1,-7],[3,-4],[20,-15],[2,-2],[3,-13],[-3,-5],[-23,-26],[-3,-5],[0,-5],[3,-6],[19,-18],[6,-3],[8,-11],[0,-7],[-4,-8],[-6,-5],[-30,-12],[-22,-12],[-6,-4],[-7,-3],[-13,-2],[-12,1],[-7,2],[-18,10],[-9,2],[-16,1],[-17,-3],[-37,-12]],[[1804,7140],[-23,-7],[-23,-3],[-32,1],[-7,-1],[-14,-6],[-11,-7],[-8,-2],[-18,-1],[-18,1],[-10,-6],[-5,-7],[-1,-5],[-27,-54],[-2,-7],[-1,-13],[2,-8],[-1,-10],[-4,-7],[-15,-23],[-5,-5],[-5,-2],[-8,0],[-8,6],[-7,41],[-3,5],[-9,9],[-10,3],[-21,22],[-13,9],[-19,7],[-24,-2],[-20,-8],[-12,-6],[-3,-9],[-5,-3],[-9,-4],[-17,-3],[-12,-5],[-3,-3],[-19,-27],[-4,-4],[-8,-1],[-8,3],[-2,5],[-29,5],[-22,2],[-9,6],[-6,12],[19,13],[10,13],[8,17],[3,8],[10,12],[14,8],[15,7],[17,11],[5,11],[4,16],[4,3],[24,9],[11,6],[31,29],[7,7],[2,10],[-1,4],[2,9],[8,7],[4,2],[44,12],[5,3],[5,4],[2,7],[26,61],[-4,9],[-28,22],[-3,6],[4,8],[29,14],[6,7],[4,9],[0,9],[-4,9],[-33,25],[-7,13],[0,4],[2,10],[3,4],[8,7],[15,2],[9,8],[3,4],[1,11],[-2,10],[-8,7],[-48,23],[-8,8],[-4,9],[1,9],[2,3],[36,21],[6,7],[0,5],[-6,12],[2,6],[4,4],[10,5],[3,9],[-5,9],[2,7],[4,14],[10,10],[4,13],[-6,20],[-7,12],[0,11],[-4,17],[-8,12],[-40,42],[-6,5],[-13,7],[-8,1],[-10,1]],[[2053,9876],[-19,0],[-15,-5],[-12,-6],[-10,-10],[-5,-5],[-5,-13],[-7,-24],[-11,-28],[-16,-28],[-19,-25],[-22,-21],[-13,-12],[-50,-51],[-9,-9],[-17,-16],[-12,-20],[-10,-19],[-9,-35],[-6,-12],[-11,-24],[-14,-23],[-7,-5],[-7,-12],[-3,-14],[0,-19],[-4,-17],[-7,-13],[-5,-18],[-1,-29],[1,-22],[-1,-28],[-4,-27],[-9,-28],[-13,-25],[-16,-26],[-11,-12],[-15,-11],[-7,-3],[-9,-11],[-5,-5],[-3,-12],[0,-13],[2,-13],[0,-13],[-3,-12],[-7,-10],[-11,-9],[-13,-3],[-12,-8],[-9,-8],[-10,-19],[-10,-27],[-3,-4],[-3,-10],[0,-11],[2,-10],[-7,-18],[-12,-23],[-9,-9],[-16,-16],[-8,-6],[-17,-23],[-13,-23],[-8,-19],[-5,-11],[-6,-25],[-5,-26],[0,-38],[-2,-20],[-8,-17],[-7,-11],[-3,-13],[2,-20],[13,-31],[8,-16],[13,-14],[16,-13],[6,-3],[10,-6],[7,-10],[3,-11],[-2,-12],[-6,-10],[-16,-17],[-94,-83],[-9,-13],[0,-9],[7,-27],[5,-15],[9,-14],[117,-133],[51,-41]],[[1572,8187],[51,-43],[14,-15],[12,-17],[9,-18],[6,-17],[4,-32],[2,-41],[-1,-41],[-3,-45],[0,-13],[4,-27],[4,-13],[10,-15],[2,-12],[1,-10],[7,-15],[7,-10],[6,-5],[4,-7],[1,-6],[-3,-10],[3,-9],[9,-14],[13,-18],[6,-6],[7,-3],[9,-1],[17,0],[12,-3],[8,-5],[4,-3],[0,-11],[-3,-3],[-13,-10],[-6,-9],[-1,-9],[0,-34],[2,-12],[9,-17],[1,-13],[-2,-12],[-10,-25],[-2,-21],[1,-64],[6,-2],[27,18],[10,7],[7,6],[6,9],[23,36],[8,14],[1,5],[1,9],[-1,32],[0,10],[2,8],[11,5],[10,1]],[[2036,9546],[-8,-21],[-10,-16],[-9,-11],[-19,-24],[-25,-37],[-16,-28],[-10,-32],[-6,-16],[-5,-31]],[[1928,9330],[-8,-45],[-7,-12],[-4,-15],[-1,-15],[2,-15],[3,-8],[-9,-24],[-11,-24],[-19,-31],[-16,-24],[-16,-26],[-10,-27],[-9,-30],[-3,-29],[0,-14],[2,-25],[2,-17],[-1,-13],[-10,-25],[1,-7],[3,-4],[5,-4],[3,-5],[5,-13],[0,-12],[-1,-5],[-3,-122],[-4,-43],[0,-16],[2,-6],[8,-15],[4,-17],[3,-20],[0,-11],[-4,-22],[-7,-17],[-7,-12],[-18,-27],[-2,-9],[0,-7],[2,-11],[3,-11],[6,-10],[16,-26],[11,-20],[2,-9],[0,-22],[1,-21],[8,-20],[12,-20]],[[1884,7631],[-2,28],[0,9],[2,22],[5,31],[0,21],[-2,11],[-7,24],[-5,20],[3,16],[2,5],[4,10],[9,10],[16,17],[9,13],[3,13],[0,15],[-5,18],[-6,18],[-2,5],[-11,7],[-20,22],[-5,4],[-2,10],[0,8],[3,37],[0,40],[4,39],[-3,15],[-6,38],[-1,29],[1,16],[3,31],[4,23],[-1,14],[-4,51],[-5,17],[-3,9]],[[1862,8347],[1,30],[10,31],[10,12],[7,4],[36,40],[13,11],[13,9],[20,6],[25,11],[21,14],[16,14],[4,8],[11,12],[14,9],[15,5],[29,3],[18,5],[17,5],[14,11],[8,6],[96,65],[12,7],[13,4],[16,5],[19,6],[12,9]],[[2332,8689],[24,17],[16,18],[7,6]],[[2379,8730],[6,9],[11,10],[19,10],[6,11],[4,12],[6,9],[7,3],[7,0],[11,-4],[5,-8],[9,-4],[9,-1],[37,-4],[10,0],[13,5],[14,16],[11,10],[14,9],[46,33],[7,8],[10,17],[6,16],[7,11],[10,8],[12,10],[15,8],[21,6],[7,0],[5,-1],[7,-5],[7,-10],[11,-8],[6,-1],[8,1],[9,5],[12,6],[6,7],[0,5],[0,7],[-9,9],[-2,11],[-9,25]],[[2770,8981],[6,-1],[12,-8],[11,-3],[7,1],[29,13],[11,4],[12,0],[22,-10],[9,1],[3,4],[-5,20]],[[2887,9002],[-6,10],[-4,6],[-9,15],[-6,6],[2,8],[6,4],[6,0],[25,-6],[16,-4],[11,-2],[9,5],[-1,28],[2,7],[6,2],[4,0],[18,-7],[23,-6],[16,-1],[20,-2],[29,1],[32,5],[10,1],[10,-1],[18,-4],[17,-9],[8,-2],[12,0],[12,7],[9,10],[1,7],[-1,56],[0,20]],[[3182,9156],[-3,9]],[[1928,9330],[19,-23],[9,-18],[5,-17],[11,-12],[15,-9],[8,-3],[16,-3],[18,1],[17,4],[14,9],[13,12],[5,9],[8,18],[9,14],[11,13],[7,6],[14,8],[14,11],[10,14],[4,9],[13,15],[18,13],[11,5],[23,4]],[[2227,5980],[-1,3],[-2,21],[2,18],[6,20],[7,14],[10,16],[14,17],[39,34],[7,8],[3,10],[1,15],[-4,14],[-2,11],[3,11]],[[2604,6428],[10,12]],[[2456,8939],[-4,-15],[-4,-13],[-10,-17],[-4,-17],[-2,-10],[2,-10],[-2,-12],[-2,-5],[-15,-18],[-42,-61],[-4,-10],[-7,-16],[-12,-21],[-18,-25]],[[2475,8888],[-17,-49],[0,-7],[-2,-5],[-28,-14],[-6,-6],[-10,-12],[-11,-28],[-16,-23],[-6,-14]],[[2456,8939],[8,39],[12,44],[13,44],[2,16],[-1,15],[-5,18],[1,8],[5,6]],[[2489,9172],[-2,-4],[-3,-12],[1,-12],[6,-15]],[[2491,9129],[16,-7],[20,-12],[18,-15],[16,-15],[7,-11],[6,-11],[1,-6]],[[2575,9052],[6,-17],[5,-5],[15,0],[11,1],[19,9],[18,5],[26,5],[18,-2],[12,-5],[6,-7],[0,-10],[-5,-11],[-10,-20],[-1,-6],[5,-7],[11,-2],[11,3],[19,1],[20,-1],[9,-2]],[[2554,6801],[-1,11],[-4,59]],[[2549,6871],[-9,45],[2,14],[5,24],[41,90],[7,12],[2,12],[4,15],[-3,14],[2,15],[3,14],[3,10],[68,131],[9,19],[5,20],[4,34],[4,31],[6,25],[8,28],[6,13],[11,12],[13,11],[12,6],[12,9],[19,16],[17,21],[19,34]],[[2549,6871],[12,-1],[6,9],[5,11],[1,13],[2,6],[10,10],[16,3],[7,-2],[53,-29],[9,-1],[9,1],[7,3],[14,10],[11,4],[17,4],[12,5],[9,7],[10,17],[20,17]],[[2614,6440],[-6,20],[-13,53],[-11,26],[-19,36]],[[2559,8981],[16,71]],[[2575,9052],[17,33],[8,13],[12,13],[14,11],[9,6]],[[2816,6253],[-33,-10],[-16,-2],[-26,1],[-18,4],[-19,8],[-6,5],[-6,9],[-26,66],[-26,64],[-12,20],[-14,22]],[[2761,6491],[-20,-13],[-18,-16],[-17,-21],[-3,-5],[-10,-5],[-10,1],[-17,7],[-7,0],[-7,-3],[-38,4]],[[2887,9002],[-7,2],[-14,10],[-8,1],[-26,-12],[-3,-3],[-9,-3],[-4,1],[-7,7],[-2,17],[-5,6],[-12,6],[-8,1],[-8,-1]],[[3005,6352],[-80,-22],[-9,-5],[-18,-9],[-13,-14],[-11,-15],[-10,-20],[-7,-8],[-15,-5],[-16,1],[-10,-2]],[[2819,7546],[8,21],[9,22],[9,18],[13,21],[16,13],[21,10],[25,7],[18,10],[7,7],[22,14],[68,21],[9,4],[10,8],[9,8],[7,18],[16,26],[13,25],[8,22],[19,40],[20,31],[21,28],[14,18],[21,24],[27,23],[14,20],[9,13],[9,17],[8,17],[-1,5],[0,13],[5,15],[5,7],[11,10],[17,8],[9,8],[15,15],[10,12],[14,22],[1,11],[-4,6],[-4,6],[-4,16],[-2,19],[3,9],[4,16],[-1,13],[-3,8],[-13,18],[-3,12],[1,17],[8,16],[0,13],[-5,12],[-4,6],[-17,20],[0,23],[-3,7],[-7,4],[-11,0],[-10,-10],[-4,-12],[-13,-14],[-4,-8],[-6,-19],[-6,-21],[-7,-8],[-6,-3],[-7,-2],[-11,3],[-4,2],[-33,31],[-8,5],[-18,8],[-12,1],[-10,0],[-21,-4],[-24,-9],[-14,-8],[-18,-13],[-12,-11],[-10,-13],[-15,-14],[-9,-7],[-6,-4],[-13,-9],[-43,-22]],[[3922,6094],[-34,62],[-9,10],[-14,9],[-13,7]],[[3852,6182],[-16,2],[-23,2],[-26,-1],[-26,-3],[-10,-2],[-12,-7],[-17,-12],[-10,-8],[-10,-16],[-6,-23],[-5,-42],[-3,-18],[-6,-18],[-5,-15],[-10,-17],[-9,-13],[-17,-14],[-37,-26],[-22,-14],[-13,-11],[-16,-17]],[[3553,5909],[-7,-9],[-16,-27],[-10,-12]],[[3520,5861],[-7,-9],[-17,-15],[-31,-21],[-17,-8],[-22,-13],[-31,-26],[-11,-5],[-13,-4],[-11,0],[-10,3],[-9,4],[-13,12],[-8,10],[-12,8],[-10,4],[-9,2]],[[3289,5803],[-73,-4],[-10,-2],[-12,-5],[-9,-5],[-6,-9],[-107,-145],[-21,-41],[-6,-17],[-2,-25],[-5,-74],[-2,-15],[-4,-18],[-9,-17],[-18,-29],[-3,-9],[0,-16],[7,-20],[24,-33],[7,-11],[6,-14],[1,-8],[-4,-12],[-2,-2]],[[2946,8258],[-10,-1],[-7,3],[0,5],[4,7],[7,7],[16,15],[13,16],[13,22],[-3,11],[3,12],[2,5],[7,11],[10,6],[31,41],[9,16],[12,14],[14,13],[29,25],[30,26],[20,24],[12,11],[23,19],[28,19],[24,22],[20,20],[18,23],[6,8],[12,15],[11,11],[14,8],[10,12],[4,7],[4,15],[2,6],[-2,15],[-4,14]],[[3005,6352],[12,-8],[16,-7],[14,-3],[11,0],[15,2],[33,9],[27,2],[27,0],[21,-2],[39,-11],[32,-12],[14,-4],[13,0],[19,4],[11,8],[12,10],[4,7],[-1,8],[-4,6],[-12,13],[-2,9],[1,9],[0,31],[2,5],[1,13],[-2,12],[-1,7],[-7,8],[-9,7],[-36,47]],[[3255,6522],[-7,-15],[-5,-16],[1,-23],[4,-14],[-1,-14],[-3,-5],[-4,-10],[-7,-5],[-10,-8],[-14,-6],[-19,-8],[-21,-3],[-24,-2],[-13,-3],[-23,-5],[-24,-9],[-80,-24]],[[3152,5870],[52,10],[5,1],[7,7],[4,5],[2,9],[28,41],[3,17],[9,11],[8,1],[6,-1],[5,-5],[27,-57],[3,-18],[-1,-12],[-4,-13],[-5,-18],[-6,-21],[-4,-12],[-2,-12]],[[3553,5909],[-9,8],[-7,2],[-7,-2],[-49,-43],[-18,-18],[-14,-3],[-13,0],[-12,2],[-10,9],[5,38],[-1,13],[-5,17],[-16,23],[-5,3],[-16,7],[-8,5],[-7,13],[-7,9],[-13,4],[-5,1],[-14,0],[-8,7],[-2,3],[4,33],[-6,8],[-3,1],[-24,2],[-6,-2],[-15,-4],[-12,-7],[-14,-20],[-16,-23],[-7,-12],[-9,-25],[-13,-65],[-2,-2],[-37,-21]],[[3328,8761],[-12,20],[-16,31],[-11,28],[-2,10],[-1,15],[-9,47],[0,17],[-34,41],[-4,24],[-8,16],[-9,18],[-5,17],[-23,99],[-5,9],[-7,3]],[[3345,4815],[4,4],[4,9],[0,13]],[[3920,6900],[-164,-88],[-28,-17],[-29,-14],[-17,-4],[-26,-8],[-27,-8],[-27,-12],[-12,-8],[-26,-16],[-22,-20],[-8,-8],[-15,-16],[-10,-6],[-21,-11],[-33,-13],[-13,-9],[-20,-18],[-12,-7],[-13,-4],[-28,-4],[-22,-7],[-20,-10],[-20,-12],[-17,-15],[-35,-43]],[[3353,4841],[-6,17],[-10,33],[-9,8],[-21,8]],[[4538,5448],[-11,6],[-25,5],[-13,6],[-15,1],[-10,3],[-15,7],[-17,7],[-17,2],[-16,5],[-15,9],[-8,8],[-14,5],[-7,0],[-91,11],[-8,1],[-16,0],[-21,-7],[-12,-7],[-9,-11],[-12,-18],[-19,-25],[-22,-23],[-26,-21],[-28,-17],[-13,-8],[-21,-4],[-20,-9],[-9,-5],[-17,-13],[-15,-16],[-12,-19],[-18,-22],[-20,-18],[-22,-17],[-12,-6],[-11,-5]],[[3901,5253],[-37,-23],[-19,-11],[-18,-9],[-5,-3],[-12,-11],[-6,-12],[-35,-34],[-50,-38],[-21,-13],[-11,-5],[-26,-7],[-24,-4],[-14,-1],[-82,-21],[-24,-8],[-21,-12],[-80,-125]],[[3416,4916],[-16,-14],[-6,-11],[-5,-11],[-1,-5],[1,-9]],[[3373,4841],[-20,0]],[[3416,4916],[-60,-8]],[[3663,4583],[0,-4]],[[3512,5812],[-5,5],[2,10],[11,12],[6,14]],[[3526,5853],[-6,8]],[[3901,5253],[13,14],[-1,7],[-10,4],[-32,-8],[-76,-17],[-22,0],[-18,3],[-7,2],[-13,3],[-74,-1],[-3,4],[1,4],[-3,17],[3,4],[13,5],[10,4],[17,12],[16,15],[13,27],[3,15],[0,10],[3,6],[6,9],[11,5],[8,12],[5,14],[-2,15],[-5,21],[-1,11],[-2,5],[-7,11],[-10,8],[-12,4],[-39,2],[-25,-3],[-1,4],[9,11],[4,13],[8,7],[5,1],[5,5],[2,12],[4,5],[11,15],[1,8],[10,14],[13,12],[0,7],[-14,9],[-57,18],[-2,1],[-5,8],[4,7],[10,7],[11,11],[2,4],[10,8],[14,3],[4,5],[19,26],[2,8],[-2,4],[-42,29],[-9,3],[-27,0],[4,27],[-6,11],[-1,5],[-7,9],[-10,16],[-19,18],[-4,3]],[[3607,5851],[-27,-2],[-18,-5],[-15,-8],[-6,-6],[-20,-19],[-9,1]],[[3526,5853],[46,18]],[[3572,5871],[10,15],[6,2],[42,3],[19,3],[11,7],[10,10],[8,18],[4,2],[17,-2],[10,1],[10,10],[5,11],[-5,14],[0,16],[6,13],[9,14],[7,10],[10,8],[25,8],[22,13],[15,12],[7,9],[13,17],[5,3],[7,-5],[1,-5],[-1,-14],[-11,-21],[1,-8],[7,-13],[1,-4],[-5,-13],[8,1],[6,5],[3,7],[3,13],[20,18],[14,18],[4,2],[9,-4]],[[3572,5871],[14,-7],[21,-13]],[[4474,4621],[-14,-21]],[[4460,4600],[-37,-36],[-118,-154],[-6,-11],[-11,-24],[-6,-24],[-7,-17],[-9,-17],[-11,-23],[-6,-3],[-3,2],[-6,9],[-12,83],[-4,10],[-16,6],[-13,-2],[-11,-9],[-19,-8],[-18,-5],[-12,-4],[-16,-10],[-19,-3],[-10,-6],[-9,-8],[-4,-12],[-7,-5],[-8,-3],[-8,3],[-9,7],[-7,-1],[-5,-2],[-14,-22],[-6,-7],[-8,1],[-3,4],[-1,4],[-9,7],[-11,0],[-15,-9],[-19,-5],[-19,-2],[-11,-5],[-17,-10],[-22,-18],[-2,-7],[-4,-2],[-17,-3],[-3,-3],[-22,-25],[-3,-11],[3,-16],[-3,-3],[-4,2],[-6,5],[-8,2],[-12,-3],[-7,1],[-5,4],[-7,20],[1,4],[8,3],[8,2],[3,6],[-2,13],[1,16],[4,15],[5,7],[10,11],[18,12],[8,11],[4,11],[0,6],[-2,13],[-6,9],[2,4],[4,1],[14,-3],[17,-1],[17,4],[14,8],[7,4],[11,12],[6,13],[1,14],[-6,47],[5,7],[4,0],[13,-7],[20,1],[13,6],[10,8],[5,11],[3,7],[-2,14],[5,3],[7,-1],[27,-11],[8,4],[-1,19],[3,13],[7,10],[6,4],[12,6],[18,5],[4,2],[2,3],[-1,8],[7,24],[10,25],[-1,7],[-3,9],[-6,5],[-12,6],[-8,0],[-10,-3],[-3,1],[-4,4],[7,14],[-1,12],[-5,20],[0,19],[6,21],[9,15],[0,7],[-2,5],[-7,5],[-13,4],[-14,-1],[-5,-3],[-52,-30],[-4,-1],[-9,0],[-10,7],[2,33],[7,9],[2,12],[-3,14],[-2,18],[2,32],[4,29],[15,40],[-5,8],[-6,1],[-26,-4],[-25,-8],[-23,-13],[-20,-15],[-16,-17],[-4,-3],[-11,-3],[-22,0],[-13,-3],[-10,-8],[-3,-4],[-5,-11],[0,-10],[-4,-12],[-9,-11],[-2,-5],[-1,-8],[-7,-4],[-4,-1],[-7,1],[-8,5],[-1,6],[-16,41],[-3,4],[-9,7],[-10,2],[-7,0],[-57,-9],[-6,3],[-1,4],[1,3],[16,13],[10,12],[3,7],[9,4],[5,0],[27,12],[5,10],[-15,26],[-2,2],[0,5],[4,5],[4,0],[12,-6],[9,-1],[14,1],[7,2],[13,7],[10,11],[7,12],[2,16],[4,7],[7,7],[6,5],[12,5],[7,8],[1,9],[-14,25],[0,8],[3,3],[8,3],[4,5],[7,7],[2,23],[3,5],[9,7],[4,6],[10,43],[8,18],[6,12],[24,28]],[[3757,7424],[12,-5],[15,-2],[13,1],[15,4],[14,1],[23,0],[17,1],[9,2],[11,7],[12,2],[43,1],[9,3],[6,6],[4,3],[25,25],[7,10],[2,10],[-1,10],[-5,13],[-2,6],[4,4],[5,3],[7,2],[3,-3],[10,-7],[6,-8],[3,-9],[4,-11],[2,-27],[-1,-11],[-5,-25],[-3,-13],[-9,-23],[0,-11],[4,-11],[13,-20],[4,-4],[8,0],[6,3],[66,29],[5,2],[4,-2],[16,-24],[11,-13],[16,-13]],[[3852,6182],[-3,21],[19,32],[6,18],[-2,19],[3,13],[6,13],[4,7],[78,102],[7,14],[3,15],[-3,20],[-25,55],[1,6],[4,6],[11,2],[23,-6],[14,-3],[12,4],[11,4],[9,10],[4,11],[7,40],[24,27],[12,22],[10,9],[3,3],[2,6],[-5,3],[-32,-9],[-47,-7],[-12,-5],[-6,-9],[-8,-5],[-10,-4],[-16,2],[-9,6],[-4,4],[-9,8],[-11,2],[-8,0],[-17,-2],[-12,1],[-10,3],[-17,1],[-12,-2],[-5,-2],[-12,-9],[-10,-12],[-12,-9],[-13,-7],[-14,-4],[-6,-1],[-8,2],[-7,7],[-1,10],[34,79],[52,84],[17,30],[11,22],[14,15],[25,26],[8,30]],[[4303,5343],[-8,17],[-6,16],[-1,9],[3,17],[6,20],[7,6],[9,6],[9,2],[10,-2],[22,-10],[30,-15],[26,-17],[12,-6],[7,-1],[13,1],[10,4],[7,5],[20,17],[12,11],[16,10],[31,15]],[[4538,5448],[12,5],[9,8],[2,5],[1,16],[-2,4],[-7,10]],[[4553,5496],[-4,3],[-9,4],[-49,16],[-9,2],[-11,4],[-8,10],[-2,4],[-3,11],[2,12],[1,5],[6,7],[7,5],[124,81],[10,6],[9,15],[0,7],[-3,11],[-4,4],[-8,9],[-5,2],[-9,2],[-15,1],[-6,2],[-12,8],[-10,10],[-5,8],[-10,9],[-10,5],[-7,1],[-12,-3],[-10,-5],[-4,-4],[-6,-10],[0,-9],[1,-11],[-1,-15],[-7,-12],[-4,-6],[-12,-10],[-15,-7],[-8,-2],[-11,-1],[-13,2],[-16,-2],[-9,-3],[-14,-1],[-28,-3],[-14,-6],[-13,-8],[-4,-6],[-1,-3],[-6,-8],[-4,-2],[-7,-1],[-8,2],[-7,5],[-20,40],[-6,8],[-10,7],[-7,2],[-11,0],[-12,-4],[-36,-25],[-14,-17],[-14,-17],[-4,-3],[-17,-8],[-12,-8],[-5,-5],[-6,-12],[-3,-14],[3,-7],[-2,-6],[-6,-9],[-7,-3],[-11,-1],[-7,1],[-13,11],[-7,1],[-12,0],[-6,-2],[-10,-7],[-22,-21],[-12,-15],[-12,-15],[-26,-34],[-2,-4],[-13,-5],[-13,1],[-8,3],[-5,7],[-5,7],[-4,70],[-6,12],[-8,9],[-11,7],[-3,4],[-3,10],[0,11],[5,11],[33,38],[2,12],[0,15],[-5,15],[3,11],[6,10],[9,5],[7,2],[11,0],[22,4],[14,3],[15,4],[10,8],[7,10],[20,72],[0,11],[-4,11],[-17,16],[-6,12],[0,7],[2,11],[35,77],[2,12],[-1,5],[-4,11],[-17,15],[-19,10],[-19,4],[-10,1],[-20,-1],[-10,-2],[-36,-14],[-13,-8],[-9,6],[3,11]],[[3966,6053],[-3,-10],[-69,-30],[-6,2]],[[3888,6015],[-1,5],[18,45]],[[3905,6065],[17,29]],[[3920,6900],[70,22],[2,-3],[-18,-32],[6,-4],[12,9],[9,5],[14,6],[16,8],[11,7],[12,8],[16,6],[17,6],[22,3],[6,6],[0,5],[-8,23],[3,5],[5,1],[34,-12],[6,-2],[3,-4],[2,-7],[0,-11],[6,-3],[8,8],[6,1],[4,5],[1,7],[-4,21],[3,6],[4,1],[10,-8],[8,-9],[5,-2],[4,5],[-6,17],[1,13],[7,5],[20,-8],[19,-12],[13,-12],[6,0],[3,15],[-2,14],[0,6],[7,0],[22,-19],[8,-8],[2,-12],[-1,-16],[4,2],[18,16],[0,6],[-10,24],[-11,18],[-8,10],[0,6],[7,1],[21,-11],[35,-23],[13,-6],[17,-5],[16,2],[54,16],[10,5],[8,9],[7,12],[11,6],[64,23],[9,23]],[[4539,6147],[-16,-24]],[[4499,6081],[-8,-12],[-8,-8],[-12,-7],[-10,-5],[-19,-2],[-38,0],[-19,-2],[-12,-5],[-10,-8],[-9,-7],[-27,-25],[-22,-27],[-20,-26],[-33,-45],[-37,-56],[-27,-40],[-6,-7],[-6,-8],[-10,-3],[-13,-2],[-4,1],[-13,5],[-9,13],[1,87],[1,116],[-3,18],[-5,5],[-11,10],[-14,5],[-7,2],[-21,0],[-68,-2],[-23,3],[-11,4]],[[3966,6053],[-17,11],[-7,5],[-11,13],[-9,12]],[[3922,6094],[5,12],[9,20],[10,16],[7,6],[16,13],[7,7],[47,24],[18,11],[17,12],[14,11],[16,14],[28,26],[13,10],[27,20],[30,14],[24,12],[42,20],[20,10],[19,12],[17,13],[18,15],[34,29],[30,30],[36,24],[15,7],[62,25],[20,5],[38,4],[7,3],[5,4],[4,5]],[[4039,4016],[1,9],[14,9],[10,1],[8,-2]],[[4119,7739],[-6,-7],[0,-5]],[[4129,7735],[-1,3],[-9,1]],[[4236,7439],[-6,11]],[[4230,7450],[-48,84],[-34,56]],[[4148,7590],[-19,32]],[[4129,7622],[0,1]],[[4129,7622],[0,0]],[[4735,5208],[-23,1],[-16,-3],[-28,-11],[-13,-8],[-8,-5],[-10,-14],[-9,-21],[-10,-16],[-14,-15],[-14,-10],[-12,-7],[-7,-4],[-9,-11],[-12,-26],[-4,-9],[-15,-16],[-8,-6],[-13,-10],[-20,-8],[-28,-15],[-12,-7],[-25,-20],[-14,-17],[-30,-42],[0,-3],[-5,-4],[-6,-4],[-6,0],[-4,3],[-6,6],[-6,16],[-3,10],[-1,20],[2,18],[4,10],[76,179],[2,8],[-4,11],[-2,5],[-9,9],[-12,4],[-7,0],[-69,-2],[-69,-4],[-56,-5],[-23,-2],[-27,0],[-10,4],[-7,8],[-3,11],[3,10],[6,10],[11,12],[15,10],[17,14],[18,21],[15,10],[5,5],[6,2],[11,-2],[10,1],[21,3],[17,7],[10,7],[7,9],[2,12],[-1,6]],[[4231,7450],[-1,0]],[[4735,5208],[-12,-9],[-11,-13],[-6,-6],[-7,-14],[-3,-16],[-1,-15],[-3,-15],[-6,-13],[-29,-51],[-10,-7],[-11,-5],[-8,-5],[-4,-9],[-3,-10],[13,-45],[2,-10],[-3,-6],[-19,-53],[-6,-5],[-7,-6],[-10,-2],[-12,3],[-10,8],[-10,3],[-14,-1],[-11,-3],[-10,-12],[-3,-9],[1,-18],[-2,-13],[-11,-15],[-3,-8],[0,-8],[2,-10],[0,-7],[-5,-8],[-4,-5],[-8,-3],[-7,-8],[-11,-15],[-6,-19],[-3,-8],[-1,-20],[4,-15],[1,-71],[-8,-31]],[[4460,4600],[-69,-131],[-23,-35],[-5,-11],[-1,-4]],[[4377,4419],[54,69],[10,20],[13,16],[8,8],[17,13],[11,12],[7,13],[3,14],[20,42],[18,32],[11,19],[19,26],[11,12],[21,13],[16,12],[12,14],[7,10],[22,14],[23,12],[13,3],[24,7],[26,3],[12,0],[26,-2],[24,-6]],[[4499,3987],[15,-15],[13,-7],[13,-7],[17,-3],[8,-1]],[[4495,4119],[6,5],[2,11],[8,10],[3,13],[-4,17],[1,13],[-1,22],[4,27],[6,22],[12,29],[5,21],[8,5],[8,6],[14,11],[8,11],[27,28],[12,12],[14,13],[22,6],[11,11],[21,25],[10,6],[8,11]],[[4577,6528],[1,10]],[[4578,6538],[-2,6]],[[4553,6555],[-3,0],[-11,7],[-6,8],[-3,8],[0,8]],[[4531,6596],[1,27],[2,11],[0,5],[-2,13],[-6,11],[-14,12],[-9,3]],[[4488,6684],[-14,7],[-7,13],[-2,5]],[[4700,4454],[-6,5],[-18,-6],[-17,-14],[-14,-8],[-16,-8],[-14,-8],[-34,-12],[-32,-7],[-9,2],[-2,9],[9,6],[26,25],[-1,10],[-5,11],[2,7],[2,3],[18,3],[11,6],[8,10],[4,11],[0,13],[-8,33],[0,5],[4,7],[6,2],[8,-1],[13,2],[4,2],[8,9],[3,4],[3,11],[-5,14],[2,10],[-1,18],[5,7],[5,2],[6,-2],[30,-7],[11,2],[6,5],[15,42],[2,16],[4,6],[1,5],[-2,8],[3,7],[6,4],[12,3],[8,-4],[19,-5],[6,1],[12,5],[16,11],[18,3],[8,4],[5,11],[10,6],[14,0],[4,3],[11,8],[13,7],[11,2],[7,8],[10,25],[-2,9],[-5,6],[-9,2],[-10,-2],[-16,4],[-8,9],[-3,7],[-3,5],[-6,2],[-9,0],[-4,-1],[-14,-11],[-12,-2],[-11,0],[-6,2],[-20,11],[-23,6],[-2,4],[3,19],[0,10],[-1,20],[-6,9],[-7,9],[-8,1]],[[4743,4930],[-4,2],[-6,0],[-8,-3],[-8,-9],[-3,-12],[-6,-6],[-12,-11],[-21,-12],[-21,-12],[-17,-14],[-15,-15],[-10,-6],[-12,-1],[-13,2],[-12,-1],[-6,-2],[-8,-6],[-3,-9],[0,-5],[2,-33],[-1,-10],[-7,-7],[-10,-6],[-12,-2],[-10,-5],[-4,-5],[-16,-29],[-6,-14],[-7,-28],[-4,-15],[-1,-22],[-1,-6],[-7,-7]],[[4913,6524],[-4,-2],[-7,1],[-4,2]],[[4511,6880],[0,0]],[[5137,6003],[-10,15],[-2,11],[-3,18],[-4,9],[-3,5],[-8,7]],[[5048,6081],[-9,0]],[[5039,6081],[-12,1]],[[4558,6167],[-19,-20]],[[5212,5729],[-25,-23],[-26,-19],[-15,-10],[-30,-16],[-16,-8],[-11,-1],[-11,-9],[-2,-5],[0,-4],[-5,-6],[-11,-8],[-16,-7],[-12,-12],[-4,-10],[-3,-3],[-7,-1],[-19,6],[-10,-3],[-6,-5],[-4,-10],[-11,-12],[-8,-4],[-13,-7],[-7,-2],[-17,-1],[-5,2],[-5,0],[-8,-2],[-12,-22],[-10,-6],[-11,-6],[-19,-1],[-4,2],[-10,1],[-10,-2],[-19,-11],[-6,-2],[-12,-2],[-34,7],[-20,1],[-10,-1],[-20,-5],[-41,-20],[-2,-6],[-8,-8],[-11,-6],[-13,-1],[-14,1],[-5,2],[-6,7],[-8,13],[-3,12],[-7,4],[-7,0],[-3,-1],[-27,-3]],[[4703,3637],[-17,-3],[-7,3],[-5,7],[-11,6],[-4,3],[6,5],[6,3],[4,8],[-7,9],[-1,7],[6,13],[-2,9],[-5,13],[-9,6],[-6,0],[-4,-2],[-10,-8],[-4,1],[-9,14],[-13,11],[-3,6],[18,17],[-12,3],[-4,7],[1,24],[-3,4],[-14,3],[-9,6],[-8,6],[-7,11],[-2,11],[0,4],[5,10],[4,12],[-5,13],[0,4],[5,11],[0,6],[-18,34],[0,8],[1,5],[5,7]],[[4565,3954],[11,-1],[14,1],[24,3],[133,20],[10,1],[20,4],[18,10],[10,6],[18,7],[20,5],[19,1],[10,-1],[21,-4],[66,-5]],[[4959,4001],[27,-21],[29,-15],[31,-14],[15,-6],[34,-6],[33,-5],[18,0],[48,3],[30,-3],[59,-10],[12,-3],[24,-7],[22,-10],[206,-104]],[[4678,2304],[79,93],[4,4],[11,6],[20,-4],[21,-2]],[[4844,2400],[8,0],[37,2],[32,-1],[32,-3]],[[4977,2398],[11,4],[14,9],[14,12],[9,14],[13,16],[18,16],[6,10],[12,23],[7,25]],[[5081,2527],[0,6],[4,8],[2,6]],[[5087,2547],[11,-7],[9,-7],[6,-8],[12,-8],[24,-5],[16,-7],[16,-3],[7,0],[46,3],[33,2],[16,3],[64,27],[12,10],[9,13]],[[5368,2560],[0,30],[-1,25],[2,20],[5,17],[9,17],[13,4],[12,0],[18,-1],[7,3],[6,4],[3,7],[19,61],[4,10],[4,10],[11,11],[10,3],[10,-3],[4,-3],[3,-26],[7,-20],[2,-13],[7,-13],[8,-9],[15,-3],[11,0],[28,3],[19,5],[9,3],[8,3],[10,8],[14,9],[17,5],[30,15],[37,24],[17,10],[11,2],[14,10],[12,13],[17,24],[14,18],[29,28],[6,7],[10,18],[11,10],[7,4],[20,9],[24,14],[20,14],[10,4],[19,15],[17,16],[13,20]],[[6000,3002],[-11,-2],[-15,-5],[-20,-2],[-16,-1],[-9,-3],[-2,-4],[-7,-12],[-5,-2],[-33,6],[-14,-1],[-37,-10],[-8,-7],[-15,-25],[0,-4],[-4,-9],[-4,-3],[-19,-3],[-8,-5],[-4,-5],[-4,-8],[-7,-6],[-14,-9],[-13,-3],[-17,1],[-2,1],[0,7],[12,52],[0,6],[-2,8],[-9,6],[-6,3],[-23,4],[-11,-1],[-12,-6],[-9,-8],[-8,0],[-2,2],[-16,23],[-4,3],[-21,9],[-23,4],[-22,1],[-22,-2],[-21,-8],[-10,-4],[-15,-11],[-30,-36],[-4,-6],[-5,-3],[-10,-4],[-22,-2],[-15,-10],[-18,-5],[-8,-2],[-32,-18],[-3,-4],[-6,-11],[-5,-4],[-7,2],[-3,6],[-8,5],[-31,2],[-28,7],[-2,3],[2,3],[12,3],[17,9],[31,15],[16,11],[26,22],[13,12],[12,13],[10,13],[10,14],[17,28],[9,24],[-1,2],[3,10],[3,4],[7,5],[22,2],[9,5],[5,5],[3,7],[9,6],[18,-4],[13,3],[13,6],[7,7],[12,1],[23,4],[17,1],[22,-4],[26,-1],[17,0],[18,2],[34,4],[34,11],[31,13],[30,17],[19,9],[2,3],[1,6],[-3,7],[-2,4],[-12,2],[-21,7],[-12,8],[-10,0],[-6,-1],[-12,1],[-7,5],[-63,46],[-14,7],[-10,8],[-7,9],[-4,1],[-12,16],[-14,6],[-13,-2],[-8,4],[-5,6],[0,5],[5,7],[0,9],[-6,8],[-18,12],[-13,2],[-4,4],[-18,10],[-13,2],[-6,0],[-12,-4],[-15,-9],[-10,-2],[-29,-11],[-3,-2],[-5,-9],[2,-6],[-1,-7],[-5,-3],[-15,3],[-19,-1],[-16,-10],[-44,-49],[-21,-20],[-24,-18],[-14,-6],[-28,-12],[-29,-9],[-26,-3],[-36,-1],[-19,-2],[-10,3],[-14,-2],[-6,7],[-21,7],[-20,1],[-4,5],[2,4],[34,13],[33,8],[15,6],[12,10],[8,8],[25,22],[7,11],[10,15],[9,26],[0,7],[-2,5],[-8,7],[-3,1],[-15,8],[-14,5],[-11,1],[-34,-2],[-48,-9],[-3,0],[-4,4],[3,6],[8,4],[12,14],[0,2],[6,9],[7,4],[15,0],[8,5],[3,6],[-1,8],[2,16],[-1,16],[5,4],[18,-1],[33,-8],[12,1],[26,8],[5,0],[8,-3],[38,3],[12,2],[6,2],[13,12],[6,9],[1,6]],[[5329,3488],[-10,21],[-7,12],[-19,21],[-16,15],[-34,25],[-6,3],[-7,0],[-7,3],[-7,12],[-8,10],[-12,7],[-13,5],[-16,0],[-21,-7],[-11,2],[-13,7],[-14,9],[-13,2],[-11,-2],[-5,4],[-2,9],[-7,6],[-23,17],[-7,3],[-21,-1],[-16,3],[-6,-1],[-21,-7],[-5,-2],[-12,-20],[-6,-1],[-17,16],[-11,1],[-6,-4],[-9,-1],[-9,-4],[-36,-4],[-5,-3],[-5,-6],[-3,-12],[-4,-1],[-16,17],[-3,2],[-7,0],[-8,-3],[-27,-7],[-5,-4],[-9,-7],[-15,-7],[-13,-3],[-16,-9],[-3,6],[-34,14],[11,13]],[[4703,3637],[33,0],[8,1],[11,5],[19,18],[26,5],[5,3],[8,8],[4,9],[6,1],[9,-6],[8,4],[36,11],[45,17],[8,7],[2,7],[0,9],[-3,6],[2,8],[7,0],[9,-13],[4,-5],[6,-3],[12,-2],[35,2],[6,1],[10,6],[6,7],[3,9],[-1,14],[5,6],[10,-8],[15,-8],[14,-4],[26,2],[8,-5],[5,-2],[16,-4],[10,0],[13,-9],[17,-5],[11,2],[9,7],[7,6],[5,0],[5,-4],[1,-5],[9,-10],[10,-8],[101,-24],[15,-5],[11,-11],[3,-5],[17,-8],[27,-6],[28,-5],[4,-1],[4,-5],[6,-10],[10,-9],[19,-8],[12,-11],[16,-11],[25,-15],[27,-11],[29,-8],[36,-3],[8,1],[4,0],[88,-37],[39,-14],[33,-8],[17,-3],[35,-1],[33,2],[35,7],[33,11],[28,5],[20,2],[24,4],[23,9],[18,11],[62,63],[2,7],[-1,3],[-13,26],[0,10],[8,8],[6,4],[6,6],[1,7],[-5,16],[2,3],[11,17],[2,9],[5,10],[17,9],[8,5],[4,10],[0,5],[-4,14]],[[6162,3782],[-12,5],[-23,-4],[-20,0],[-11,4],[-11,0],[-15,-9],[-12,-2],[-19,3],[-7,6],[-7,1],[-12,-6],[-5,-4],[-10,-28],[-10,-8],[-9,-1],[-6,1],[-6,4],[-2,6],[-8,3],[-12,3],[-17,-4],[-9,-8],[-7,-12],[-6,-5],[-6,0],[-12,4],[-9,3],[-11,-3],[-19,-11],[-9,-1],[-7,3],[-4,4],[-11,15],[-11,6],[-6,-2],[-6,3],[-4,4],[0,6],[1,4],[19,21],[0,7],[-1,4],[-6,5],[-25,9],[-4,3],[-3,6],[7,9],[27,13],[11,3],[15,9],[17,15],[6,9],[-3,13],[-6,7],[-10,4],[-7,4],[-3,4],[1,8],[4,4],[16,21],[3,10],[0,5],[-2,11],[-6,35],[0,4],[7,8],[8,2],[3,-1],[9,3],[6,8],[-3,13],[1,5],[6,11],[15,16],[23,22],[29,19],[7,12],[0,8],[4,15],[2,9],[11,15],[15,12],[15,10],[19,4],[20,2],[9,-1],[8,2],[8,8],[1,9],[-1,5]],[[6064,4221],[-9,8],[-13,17],[-8,18],[-8,7],[-7,2],[-6,0],[-7,-2],[-8,-8],[-3,-12],[-11,-17],[-14,-13],[-13,-10],[-6,-2],[-14,1],[-7,2],[-10,7],[-4,6],[-15,32],[-11,7],[-11,4],[-10,-1],[-6,-3],[-7,-6],[-3,-5],[-4,-19],[-6,-12],[-12,-14],[-8,-3],[-7,1],[-43,19],[-12,3],[-11,-3],[-21,-12],[-4,-3],[-4,-11],[2,-11],[0,-5],[-4,-13],[-1,-10],[1,-4],[5,-12],[-1,-4],[-4,-5],[-26,-5],[-3,-2],[-16,-20],[-6,-9],[-5,-13],[-1,-6],[-7,-13],[-12,-12],[-11,-15],[-8,-17],[-2,-2],[-6,1],[2,14],[3,20],[-4,21],[-4,15],[-6,5],[-1,10],[3,25],[-3,24],[-11,27],[-6,7],[-13,5],[-17,2],[-13,0],[-26,-2],[-21,-7],[-10,2],[-9,3],[-9,1],[-17,-2],[-9,-2],[-20,-8],[-7,-5],[-11,-10],[-73,-72],[-6,1],[0,8],[10,33],[3,11],[0,6],[-3,19],[6,13],[15,8],[10,5],[5,10],[2,8],[3,5],[3,4],[11,3],[13,7],[6,10],[4,7],[7,7],[9,3],[7,1],[6,10],[20,18],[21,13],[1,8],[-2,4],[-20,17],[-4,4],[-1,9],[2,5],[23,13],[12,7],[27,10],[13,3],[26,3],[3,7],[0,3],[-8,20],[-12,23],[0,10],[11,20],[2,2],[10,3],[5,-1],[42,9],[5,5],[0,3],[-6,15],[-3,6],[0,4],[7,21],[3,2],[2,11],[-3,7],[-3,7],[0,21],[-4,10]],[[5614,4596],[-37,0],[-9,-7],[-15,-28],[-5,-10],[-12,-6],[-8,0],[-8,-3],[-13,-5],[-7,-8],[-8,-3],[-23,7],[-14,5],[-15,15],[-7,17],[-3,16],[0,14],[-3,6],[-12,6],[-14,-3],[-15,-8],[-16,-10],[-10,-13],[-8,-16],[-2,-13],[-2,-5],[-7,-6],[-6,-1],[-5,0],[-8,2],[-30,9],[-8,1],[-11,-2],[-8,-3],[-10,-7],[-8,-12],[-3,-9],[-1,-13],[-6,-7],[-9,-6],[-11,-1],[-9,2],[-12,1],[-12,-3],[-10,-5],[-8,-9],[-28,-29],[-12,-15],[-10,-16],[-19,-32],[-14,-36],[-4,-3],[-5,-2],[-7,2],[-6,6],[4,99],[-1,3],[-6,5],[-19,-3],[-58,-23],[-8,4],[0,2],[18,27],[10,24],[5,16],[3,23],[-1,7],[-6,3],[-11,3],[-21,-2],[-24,2],[-22,-1],[-26,-7],[-18,-8],[-30,-12],[-13,-3],[-15,-3],[-10,-7],[-7,-13],[-5,-13],[-10,-27],[-7,-24],[-6,-23],[-4,-28],[-12,-49],[-8,-20],[-7,-2],[-10,2],[-7,9],[-3,10],[-8,31],[0,33]],[[4718,4385],[-11,34],[-7,35]],[[4718,4385],[15,24],[16,32],[0,6],[-3,4],[-1,11],[1,11],[2,3],[4,38],[-4,5],[-1,5],[1,6],[5,7],[51,41],[11,9],[24,12],[24,7],[58,24],[9,6],[17,6],[45,10],[27,7],[30,7],[7,5],[12,4],[15,1],[8,0],[25,4]],[[4721,4854],[11,39],[11,37]],[[4743,4930],[5,28],[-1,14],[-5,17],[-5,4],[-2,5],[-1,7],[1,10],[7,5],[13,6]],[[6006,4662],[28,27],[3,10],[-2,15],[-18,25],[-11,8],[-20,6],[-10,9],[-6,4],[-32,46],[-9,7],[-5,2],[-14,3],[-12,-3],[-8,-2],[-133,-41],[-17,-6],[-9,-3],[-34,-1],[-24,-3],[-12,1],[-7,2],[-14,10],[-9,3],[-19,6],[-27,0],[-16,3],[-7,2],[-13,9],[-9,11],[-3,6],[-1,12],[0,7],[-3,11],[-4,5],[-8,8],[-8,3],[-25,2],[-27,-1],[-16,-4],[-55,-16],[-17,-7],[-8,-6],[-13,-13],[-4,-6],[-47,-61],[-7,-10],[-5,-4],[-13,-8],[-17,-14],[-13,-10],[-87,-56],[-10,-4],[-16,1],[-9,5],[-5,4],[-4,8],[-1,7],[2,9]],[[5116,4680],[1,4],[30,34],[19,30],[15,30],[5,16],[9,41],[0,6],[-1,12],[-3,5],[-14,19],[-6,17],[-2,8],[-4,4],[-66,44],[-16,15],[-12,13],[-12,12],[-21,15],[-16,9],[-15,4],[-11,3],[-20,11],[-9,8],[-26,20],[-9,13],[-4,13],[-1,13],[-6,13],[-3,7],[-10,10],[-7,4],[-11,4],[-119,68],[-15,4],[-8,1],[-13,-2]],[[5249,5377],[-22,-13],[-13,-6],[-20,-6],[-21,-1],[-113,-5],[-22,1],[-19,3],[-20,8],[-14,1],[-15,-2],[-12,-7],[-10,-7],[-8,-12],[-2,-12],[0,-8],[2,-13],[3,-6]],[[4942,5273],[-2,-9],[-19,-17]],[[4911,5244],[-4,-1],[-10,4]],[[4897,5247],[-4,6],[0,8],[-2,8],[-9,4],[-7,0],[-23,-7],[-19,-8],[-41,-17],[-39,-20],[-18,-13]],[[4813,6425],[-9,9],[-10,5],[-6,8]],[[4831,6463],[-4,2]],[[4921,6499],[-8,8]],[[4913,6507],[10,6]],[[5668,2146],[0,-2],[-4,-28],[-8,-27],[0,-7],[8,-9],[6,-3],[6,-1]],[[5804,2239],[4,14],[4,11],[8,10],[9,8],[4,6],[4,9],[3,39],[3,12],[7,12],[9,11],[7,3],[24,12],[8,2],[4,5],[5,5],[1,8],[-1,9],[2,10],[8,13],[8,23],[6,11],[9,7],[5,8],[5,15],[-1,7],[4,7],[134,177],[6,7],[8,4],[12,1],[10,-3],[6,-4],[16,-22]],[[5101,2438],[-45,-42]],[[5039,6083],[0,-2]],[[4959,4001],[12,3],[10,4],[9,8],[5,4],[5,13],[20,23],[22,20],[25,18],[23,12],[10,6],[12,16],[10,9],[17,12],[20,9],[12,10],[6,11],[8,24],[10,18],[20,25],[15,11],[4,5],[8,14],[3,16],[0,13],[4,13],[6,11],[10,8],[10,7],[11,3],[9,1],[8,3],[7,6],[3,6],[48,61],[16,14],[17,12],[19,10],[14,3],[22,10],[20,11],[23,15],[31,16],[15,8],[28,10],[12,4],[14,10],[13,17],[7,14],[2,18]],[[5087,2547],[-10,51],[0,25],[2,25],[5,12],[9,24],[13,21],[13,19],[8,13],[5,15],[-5,4],[0,10],[7,8]],[[5081,2527],[7,-15],[5,-23],[-2,-23],[4,-14],[6,-14]],[[5101,2438],[24,-5],[19,-4],[44,-5],[43,-5],[5,0],[7,2],[8,10]],[[5212,5729],[40,28],[5,3],[7,0],[9,-4],[7,-6],[2,-7],[-1,-5],[-6,-14],[-8,-10],[-24,-15],[-10,-12],[-6,-9],[0,-4],[4,-7],[4,-3],[18,0],[13,1],[27,4],[26,8],[23,12],[22,13],[10,10],[6,2],[11,7],[9,9],[3,12],[-44,109]],[[5334,5421],[-2,-2]],[[5280,5396],[-31,-19]],[[5759,3363],[-10,13],[-40,22],[-39,18],[-54,22],[-47,16],[-17,4],[-17,-1],[-8,1],[-11,7],[-6,0],[-3,-4],[-1,-5],[-6,-4],[-50,-24],[-31,-17],[-31,-16],[-8,-8],[-4,-2],[-11,-3],[-17,-1],[-10,2],[-7,2],[-46,30],[-6,7],[11,2],[6,3],[13,9],[9,12],[6,13],[13,13],[1,7],[-5,5],[-4,2]],[[5368,2560],[5,3],[10,8],[7,9],[21,28],[11,6],[14,4],[6,2],[14,-3],[10,-4],[11,0],[5,5],[8,16]],[[5547,3800],[8,-19],[21,-31],[18,-19],[13,-5],[16,-11],[12,-12],[9,-10],[18,-17],[10,-8],[21,-12],[22,-8],[13,-4],[27,-8],[49,-14],[20,-5],[28,-2],[27,1],[15,1],[26,7],[26,10],[24,12],[23,16],[17,15],[18,21],[13,12],[26,22],[29,20],[33,16],[33,14]],[[5547,3800],[15,5],[25,15],[25,19],[60,53],[11,12],[18,23],[14,24],[11,26],[5,14],[8,41],[7,16],[12,16],[10,9],[175,105],[21,15],[11,6],[23,11],[27,8],[26,3],[13,0]],[[5614,4596],[18,6],[30,11],[17,5],[25,5],[15,3],[23,9],[15,8],[16,8],[18,1],[9,6],[2,7],[-3,11],[1,4],[4,4],[13,2],[17,5],[25,14],[9,1],[4,-1],[7,-3],[4,-4],[-12,-22],[-1,-4],[5,-5],[13,4],[12,5],[1,8],[8,9],[10,5],[6,4],[2,9],[3,4],[10,1],[8,-3],[8,-2],[8,2],[4,5],[2,7],[7,2],[7,-1],[10,-6],[2,-9],[-1,-13],[-7,-18],[-4,-7],[-17,-19],[1,-5],[5,-6],[11,1],[22,18]],[[6006,4662],[15,11],[21,12],[22,6],[21,5],[5,4],[0,3],[-17,28],[-11,18],[-14,16],[-24,27],[1,15],[6,11],[4,19],[0,15],[-3,11],[0,15],[3,19],[3,44],[4,2],[5,2],[25,-11],[11,-3],[33,-3],[23,1],[5,0],[10,-5],[11,-10],[10,-3],[11,1],[6,10],[0,7],[-10,14],[1,12],[5,7],[11,7],[12,1],[7,7],[11,16],[5,16],[2,19],[-3,18],[-8,18],[-4,7],[-12,14],[-11,2],[-7,0],[-15,-2],[-15,-4],[-6,2],[-6,10],[-3,4],[0,12],[5,9],[7,3],[7,2],[9,9],[7,11],[1,12],[-1,10],[-35,94]],[[6145,2676],[-5,13],[-18,29],[-6,5],[-7,3],[-12,-1],[-22,-19],[-71,-75],[-17,-21],[-12,-11],[-8,-4],[-9,-7],[-14,-22],[-16,-9],[-10,-9],[-4,-13],[-2,-10],[-5,-9],[-6,-4],[-7,-3],[-22,-33],[-13,-26],[-3,-6],[-10,-8],[-63,-38],[-9,-10],[-4,-10],[0,-23],[-6,-8],[-10,-1],[-4,2],[-11,25],[-4,5],[-9,8],[-11,3],[-33,5],[-3,4],[1,5],[27,18],[16,12],[21,21],[19,25],[15,28],[10,27],[3,16],[-1,14],[1,12],[4,7],[6,14],[2,7],[-1,16],[-4,15],[-7,11],[0,9],[6,5],[6,3],[8,-1],[15,4],[6,9],[2,6],[15,9],[6,9],[4,17],[4,12],[12,24],[13,16],[-2,25],[3,15],[9,13],[19,19],[5,8],[8,16],[7,28],[6,10],[11,17],[10,11],[19,20],[10,18],[5,17],[2,17]],[[6883,3311],[-19,1],[-16,8],[-13,2],[-21,-5],[-11,-8],[-11,-14],[-4,-4],[-80,-45],[-18,-7],[-18,-5],[-13,-2],[-10,-1],[-18,-6],[-101,-45],[-16,-10],[-7,-5],[-7,-10],[-6,-5],[-12,-5],[-15,0],[-25,13],[-27,17],[-14,4]],[[6401,3179],[-14,-5],[-7,-7],[-33,-85],[-11,-14],[-5,-12],[1,-16],[-2,-7],[-11,-4],[-17,-10],[-58,-44],[-8,-9],[-16,-14],[-10,-2],[-11,2],[-7,3],[-3,7]],[[6189,2962],[-1,4],[2,13],[31,43],[7,14],[8,23],[4,23],[0,12],[-2,29],[-7,23],[-9,24],[-2,3],[-9,7],[-14,1],[-26,-14],[-28,-14],[-27,-12],[-28,-12],[-27,-11],[-57,-19],[-30,-7],[-39,-10],[-5,0],[-8,4],[-5,7],[-1,2],[1,10],[2,4],[31,20],[25,16],[22,16],[39,32],[12,14],[7,8],[7,19],[-4,11],[-5,6],[-11,5],[-95,11],[-22,2],[-26,4],[-17,8],[-36,12],[-38,14],[-50,18],[-8,7],[-6,8],[0,10],[15,13]],[[5759,3363],[13,5],[27,-3],[35,-2],[28,0],[28,1],[28,3],[28,3],[27,3],[26,5],[27,7],[28,6],[36,11],[22,9],[13,5],[25,6],[14,1],[15,6],[5,5],[11,11],[5,6],[74,109],[5,5],[3,12],[0,7],[-3,12],[-13,30],[0,12],[4,5],[6,4],[33,11],[6,3],[13,14],[13,28],[20,38],[25,39],[4,18],[6,13],[16,17],[14,22],[13,25],[8,25],[4,27],[0,15],[-6,13],[-11,13]],[[6434,3968],[-8,5],[-14,8],[-17,4],[-40,3],[-21,0],[-22,-3],[-38,-5],[-13,1],[-9,7],[-8,8],[-1,4],[3,7],[17,14],[15,15],[4,9],[9,9],[6,2],[19,4],[9,5],[14,9],[12,13],[8,16],[3,8],[2,10],[3,9],[6,3],[5,2],[7,0],[5,-2],[11,-6],[5,-3],[12,-1],[11,4],[15,9],[11,7],[7,2],[15,1],[21,-1],[15,1],[7,2],[12,9],[8,11],[4,12],[5,24]],[[6549,4204],[1,52],[-3,8],[-6,11],[-6,6],[-21,15]],[[6113,2408],[-19,-2],[-17,-7],[-14,-6],[-16,-11],[-12,-14],[-52,-79],[-7,-12],[-6,-18],[1,-21],[-3,-13],[-7,-12],[-10,-9],[-11,-8],[-12,-11],[-9,-11],[-5,-20],[2,-18]],[[6028,5267],[-26,12],[-28,1],[-59,1]],[[6514,4296],[-18,23],[-7,5],[-11,6],[-25,1],[-20,-1],[-44,-6],[-15,1],[-9,4],[-16,7],[-4,7]],[[6345,4343],[-9,11],[-35,99],[-11,12],[-11,6],[-13,2],[-6,-1],[-119,-31],[-15,-3],[-13,-6],[-15,-11],[-10,-5],[-5,-1],[-11,3],[-6,2],[-28,19],[-13,5],[-12,1],[-7,-1],[-18,-8],[-8,0],[-10,4],[-4,5],[-12,4],[-8,2],[-8,0],[-23,-3],[-26,-9],[-19,-7],[-7,-1],[-4,1],[-10,4],[-3,9],[-1,16],[3,12],[2,5],[27,34],[8,9],[104,81],[5,7],[3,12],[1,5],[-2,14],[1,11],[3,4],[6,7]],[[7175,1301],[-87,-58],[-26,-10],[-36,-13],[-33,-9],[-35,-5],[-16,-2],[-27,2],[-20,-1],[-27,-5],[-14,-1],[-29,1]],[[6189,2962],[-16,-15],[-2,-4],[-32,-15],[-17,-4],[2,6],[7,4],[6,18],[6,6],[8,15],[12,20],[11,25],[6,16],[1,18],[-2,16],[-4,3],[-2,10],[1,9],[-1,14],[-15,2],[-16,-5],[-11,0],[-2,-7],[4,-2],[8,0],[5,-3],[4,-6],[-1,-4],[-15,-18],[-3,0],[-8,8],[-16,0],[-6,-2],[-9,-11],[-1,-12],[-3,-2],[-6,-2],[-14,3],[-12,-5],[-1,-6],[2,-5],[-1,-6],[-8,-7],[-4,-3],[-17,-3],[-13,5],[-6,0],[-8,-11]],[[6146,5259],[-2,27],[-3,24]],[[6140,5314],[-7,5],[-11,13],[-5,11],[4,16],[-1,4],[-9,17],[-8,4],[-21,-2],[-15,1],[-8,-5],[-15,-1],[-12,5],[-1,4],[4,9],[6,3],[8,10],[12,7],[7,4]],[[6048,5436],[-1,0]],[[6064,4221],[22,-6],[26,-7],[28,-2],[28,2],[14,1],[28,8],[21,8],[27,12],[18,6],[14,2],[22,0],[34,-4]],[[6346,4241],[84,-4],[19,-4],[24,-9]],[[6473,4224],[3,-9],[8,-8],[10,-7],[12,-2],[43,6]],[[6549,4204],[18,-5],[38,9],[75,-4],[57,2],[67,4],[20,15],[13,-2],[49,-20],[19,-8],[22,0],[21,-5],[24,-20],[52,-22],[9,-7],[3,-22],[-5,-26],[-15,-30],[-23,-30],[3,-2]],[[6310,2700],[-13,-86],[-5,-10],[-5,-8],[-9,-9],[-20,-12],[-11,-12],[-17,-28],[-17,-23],[-28,-29],[-24,-21],[-28,-16],[-13,-5],[-7,-5],[-3,-9],[-1,-7],[4,-12]],[[6113,2408],[49,-35],[16,-9],[19,-3],[81,4],[24,5],[24,8],[22,11],[16,11],[12,8],[17,6],[16,4],[27,3]],[[6800,2048],[-53,3],[-7,0],[-14,8],[-17,3],[-13,-1],[-16,-5],[-12,-9],[-7,-7],[-8,-13],[-15,-16],[-10,-5],[-13,0],[-6,0],[-8,3],[-19,0],[-42,-6],[-30,-10],[-16,0],[-5,-2],[-4,-5],[-9,-1],[-17,3],[-4,4],[-1,4],[2,21],[8,27],[8,22],[1,4],[-4,11],[-6,8],[-11,3],[-7,0],[-15,-5],[-12,-7],[-51,-19],[-9,6],[-10,26],[-4,4],[-9,5],[-20,0],[-22,-5],[-20,-5],[-19,-9],[-55,-42],[-8,-7],[-5,-2],[-11,0],[-5,2],[-4,4],[-1,6],[7,7],[18,48],[5,16],[-1,14],[-4,14],[-10,7],[-14,4],[-17,-1],[-6,5],[0,4],[-3,4],[0,4],[29,13],[6,7],[4,8],[0,11],[-3,6],[-10,15],[4,4],[6,0],[49,-24],[8,1],[35,9],[19,6],[5,6],[1,5],[-2,6],[-12,52],[4,3],[6,0],[11,-2],[29,3],[5,5],[3,11],[1,5],[8,6],[18,11],[20,10],[3,6],[7,35],[6,8],[33,17],[3,8]],[[6436,2421],[-19,2],[-17,5],[-13,0],[-19,-5],[-12,-1],[-45,6],[-3,8],[8,14],[6,8],[9,4],[10,10],[10,16],[0,6],[-3,6],[-9,25],[1,12],[8,18],[12,13],[9,7],[18,13],[12,13],[6,9]],[[6405,2610],[-22,17],[-12,12],[-6,14],[-5,26],[0,19],[6,16],[9,16],[13,14],[3,5],[2,8],[4,15],[0,4],[6,7],[3,7],[-1,4],[9,13],[12,14],[14,9],[-1,4],[-13,2],[-27,-5],[-25,1],[-17,-3],[-28,-13],[-5,-1],[-19,-1],[-6,-1],[-13,-10],[-5,-11],[0,-11],[5,-13],[-3,-11],[-14,-18],[-11,-20],[-8,-23],[-4,-6],[-7,-3],[-3,-7],[-2,-6],[-6,-10],[-7,-3],[-19,-6],[-20,-8],[-23,-17],[-5,3],[-1,14],[-1,11],[-7,18]],[[6883,3311],[-33,-6],[-10,-5],[-10,-5],[-13,-16],[-22,-20],[-11,-10],[-26,-16],[-20,-12],[-30,-13],[-28,-9],[-21,-9],[-21,-11],[-22,-16],[-22,-13],[-21,-11],[-11,-6],[-9,-8],[-4,-9],[-8,-11],[-19,-18],[-14,-19],[-4,-4],[-8,-3],[-7,2],[-7,3],[-10,2],[-10,0],[-9,-4],[-8,-6],[-7,-9],[-2,-9],[6,-74],[0,-7],[-4,-13],[-5,-12],[-14,-13],[-9,-4],[-13,2],[-7,7],[-10,5],[-10,3],[-6,0],[-13,-2],[-9,-4],[-7,-8],[-32,-41],[-5,-11],[-9,-9],[-20,-10],[-15,-12],[-10,-14],[-6,-15],[-5,-13],[-22,-93],[-7,-13],[-10,-9],[-33,-19],[-6,1],[-10,14]],[[6146,5259],[22,-10],[16,-12],[14,-15],[6,-12],[8,-7],[16,-10],[21,-9],[21,-11],[20,-13],[19,-13],[28,-22],[2,-4],[6,-1]],[[6434,3968],[0,-10],[-5,-8],[-5,-8],[-82,-46],[-92,-78],[-12,-14],[-8,-4],[-19,-10],[-18,-5],[-21,-3],[-10,0]],[[6346,4241],[-7,7],[-12,13],[-16,11],[-16,12],[-21,8],[-14,5],[0,3],[41,1],[10,3],[13,4],[13,10],[-16,5],[1,6],[23,14]],[[6347,5140],[-19,18]],[[6365,5130],[-28,32]],[[6310,2700],[18,-24],[49,-56],[28,-10]],[[6405,2610],[9,0],[32,12],[51,13]],[[6364,2788],[-8,-9],[-14,-15],[-14,-21],[-9,-20],[-9,-23]],[[6345,5120],[6,5],[-10,9],[6,6]],[[7098,3512],[2,10],[-8,5],[-38,-4],[-8,-4],[-5,-7],[-2,-8],[-7,-9],[-10,-9],[-13,-8],[-7,-6],[-5,-10],[-1,-8],[-3,-5],[-4,-6],[-7,-4],[-9,-1],[-7,1],[-6,4],[-13,2],[-9,-2],[-22,-67],[-4,-7],[-7,-7],[-10,-4],[-6,-1],[-11,1],[-9,2],[-25,14],[-7,2],[-8,-1],[-6,-2],[-6,-5],[-108,-86],[-16,-11],[-17,-8],[-9,-2],[-29,-3],[-19,-4],[-17,-8],[-29,-15],[-18,-9],[-34,-13],[-18,-4],[-9,2],[-2,4],[-11,2],[-13,7],[-15,14],[-7,-1],[-7,-11],[-10,-9],[-12,-5],[-7,-2],[-7,-11],[-3,-9],[1,-7]],[[6973,1715],[-1,3],[-8,6],[-19,1],[-19,-2],[-11,0],[-20,4],[-19,9],[-10,1],[-10,-4],[-9,-7],[-1,-7],[-7,-5],[-5,0],[-5,1],[-19,34],[-3,3],[-6,0],[-14,-4],[-19,1],[-12,0],[-6,-2],[-3,-6],[-10,-4],[-6,0],[-32,5],[-21,1],[-26,-3],[-11,4],[-26,0],[-12,-2],[-9,-4],[-5,-1],[-22,1],[-15,-3],[-13,-7],[-19,3],[-33,-4],[-30,-9],[-19,-7],[-5,0],[-6,2],[-4,7],[1,7],[4,3],[40,27],[8,6],[5,9],[4,7],[6,4],[16,4],[10,5],[5,4],[5,10],[3,14],[3,6],[14,5],[13,15],[15,18],[18,12],[16,16],[6,9],[13,19],[20,15],[6,4],[18,4],[12,7],[15,18],[16,13],[10,8],[18,8],[21,14],[24,22],[12,15]],[[6436,2421],[16,2],[13,5],[10,9],[7,12],[7,18],[9,9],[13,6],[25,3],[27,-1],[27,-6],[23,-6],[20,-10],[8,-15],[0,-12],[-1,-11],[1,-14],[0,-11],[-2,-4],[2,-7],[8,-8],[6,-12],[4,-13],[-1,-8],[-4,-5],[0,-5],[5,-8],[-1,-7],[-8,-9],[-6,-11],[-6,-43]],[[6473,4224],[11,6],[20,11],[14,10],[5,8],[1,5],[-6,23],[-4,9]],[[6638,2259],[33,28],[6,6],[9,13],[23,62],[10,10],[7,7],[32,24],[7,11],[6,23],[-3,8],[-4,7],[-100,69],[-3,2],[-3,9],[1,10],[2,3],[8,7],[50,22],[18,9],[17,14],[7,10],[13,17],[8,20],[4,21],[0,5],[-6,10],[-10,7],[-9,4],[-133,12],[-24,4],[-14,5],[-5,10],[-1,7],[2,12],[3,5],[9,9],[17,13],[22,20],[17,14],[16,8],[39,22],[8,16],[3,17],[0,15],[-2,7],[0,6],[2,9],[5,6],[39,32],[4,9],[1,13],[-1,12],[-8,10],[-13,11],[-8,8],[-1,17],[3,10],[17,18],[7,12],[2,13],[-3,13],[-8,15],[-5,13],[0,14],[3,8],[7,12],[7,7],[70,85],[17,15],[19,15],[11,7],[10,10],[3,9],[-15,9]],[[8429,1619],[-9,-5],[-6,-1],[-12,0],[-5,0],[-12,4],[-11,1],[-11,-3]],[[8363,1615],[-6,-5],[-3,-5],[-22,-59],[-14,-35],[-6,-6],[-10,-5],[-15,-3],[-6,-5],[-10,-8],[-5,-6],[-28,-50],[-8,-22],[-4,-12],[-2,-29],[-5,-13],[-16,-28],[-11,-20],[-13,-25],[-4,-12],[0,-6],[-5,-12],[-22,-30],[-12,-29],[-6,-8],[-19,-24],[-4,-12],[-11,-18],[-10,-14],[-18,-21],[-23,-23],[-25,-27],[-10,-15],[-12,-24]],[[7998,1004],[-14,-11],[-4,-2],[-10,-2],[-8,1]],[[7962,990],[-8,8],[-3,7],[-2,10],[1,24],[3,23],[8,22],[9,16],[12,45],[8,38],[8,36],[5,38],[8,60],[-1,13],[1,8],[6,22],[0,12],[-5,10],[-2,19],[6,31],[-1,19],[-6,20],[-2,24],[-1,22],[-3,6],[-6,9]],[[7997,1532],[-9,2],[-18,0],[-21,-5],[-18,-9],[-67,-32],[-41,-16],[-17,-9],[-14,-9],[-30,-19],[-26,-24],[-13,-13],[-15,-13],[-13,-12],[-20,-13],[-17,-11],[-10,-6],[-16,-17],[-13,-19],[-10,-15],[-62,-59],[-24,-13],[-6,-2],[-10,0],[-12,4],[-7,9],[-5,8],[0,7],[3,10],[19,20],[25,34],[10,19],[19,35],[8,20],[6,24],[1,6],[6,13],[15,19],[21,43],[12,23],[29,47],[16,21],[17,24],[4,6],[2,11],[-5,14],[-15,11]],[[7676,1646],[-13,0],[-19,4],[-23,3],[-36,3],[-15,0],[-16,5],[-5,3],[-11,9],[-5,5],[-22,47],[-9,6],[-4,2],[-13,3],[-11,-4],[-5,-3],[-62,-26],[-7,-4],[-13,-4],[-12,2],[-5,2],[-9,6],[-12,6],[-21,2],[-13,-3],[-22,-9],[-15,-4],[-32,-8],[-13,-8],[-11,-10],[-32,-57],[-5,-4],[-8,-2],[-11,0],[-5,2],[-38,28],[-5,13],[1,12],[10,17]],[[7129,1680],[4,10],[7,10],[47,51],[4,10],[-2,14],[-4,5]],[[7185,1780],[-12,11],[-27,11],[-22,8],[-33,16],[-20,6],[-20,5],[-202,-7],[-9,-1],[-10,4],[-7,8],[-5,10],[1,8],[7,9],[5,4],[148,65],[21,13],[29,14],[14,4],[18,5],[18,7],[86,36],[7,2],[16,6],[11,11],[10,18],[9,14],[10,13],[29,29],[7,10],[10,19],[3,15],[0,7],[-4,10],[-8,5],[-10,4],[-46,3],[-11,1],[-10,12],[-3,10],[3,30],[-2,9],[-5,5]],[[7181,2249],[-9,6],[-80,18],[-12,1],[-16,-3],[-7,-2],[-13,-10],[-9,-11],[-24,-65],[-8,-4],[-13,-5]],[[6990,2174],[-10,0],[-7,3],[-10,6],[-6,3],[-4,9],[-45,64],[-4,3],[-12,6],[-13,1],[-12,-5],[-5,-3],[-24,-23],[-9,-5],[-8,0],[-20,9],[-14,2],[-8,0],[-13,-5],[-8,-3],[-16,-14],[-10,-4],[-5,-1],[-24,0],[-10,-1],[-23,-9],[-17,-6],[-12,0],[-10,4],[-9,6],[-3,5],[-5,9],[0,7],[4,10],[5,6],[15,11]],[[6819,603],[0,0]],[[7175,1301],[-5,8],[-5,4],[-6,1],[-25,0],[-17,-1],[-19,-2],[-37,-7],[-18,-6],[-17,-5],[-31,-13],[-5,-1],[-13,1],[-11,4],[-8,13],[-5,2],[-12,-2],[-6,0],[-7,2],[-3,5],[0,6],[-7,8],[-5,4],[-8,0],[-10,0],[-4,0],[0,7],[34,17],[16,10],[3,8],[-4,11],[3,10],[4,3],[7,11],[3,14],[-1,15],[-2,8],[-6,7],[-26,3],[-13,3],[-10,-2],[-4,-3],[-23,-29],[-12,-3],[-10,3],[-13,1],[-10,-1],[-30,-21],[-5,-3],[-4,5],[2,19],[-1,18],[-2,13],[-8,4],[-15,7],[-16,3],[-19,0],[-10,1],[-16,5],[-7,5],[-15,12],[-2,7],[1,6],[3,6],[-3,7],[0,3],[13,14],[20,15],[20,12],[15,7],[9,6],[12,7],[22,5],[17,3],[7,7],[2,7],[0,11],[7,12],[3,6],[10,7],[7,4],[13,3],[15,0],[5,1],[11,8],[7,10],[6,7],[23,17],[16,10],[23,12],[3,3],[7,9]],[[6800,2048],[23,9],[46,16],[47,12],[38,8]],[[7364,2928],[-7,2],[-8,1],[-8,-2],[-90,-46],[-14,-8],[-9,-9],[-49,-40],[-26,-21],[-15,-17],[-14,-20],[-8,-18],[-49,-85],[-7,-7],[-9,-7],[-7,-2],[-14,-11],[-73,-53],[-21,-20],[-18,-20],[-11,-2],[-4,3],[-6,7],[4,22],[7,28],[13,30],[31,48],[12,26],[7,21],[-3,10],[-4,9],[-9,5],[-10,4],[-21,4],[-39,3],[-36,1],[-6,1],[-6,5],[-4,7],[1,12],[9,9],[4,2],[19,16],[6,5],[2,8],[0,8],[-2,4],[3,12],[3,3],[10,3],[17,-1],[8,3],[9,8],[26,30],[4,10],[0,17],[2,12],[8,9],[4,5],[11,16],[6,13],[0,15],[-4,15],[-6,15],[-7,5],[-5,1],[-10,-1],[-30,1],[-25,6],[-19,8],[-12,2],[-5,-1],[-5,2],[-6,9],[15,25],[0,11],[-8,9],[-35,15],[-8,11],[-3,8],[1,9],[8,11],[14,21],[5,17],[2,10],[9,20],[13,21],[23,25],[23,14],[7,9],[0,7],[-2,7],[-8,3],[-22,0]],[[6819,603],[8,7],[10,12],[8,6],[14,5],[73,19],[12,0],[22,-6],[15,0],[50,5],[11,4],[12,8],[94,61],[11,7],[13,6],[20,3],[17,7],[9,5],[15,11],[11,14],[3,9],[10,12],[18,14],[7,7],[6,17],[7,8],[10,8],[10,4],[29,-1],[18,2],[18,5],[7,4],[16,9],[20,16]],[[7098,3512],[-31,-5],[-6,-7],[1,-6],[12,-16],[7,-8],[8,-19],[2,-13],[-3,-9],[-6,-3],[-23,-1],[-17,-2],[-9,-3],[-14,-9],[-10,-11],[-14,-9],[-18,-6],[-9,-5],[-5,-7],[-5,-10],[0,-5],[-6,-13],[-9,-10],[-6,-4],[-12,-8],[-42,-12]],[[7402,941],[-32,-15],[-15,1],[-9,4],[-11,19],[-19,36],[-7,3],[-6,-4],[-7,-12],[-8,-6],[-10,-2],[-21,1],[-12,-3],[-6,-4],[-8,-8],[-10,-26],[-5,-15],[-18,-24],[-9,-10],[-3,0],[-24,28],[-13,13],[-12,1],[-10,-1],[-20,-10],[-15,-7],[-25,-21],[-14,-11],[-13,-14],[-8,-12],[-3,-19],[-6,-4],[-13,7],[-7,2],[-12,0],[-8,-1],[-12,-7],[-13,-9],[-5,-5],[-15,-4],[-16,-1],[-5,5],[15,17],[2,5],[2,6],[8,13],[6,6],[14,11],[9,12],[3,11],[1,9],[6,25],[11,25],[15,22],[17,20],[23,18],[0,5],[-7,7],[-92,18],[-28,3],[-13,5],[-8,2],[-3,5],[5,5],[12,4],[29,16],[32,13],[26,7],[10,11],[11,7],[111,36]],[[7134,1150],[-11,2],[-12,-5],[-19,-2],[-34,0],[-15,0],[-29,-3],[29,14],[11,3],[24,4],[23,3],[15,5],[12,11],[11,13],[13,10],[33,12],[3,4],[-1,4],[-5,5],[-10,4],[-3,8],[1,17],[0,17],[2,5],[7,4],[-4,16]],[[6996,4031],[16,10],[71,52],[24,26],[13,27],[-4,34],[-17,53],[-12,25],[-9,19],[-63,107]],[[6954,2093],[-33,38],[-2,2],[4,4],[17,-3],[12,0],[21,6],[17,7],[3,6],[0,6],[-3,15]],[[7364,2928],[8,5],[2,5],[-1,9],[-3,5],[-12,3],[-6,0],[-107,-42],[-17,-8],[-30,-16],[-28,-21],[-17,-14],[-13,-12],[-22,-26],[-26,-36],[-13,-13],[-9,-5],[-5,2],[-1,3],[1,12],[-3,11],[-8,11],[1,5],[12,9],[6,8],[6,10],[2,23],[2,9],[8,15],[12,22],[23,52],[4,3],[2,5],[-1,5],[2,4],[6,5],[6,8],[7,19],[3,8],[1,23],[4,13],[6,9],[1,7],[-2,6],[-6,5],[-7,3],[-7,0],[-51,-18],[-3,-3],[-12,1],[-8,8],[0,4],[1,12],[-7,4],[-90,1],[-3,4],[0,4],[15,21],[0,5],[-3,4],[-46,17],[-3,9],[1,6],[8,6],[33,39],[2,7],[-5,9],[2,11],[5,4],[14,10],[8,8],[6,12],[2,18],[3,5],[7,6],[10,11],[11,21],[8,17],[2,13],[8,14],[10,10],[18,12],[7,2],[15,0],[6,3],[8,6],[6,13],[11,13],[4,7],[1,6],[-3,8],[-33,37],[-6,12],[-3,10],[-3,6]],[[7129,1680],[-2,5],[-1,8],[3,11],[33,50],[0,4],[-3,5],[-23,-6],[-25,-9],[-30,-16],[-17,-5],[-15,-1],[-9,0],[-18,3],[-15,1],[-20,-5],[-14,-10]],[[7089,4356],[12,-17]],[[7249,1192],[-4,-9],[-14,-13],[-14,-11],[-13,-6],[-4,-5],[-8,-18],[-9,-11],[-17,-14],[-7,-5],[-8,-1],[-11,1],[-6,-1],[-5,-3],[-23,-2],[2,-4],[13,-3],[12,2],[8,-3],[17,-6],[13,-2],[18,1],[9,4],[7,11],[3,-2],[-7,-14],[-10,-10],[-21,-12],[-1,-4],[13,-7],[6,-1],[13,1],[13,6],[12,7],[7,2],[15,1],[5,1],[55,28],[10,3],[14,-1],[5,2],[10,10],[11,7],[58,21],[15,1],[13,-5],[7,-8],[3,-8],[1,-10],[5,-13],[8,-13],[-3,-5],[-15,11],[-8,11],[-8,3],[-8,2],[-7,0],[-14,-4],[-10,-9],[-8,-11],[-3,-12],[4,-24],[7,23],[5,7],[5,3],[8,1],[4,-3],[5,-23],[1,-12],[-1,-18],[-6,-19],[-6,-18],[-7,-9],[-3,-15],[0,-10],[2,-4]],[[7134,1150],[6,-7],[6,-2],[12,1],[8,6],[9,20],[3,3],[5,1],[15,-1],[13,1],[10,4],[16,12],[12,4]],[[7676,1646],[-21,-8],[-8,-2],[-19,-1],[-22,1],[-15,-3],[-11,-7],[-13,-13],[-10,-7],[-33,-9],[-15,1],[-10,4],[-15,4],[-14,3],[-22,-5],[-14,-6],[-9,-7],[-63,-58],[-55,-59],[-11,-30],[-9,-33],[-8,-20],[-12,-17],[-7,-7],[-13,-12],[-28,-23],[-14,-11],[-30,-20]],[[7446,1883],[-35,-11],[-14,-3],[-25,-3],[-27,0],[-13,0],[-26,-4],[-37,-9],[-22,-1],[-25,1],[-11,1],[-22,8],[-10,5],[-1,5],[3,10],[6,4],[20,2],[18,4],[15,7],[14,10],[42,41],[4,8],[2,11],[-2,10],[3,3],[5,3],[6,-1],[11,-6],[14,-1],[7,2],[22,12],[14,11],[6,6],[7,12],[8,18],[2,18],[-1,13],[8,9],[11,3],[13,4],[12,9],[8,10],[7,13],[9,11],[12,8],[10,6],[7,4],[6,7],[1,5],[6,8],[7,2],[12,1],[7,1],[3,4],[11,14],[46,37],[-1,8],[-40,13],[-28,3],[-26,6],[-17,5],[-3,2],[3,5],[26,10],[23,16],[7,7],[5,7],[4,13],[0,14],[-2,14],[16,33],[1,4],[-5,11],[-21,15],[-2,5],[2,7],[15,13],[6,13],[4,8],[0,4]],[[7181,2249],[15,5],[94,41],[17,10],[9,6],[18,18],[7,5],[26,13],[27,20],[8,6],[11,8],[16,6],[64,35],[43,19],[31,20]],[[7446,1883],[-11,-11],[-20,-7],[-29,-16],[-64,-31],[-26,-10],[-35,-9],[-66,-14],[-10,-5]],[[7567,2461],[-4,4],[-3,0],[-16,-4],[-16,-2],[-17,2],[-8,1],[-18,10],[-4,-2],[-13,-22],[-6,-7],[-8,-5],[-5,-1],[-13,-1],[-11,2],[-10,7],[-13,4],[-8,1],[-14,-2],[-22,-9],[-24,-2],[-19,-4],[-15,-5],[-5,0],[-6,2],[-7,7],[-12,5],[-16,4],[-5,3],[-2,4],[1,82],[-1,4],[-7,3],[-12,0],[-8,-2],[-6,-3],[-14,-13],[-3,7],[-8,8],[-1,4],[1,6],[11,7],[4,6],[15,41],[14,25],[2,12],[-2,21],[1,8],[3,5],[10,31],[-11,22],[-7,15],[-1,11],[2,3],[11,9],[28,40],[7,3],[12,4],[18,7],[19,16],[8,4],[12,1],[7,2],[10,5],[6,9],[4,11],[0,11],[-8,16],[-1,22],[1,14]],[[7676,1646],[-8,-13],[1,-7],[-2,-12],[-4,-4],[-7,-5],[-28,-20],[-18,-17],[-11,-14],[-12,-13],[-31,-20],[-19,-19],[-17,-11],[-3,-4],[-4,-8],[-3,-4],[-9,-2],[-10,1],[-6,-1],[-5,-7],[-4,-6],[-4,-8],[-4,-3],[-13,-4],[-3,-7],[0,-4],[-3,-8],[-6,-8],[-2,-9],[8,-13],[1,-10],[-5,-4],[-54,-76],[-9,-7],[-9,-2],[-9,0],[-48,7],[-4,0],[-9,-6],[-6,-6],[-5,-6],[-18,-5],[0,-8],[-4,-5],[-7,-9],[-3,-4],[1,-6],[6,-6],[1,-7],[0,-6],[-19,-38]],[[7303,4045],[-38,58],[-1,9],[3,7]],[[7833,561],[-42,-50],[-7,-14],[-3,-15],[1,-38],[-1,-8],[-6,-7],[-9,-5],[-20,-2],[-11,-7],[-5,-4],[-2,-7],[-10,-10],[-4,-1],[-5,3],[-12,40],[-3,7],[-5,3],[-9,3],[-38,-1],[-4,3],[3,19],[1,30],[-3,32],[-2,15],[-8,20],[-4,4],[-6,0],[-65,-46],[-25,-15],[-16,-11],[-19,-16],[-4,-1],[-5,2],[-2,3],[12,48],[9,42],[1,10],[6,11],[6,6],[3,8],[-1,10],[-5,8],[-13,11],[0,6],[0,12],[-4,10],[-5,6],[-7,4],[-2,6],[5,4],[16,2],[-1,4],[-22,4],[-23,-2],[-12,-3],[-10,-4],[-5,0],[-18,4],[-13,0],[-8,-2],[-19,-1],[-15,3],[-3,4],[1,4],[6,3],[9,13],[3,5],[20,8],[4,5],[9,17],[6,5],[8,6],[13,1],[7,3],[5,7],[4,6],[-1,9],[-7,12],[-2,4],[-1,22],[-6,21],[-7,16],[-2,7],[-1,19]],[[7423,891],[0,4],[-2,10],[1,7],[10,30],[5,6],[8,5],[9,2],[9,-1],[9,-4],[4,1],[3,4],[-1,3],[-26,11],[-7,1],[-10,-4],[-9,-11],[-13,-10],[-11,-4]],[[7941,2888],[0,20],[-7,17],[-10,13],[-12,10],[-16,8],[-15,6],[-8,1],[-75,-6],[-7,-1],[-24,2],[-13,7],[-8,4],[-12,2],[-9,-2],[-67,-9],[-17,-5],[-14,-12],[-67,-91],[-58,-103],[-1,-7],[-6,-4],[-13,-4],[-11,-6],[-9,-6],[-8,-10],[-2,-10],[-8,-9],[-5,-2],[-9,-1],[-8,3],[-7,5],[-2,5],[-1,9],[5,18],[-2,9],[-4,6],[-7,6],[-8,2],[-16,2],[-9,8],[-3,11],[13,29],[12,22],[7,4],[3,9],[2,10],[-2,16],[-2,12],[-8,13],[-20,18],[-6,10],[-3,11]],[[7676,1646],[11,5],[35,18],[40,22],[38,25],[-5,4],[-17,-6],[-15,2],[-9,11],[-1,6],[1,8],[-6,8],[-15,7],[-16,11],[-10,5],[-10,1],[-10,-4],[-16,-7],[-10,-4],[-16,0],[-9,-2],[-29,-16],[-7,0],[-2,4],[4,10],[5,14],[2,15],[-1,10],[-8,9],[-15,3],[-15,2],[-12,-1],[-7,-3],[-27,-1],[-14,-6],[-20,-8],[-28,-6],[-47,-1],[-41,-3],[-3,5],[1,6],[22,18],[1,5],[8,6],[16,13],[17,22],[16,17],[1,7],[-2,4],[-5,2]],[[7423,891],[87,47],[19,4],[23,8],[18,9],[15,14],[7,7],[66,38],[12,11],[11,13],[8,14],[6,24],[-1,14],[-6,18],[1,13],[6,12],[8,10],[11,9],[6,2],[17,3],[14,6],[10,7],[7,10],[5,13],[0,12],[-17,50],[-2,13],[0,7],[3,11],[16,30],[18,27],[21,25],[16,17],[14,9],[17,9],[7,4],[15,13],[13,22],[10,11],[14,7],[13,7],[10,1],[16,5],[13,9],[11,11],[11,19],[5,16]],[[7567,2461],[11,10],[21,19],[27,29],[6,6],[26,35],[9,4],[9,2],[24,1],[26,5],[37,7],[18,8],[19,9],[18,13],[9,6],[18,12],[20,9],[17,3],[2,4],[-1,6],[-4,2]],[[7833,561],[-3,9],[-2,7],[5,12],[37,61],[7,24],[5,28],[-1,13],[1,5],[9,11],[2,9],[3,43],[-1,6],[6,7],[3,4],[8,2],[8,5],[1,5],[0,11],[-3,15],[-5,11],[-8,1],[-14,-19],[-10,-7],[-7,-4],[-3,-4],[-19,-37],[-1,-14],[-38,-35],[-3,-7],[-17,-13],[-12,-17],[-6,2],[2,17],[14,33],[4,21],[0,11],[-8,16],[-3,3],[-6,2],[-13,-4],[-13,-2],[-23,1],[-13,6],[-1,4],[1,3],[63,19],[6,1],[7,4],[5,8],[11,21],[16,23],[18,22],[21,21],[23,17],[23,12],[30,13],[12,11],[11,12]],[[8145,423],[-5,-4],[-3,-11],[0,-19],[-8,-15],[-4,-1],[-8,1],[-4,4],[-5,20],[-2,8],[-9,13],[-17,13],[-3,4],[-7,13],[-3,-1],[1,-15],[10,-19],[1,-15],[-1,-15],[-2,-9],[-7,-6],[-5,3],[3,11],[-1,4],[-26,41],[-10,5],[-26,-4],[-3,5],[0,9],[3,18],[-1,4],[-3,6],[-7,3],[-13,0],[-3,5],[10,25],[-1,6],[-5,2],[-17,3],[-17,9],[-22,13],[-16,8],[-19,4],[-17,1],[-6,1],[-16,10],[-6,1],[-12,-1]],[[7990,2843],[-6,10],[-6,8],[-10,5],[-17,2],[-9,8],[-1,5],[0,7]],[[8126,2796],[-23,15],[-26,23],[-18,14],[-29,18],[-23,12],[-14,2],[-34,3],[-18,5]],[[7974,2781],[2,6],[-6,9],[0,11],[8,9],[2,4],[10,23]],[[7998,1004],[3,-9],[1,-7],[-3,-17],[-5,-7],[-6,-8],[-1,-6],[12,-21],[3,-12],[10,-15],[3,-10],[0,-14],[3,-12],[4,-13],[0,-13],[3,-7],[13,-30],[1,-5],[-1,-6],[-1,-11],[2,-20],[6,-21],[10,-21],[1,-17],[3,-12],[5,-4],[1,-11],[-5,-10],[0,-4],[7,-8],[-2,-9],[5,-17],[4,-13],[-4,-19],[1,-10],[7,-38],[8,-18],[21,-29],[4,-12],[9,-15]],[[7990,2843],[6,-2],[11,-10],[6,-11]],[[8120,473],[1,19],[-1,20],[-3,17],[4,5],[6,0],[4,-5],[13,-38],[2,24],[3,7],[6,4],[23,13],[11,6],[30,4],[16,4],[22,13],[9,4],[11,2],[19,-4],[16,2],[31,5],[3,5],[0,7],[-43,25],[-3,3],[-3,11],[6,9],[39,29],[8,5],[2,9],[0,6],[-60,23],[-6,5],[-1,3],[2,4],[8,3],[35,4],[14,3],[27,2],[10,4],[26,14],[2,8],[-6,10],[3,6],[7,7],[3,5],[25,16],[11,13],[23,15],[5,1],[4,3],[-3,5],[-6,3],[-16,2],[-6,6],[-21,5],[-87,1],[-3,2],[-2,6],[2,4],[107,19],[3,4],[1,5],[-5,8],[-38,3],[-10,7],[-2,5],[0,12],[9,9],[30,12],[21,4],[30,1],[23,-1],[11,-1]],[[8120,473],[1,-20],[6,-9],[12,-8],[11,0],[3,-5],[-8,-8]],[[8675,905],[-2,-4],[1,-9],[1,-5],[7,-9],[2,-13],[-1,-12],[-8,-12],[-9,-10],[-2,-7],[0,-20],[3,-17],[-2,-9],[-9,-7],[-25,2],[-33,5],[-19,7],[-16,0],[-8,-2],[-17,-5],[-16,-13],[-3,-5],[1,-5],[11,-13],[17,-16],[3,-6],[3,-13],[-4,-10],[-19,-18],[-24,-15],[-5,-5],[0,-7],[4,-4],[22,-17],[26,-10],[26,-8],[4,-3],[2,-15],[10,-21],[-10,-10],[-16,-5],[-14,-4],[-13,-6],[-25,-12],[-13,-5],[-27,-7],[-28,-1],[-5,-3],[-12,-9],[-24,-3],[-10,-6],[-6,-1],[-18,7],[-6,1],[-45,1],[-12,-3],[-33,-21],[-5,-11],[1,-4],[28,-35],[0,-9],[-13,-12],[-23,-14],[-22,-9],[-4,-7],[-3,-5],[2,-15],[5,-21],[-10,3],[-14,12],[-14,13],[-3,8],[-7,17],[-2,21],[-4,4],[-5,-1],[-9,-23],[-4,-26],[0,-14],[-3,-4],[-6,1],[-5,5],[-1,10],[-11,31],[-1,9],[-1,12]],[[8522,954],[3,5],[0,7],[-3,5],[-30,38],[-24,35],[-15,12],[-7,5],[-26,31],[-12,15],[-16,39],[-5,21],[-6,19],[-3,21],[-5,32],[-1,33],[2,41],[-3,8],[-32,42],[-1,10],[1,5],[3,7],[7,4],[6,2],[8,0],[8,-2],[6,-4],[23,-28],[14,-15],[6,-10],[13,-3],[8,4],[4,7],[-5,38],[0,9],[3,16],[6,17],[16,23],[1,7],[-3,8],[-17,69],[-3,10],[-2,29],[-4,39],[-8,14]],[[8363,1615],[6,29],[2,21],[6,30],[0,7],[-3,15],[-10,22],[-3,13],[0,13],[2,8],[8,17],[7,18],[3,17],[0,8],[4,17],[16,36],[11,18],[16,17],[9,9],[16,12],[10,12],[8,14],[67,114],[15,48],[14,47],[3,7],[5,17],[1,19],[-1,8],[-6,16],[-2,18],[-2,18]],[[9591,990],[-12,-4],[-10,0],[-14,6],[-5,5],[-5,9],[0,9],[7,12],[18,45],[3,19],[0,4],[-4,12],[-11,9],[-11,3],[-28,-3],[-23,-7],[-20,-6],[-9,-1],[-8,3],[-10,7],[-3,11],[0,5],[10,18],[10,19],[12,18],[10,13],[7,22],[2,7],[1,10],[-3,7],[-6,7],[-12,11],[-31,24],[-19,13],[-30,26],[-10,7],[-13,1],[-13,-2],[-21,-11],[-15,-5],[-34,1],[-12,0],[-10,1],[-12,7],[-8,9],[-7,12],[-2,8],[-9,14],[-6,9],[-7,8],[-19,6],[-6,5],[-8,8],[-3,10],[-9,9],[-6,3],[-13,3],[-20,-3],[-14,4],[-5,2],[-7,7],[-4,10],[0,10],[3,7],[10,13],[5,12],[0,9],[-4,7],[-8,9],[-12,4],[-12,2],[-5,-2],[-24,-12],[-21,-6],[-17,-3],[-11,2],[-7,6],[-3,7],[0,26],[-1,15],[-3,27],[-27,38],[-7,8],[-5,3],[-13,5],[-14,0],[-11,-5],[-44,-26],[-13,-3],[-16,3],[-7,6],[-7,7],[-12,38],[-8,11],[-7,4],[-12,8],[-15,3],[-14,-1],[-17,-4],[-15,-11],[-72,-37],[-11,-3],[-12,2],[-14,9],[-8,9],[-11,20],[-15,12],[-4,2],[-14,-1],[-36,-15],[-7,-1],[-15,0],[-20,5],[-12,1],[-12,-3],[-7,-3],[-9,-9],[-5,-14],[-8,-11],[-9,-7]],[[8791,553],[-3,11],[-4,37],[-2,7],[0,6],[8,14],[1,12],[0,12],[-10,11],[-19,13],[-20,9],[-6,4],[-7,9],[-5,12],[0,12],[16,52],[-1,5],[-4,7],[-9,6],[-5,8],[-5,9],[-2,9],[3,22],[0,7],[-3,17],[-7,15],[-11,13],[-13,10],[-8,3]],[[8675,905],[-18,10],[-36,15],[-39,12],[-39,9],[-21,3]],[[9963,1192],[-5,2],[-4,6],[-3,9],[-13,16],[-17,11],[-23,12],[-9,7],[-34,29],[-12,16],[-55,49],[-4,4],[-11,6],[-20,1],[-10,4],[-10,21],[-6,9],[-29,19],[-23,13],[-71,50],[-8,7],[-21,11],[-11,5],[-8,4],[-25,33],[-19,17],[-29,21],[-9,9],[-27,23],[-21,24],[-11,9],[-8,11],[-9,3],[-10,2],[-21,-2],[-9,9],[-1,5],[-2,17],[-5,17],[-7,9],[-8,6],[-20,11],[-6,2],[-19,3],[-20,13],[-42,43],[-5,2],[-18,8],[-6,8],[2,9],[-2,19],[-3,5],[-6,5],[-50,24],[-16,11],[-18,18],[-41,41],[-7,7],[-12,8],[-4,7],[-2,23],[-4,9],[-9,9],[-8,3],[-13,-1],[-17,-6],[-20,23],[-4,41],[-4,5],[-5,3],[-14,2],[-6,3],[-78,63],[-6,6],[-5,2],[-7,1],[-8,-1],[-49,-22],[-4,-1],[-9,3],[-6,7],[-1,10],[-4,8],[-8,8],[-5,1],[-10,11],[-7,11],[-10,9],[-21,15],[-13,16],[-7,7],[-27,9],[-18,8],[-18,8],[-32,19],[-9,10],[-6,2],[-3,-4]],[[8909,618],[-7,0],[-3,5],[-2,4],[1,12],[7,9],[53,46],[0,6],[-6,6],[-10,1],[-13,8],[-11,1],[-6,-1],[-12,-4],[-4,-1],[-13,3],[-11,-1],[-12,2],[-11,-1],[-9,-6],[-10,-9],[-10,-5],[-9,0],[-14,6],[-6,6],[-6,15],[0,11],[5,14],[29,58],[2,4],[11,8],[2,3],[-4,11],[0,12],[4,12],[7,11],[-1,5],[-10,5],[-35,-17],[-13,-3],[-9,0],[-13,4],[-7,4],[-10,7],[-6,7],[-4,7],[-9,9],[-24,14],[-10,2],[-12,-1],[-3,-2]],[[8983,2116],[-37,71]],[[2497,6917],[-2,3]],[[2495,6920],[-141,289],[1628,854]],[[4115,7841],[-78,-38],[-6,11],[-114,-54],[7,-11],[-332,-161],[156,-270]],[[3748,7318],[167,-292],[41,-72]],[[3956,6954],[48,26],[162,80]],[[4203,7080],[1,0],[178,90],[69,-116]],[[4451,7054],[83,42]],[[4567,7114],[86,-150],[-250,-138]],[[4403,6826],[-55,-27],[-4,3],[-750,-379],[-866,14],[-95,199]],[[7910,331],[-1,-61],[-7,-201]],[[7387,324],[-23,0]],[[6817,395],[0,16],[4,358],[0,34]],[[6821,872],[4,286],[1,130]],[[6826,1288],[-633,589],[-394,369],[-1,0]],[[5771,2173],[-103,-112],[-14,21]],[[5654,2284],[-53,0]],[[5537,2231],[-23,-20],[-19,-15]],[[5370,2104],[0,1],[-22,30]],[[5321,2167],[0,222],[-28,1]],[[5293,2390],[-171,5],[-21,25],[-6,89],[8,51],[-17,0],[1,-165]],[[5087,2395],[-216,4],[-100,3]],[[4771,2402],[-85,-100]],[[4673,2305],[82,97]],[[4755,2402],[-187,6],[-46,1]],[[4522,2409],[-2,171],[0,81]],[[4520,2727],[-1,38],[-2,172],[-3,157]],[[4061,4028],[-20,-11],[-27,-13]],[[4014,4004],[-122,-140]],[[3892,3864],[-69,37],[-66,-99],[-281,152]],[[3493,3982],[9,19]],[[3502,4001],[7,18]],[[3512,4250],[154,-1],[16,0]],[[3682,4249],[-1,10],[-2,49]],[[3664,4420],[0,97]],[[3677,4523],[-1,1],[-6,33]],[[3664,4575],[-4,16],[0,1]],[[3660,4592],[-13,25]],[[3647,4617],[-108,-55],[-8,-2]],[[3531,4560],[-35,53],[-12,18]],[[3452,4684],[36,18],[41,21]],[[3529,4723],[-74,87],[-59,67]],[[3396,4877],[-48,-69]],[[3348,4808],[-19,23],[-122,145],[-32,35]],[[3180,5015],[-15,16],[-36,45]],[[3129,5076],[6,3]],[[3135,5079],[-1,14],[-2,51],[0,12]],[[3131,5203],[-1,28],[-47,26]],[[3083,5257],[9,13],[-3,12],[-31,22],[-47,68],[2,17],[27,37],[11,32],[5,109],[10,33],[126,177],[20,10],[85,4],[18,-10],[22,-34],[24,-10],[26,7],[66,54],[29,13],[27,-4],[3,19],[59,87],[26,19],[65,35],[28,27],[15,36],[11,97],[26,33],[35,12],[79,-3],[19,-15],[67,-105],[25,-15],[37,-3],[70,8],[43,-5],[9,-7],[-16,-54],[18,-71],[-18,-141],[5,-13],[27,-14],[26,9],[94,124],[3,29],[36,53],[95,100],[22,-1],[28,-44],[29,-4],[-4,-56],[18,3],[4,66],[15,52]],[[4700,6088],[10,-17],[6,-40],[11,-8],[15,4]],[[4742,6027],[100,-164],[1,-1]],[[4869,5859],[10,2],[-3,-26],[46,-23],[16,1],[11,11],[-1,16],[-17,13],[38,58],[2,26],[-21,27],[-59,12],[-3,4],[43,26],[48,53],[55,11],[30,-3]],[[5064,6067],[-62,-32]],[[5002,6035],[10,-17]],[[5012,6018],[69,36]],[[5096,6060],[7,-2],[11,-13],[12,-51],[4,-3]],[[5169,5922],[4,2],[12,-5],[43,18]],[[5335,5880],[3,-2],[13,-34],[49,29],[18,8]],[[5419,5883],[-15,16]],[[5348,5958],[-7,7],[69,-21]],[[5410,5944],[33,-26],[2,-1]],[[5516,5883],[-26,-29]],[[5506,5849],[9,-4],[22,-8]],[[5564,5869],[101,-54]],[[5665,5815],[-40,-22]],[[5624,5793],[-224,-117],[-69,-35]],[[5330,5640],[52,-82]],[[5382,5558],[-18,-10]],[[5274,5613],[-42,-24],[-4,-1]],[[5228,5588],[-10,-4],[107,-169],[-1,0]],[[5279,5398],[50,-78]],[[5329,5320],[-30,-35]],[[5299,5285],[-18,12],[-28,-9],[-10,-12],[-42,-10],[-44,68],[-10,-5]],[[5147,5329],[-2,-3],[-38,-18],[-51,-27]],[[5056,5281],[-49,78],[-51,1],[-25,-80],[10,-17],[-34,-14],[-25,26],[-51,-12],[77,-119]],[[4934,5101],[8,0],[5,-7],[79,1],[53,14],[49,33],[29,11],[79,17],[29,-47],[-177,-92],[65,-94],[84,-24],[26,39],[52,38],[16,24],[1,17],[97,50],[28,-43]],[[5497,5058],[30,-47],[46,56]],[[5562,5083],[-32,50],[84,44],[127,-200]],[[5787,5001],[-25,38],[-29,44]],[[5733,5083],[38,20],[52,-84],[56,29]],[[5879,5048],[-76,118]],[[5803,5166],[-15,26],[-21,32]],[[5767,5224],[-15,23]],[[5752,5247],[37,21],[127,-200],[19,9],[-96,149]],[[5839,5226],[41,22],[32,16]],[[5912,5264],[95,-148],[19,8],[-127,200],[93,48],[-14,21]],[[6016,5411],[-9,13]],[[6007,5424],[20,12],[12,5]],[[6039,5441],[19,-20],[0,-1]],[[6058,5420],[7,3]],[[6151,5304],[12,-10]],[[6191,5273],[10,-19],[13,-33]],[[6214,5221],[27,-14],[86,-50]],[[6327,5157],[14,9]],[[6476,4975],[31,-47]],[[6507,4928],[1,-52]],[[6520,4866],[10,3]],[[6530,4869],[4,-2]],[[6563,4867],[25,8]],[[6588,4875],[14,-14]],[[6602,4861],[30,-28]],[[6632,4833],[3,-2],[27,-25]],[[6678,4792],[-30,-27]],[[6648,4765],[13,-13],[0,-1]],[[6689,4722],[8,-10],[32,-36]],[[6743,4663],[13,10],[18,16]],[[6774,4689],[16,-14],[14,-13]],[[6804,4662],[-34,-29]],[[6770,4633],[37,-22]],[[6909,4488],[5,-5],[20,-39],[3,-8]],[[6947,4420],[21,-40],[8,-13]],[[6976,4367],[1,-3],[38,18],[28,-52],[6,1]],[[7090,4356],[58,-77],[1,-2]],[[7149,4277],[1,-2],[432,-579]],[[7582,3696],[28,-42],[1,-2]],[[7611,3652],[-9,-3],[-16,-7],[-30,-12]],[[7621,3636],[37,-69],[0,-2]],[[7640,3560],[-32,-13]],[[7608,3547],[10,-18]],[[7618,3529],[3,-5],[11,-17],[6,-11]],[[7638,3496],[11,-17]],[[7649,3479],[41,16],[4,2]],[[7694,3497],[1,-1],[41,-70],[29,-33],[0,-2]],[[7765,3391],[-18,-15],[-1,-1]],[[7746,3375],[-13,-12]],[[7733,3363],[24,-30],[1,0]],[[7792,3361],[13,-14]],[[7815,3335],[19,-16],[0,0]],[[7796,3286],[73,-103],[33,-49]],[[7902,3134],[76,-65],[-36,-33],[29,-25],[7,-5]],[[8011,2977],[11,-9],[30,-27],[10,-9]],[[8062,2932],[-4,-3],[-46,-42]],[[8031,2874],[20,-13]],[[8097,2903],[9,-9],[13,-11],[8,-6]],[[8188,2853],[-68,-62],[27,-18],[8,-7],[64,-64]],[[8342,2425],[-4,-61],[-6,-81],[-2,-24]],[[8329,2156],[91,211],[21,46]],[[8441,2413],[27,-7],[14,-5]],[[8482,2401],[10,63]],[[8472,2485],[61,26],[18,8]],[[8551,2519],[140,-131]],[[8691,2388],[10,10],[15,13]],[[8788,2339],[-32,-27]],[[8857,2213],[31,26]],[[8888,2239],[54,-55]],[[8974,2210],[69,-73]],[[9043,2137],[-25,-19],[-8,-7]],[[9026,2057],[156,-155]],[[9182,1902],[151,-152]],[[9333,1750],[14,-13]],[[9347,1737],[22,-23]],[[9584,1676],[36,-26],[21,-15]],[[9730,1585],[22,-10],[9,-5],[-1,-3]],[[9760,1566],[47,-20],[53,-30]],[[9790,1424],[67,-53],[2,-2],[140,-161],[-25,-11]],[[7035,4103],[55,-9],[10,14],[7,14],[3,14],[-29,-2],[-42,-1],[0,-15],[-4,-15]],[[6797,4498],[7,-13],[38,16],[12,6],[-19,33],[-38,-42]],[[6534,4728],[17,-12],[14,-12],[35,-26],[22,15],[-43,72],[-28,-24],[-17,-13]],[[7014,4296],[9,-17],[39,16],[-10,17],[-38,-16]],[[3025,5272],[-4,-1]],[[2818,5322],[-28,8],[-51,17]],[[2739,5347],[-72,51]],[[2667,5398],[64,33],[6,3]],[[2801,5466],[-17,20],[-72,86],[-21,26]],[[2691,5598],[-38,43],[-98,115]],[[2454,6080],[-6,-9]],[[2422,5993],[3,-16],[0,-12]],[[2425,5965],[-6,-5]],[[2399,5947],[-4,-5],[-13,-9]],[[2382,5933],[-24,35],[-1,2]],[[2300,5993],[-51,-13],[-12,-2]],[[2237,5978],[-2,0]],[[1987,6132],[-20,32],[-1,3]],[[1966,6167],[-14,18],[-4,10]],[[1948,6195],[-16,24],[-12,17]],[[1910,6254],[-6,7]],[[1904,6261],[13,7],[122,63],[0,1],[135,68]],[[2174,6400],[133,-206]],[[2318,6187],[7,9]],[[2325,6196],[33,14]],[[2358,6210],[66,0]],[[2444,6212],[5,1]],[[2633,6284],[0,10]],[[2633,6294],[-9,57],[1,9]],[[2595,6446],[-2,5]],[[2593,6451],[-28,122],[-7,25]],[[4459,6715],[2,-2],[-2,-8],[13,-24],[40,-16],[14,-14],[-6,-65],[12,-27],[34,-19],[2,-12],[19,-7]],[[4587,6521],[-26,-17],[-24,9],[-453,-273],[-78,-59],[-43,-62],[-14,-39]],[[3949,6080],[-53,87],[-29,23],[-21,5],[-60,0],[-50,-12],[-25,-16],[-21,-34],[-12,-107],[-14,-25],[-99,-60],[-36,-40],[-34,-58],[-74,-37],[-52,-44],[-14,2],[-25,36],[-32,15],[-90,-5],[-30,-15],[-117,-157],[-27,-53],[-10,-131],[-32,-51],[-7,-26],[4,-22],[45,-59],[1,-14],[-10,-10]],[[2495,6920],[-4,6]],[[2240,6793],[-548,-286],[-188,-98],[-33,-17]],[[1471,6392],[310,546],[12,21]],[[1794,6960],[-12,0],[-37,-1]],[[1677,6960],[-408,0],[-23,2]],[[937,6750],[77,144],[36,68]],[[1050,6962],[-41,0]],[[1009,6962],[6,15],[96,187]],[[1130,7164],[29,-16],[36,-16]],[[1195,7132],[22,36],[29,44]],[[1246,7212],[-49,24],[-85,45]],[[1126,8458],[2,43],[16,457]],[[1144,8958],[0,231],[-2,276]],[[1142,9465],[476,0]],[[2077,9999],[55,-45]],[[2132,9954],[-4,-4],[-70,-67],[-7,-9]],[[2051,9874],[4,-3],[52,-43]],[[2107,9828],[48,-39]],[[2155,9789],[9,-8],[11,-11],[10,-7]],[[2185,9763],[16,-13],[32,-26]],[[2233,9724],[47,-39],[2,-2]],[[2372,9608],[23,-19]],[[2366,9519],[33,-28]],[[2415,9478],[31,-26]],[[2446,9452],[31,-26],[23,20],[10,23],[-5,30],[95,-80],[5,-5]],[[2537,9347],[11,-6]],[[2576,9291],[52,-76],[2,-2]],[[2630,9213],[51,-16],[2,-1]],[[2683,9350],[0,15]],[[2683,9365],[-10,7],[-11,12]],[[2645,9397],[-7,4],[-24,22]],[[2614,9423],[-41,34],[-6,4]],[[2567,9461],[-15,13]],[[2552,9474],[11,11],[18,17]],[[2581,9502],[-14,11],[-38,32]],[[2561,9549],[11,10]],[[2576,9585],[28,27]],[[2604,9612],[-15,13]],[[2555,9602],[3,16]],[[2558,9618],[19,22]],[[2577,9640],[18,8]],[[2595,9648],[9,16]],[[2604,9664],[12,-18],[8,-14]],[[2624,9632],[11,-19]],[[2635,9613],[16,-13]],[[2651,9600],[19,-3],[13,-5]],[[2696,9589],[-29,-28]],[[2667,9561],[6,-4],[10,-9]],[[2683,9548],[16,-13]],[[2721,9575],[2,-3],[49,-38]],[[2898,9440],[26,-18]],[[2924,9422],[9,-8],[58,-51]],[[2991,9363],[10,-9]],[[3271,9068],[15,-15]],[[3455,8765],[-6,-3],[10,-15],[8,3]],[[3513,8700],[51,-42]],[[3620,8599],[47,-63],[32,-45]],[[3789,8385],[30,-106],[0,-1]],[[3819,8278],[162,-213],[1,-2]],[[1250,6565],[-24,53]],[[1676,6854],[13,8],[-235,-414]],[[1454,6448],[-3,5]],[[2455,9461],[36,36],[6,-27],[-8,-18],[-12,-9],[-22,18]],[[4120,7831],[20,-33],[21,-34],[-57,-27],[-43,-23],[11,-20],[40,-68],[14,-19],[40,-69],[12,-19],[39,-69],[-37,-17],[-38,-19],[-4,-16],[-12,-4],[5,-11],[1,1],[35,-58],[5,-10]],[[4120,7322],[-4,10]],[[4116,7332],[-22,33],[-4,10],[-29,-14],[-14,-5],[-22,-10],[9,-3],[-109,-55]],[[4826,6525],[1,0],[28,32],[25,-19]],[[4880,6538],[3,-2]],[[4883,6532],[0,-4]],[[4883,6528],[1,-2]],[[4885,6524],[-43,-8],[-16,9]],[[4915,6524],[10,-12]],[[4925,6512],[9,4],[23,12]],[[4966,6477],[-16,-6]],[[4950,6471],[-7,6]],[[4943,6477],[-18,24]],[[4925,6501],[-7,-6]],[[4918,6495],[5,-9],[-47,-24],[-42,4]],[[4815,6431],[2,-4],[-4,-2]],[[4813,6425],[-7,0]],[[4754,6398],[7,-8]],[[4761,6390],[19,-4]],[[4780,6386],[13,-16]],[[4793,6370],[-9,-6],[-66,-31],[-8,-11],[-17,-24]],[[4693,6298],[0,-1],[12,-21],[-8,-1]],[[4675,6264],[-87,-65],[-2,-1]],[[4551,6175],[1,-2],[-12,-8],[-47,-64],[-23,-78],[-10,0],[-21,38],[-17,11],[-25,2],[-21,-10],[-87,-88],[-140,-215],[-9,-5],[-4,8],[17,137],[-18,71],[16,41],[-1,20],[-11,16],[-21,8],[-58,4],[-50,-5]],[[4010,6056],[909,458],[-18,-2],[-16,12]],[[4885,6524],[16,0],[2,-1]],[[5722,5101],[-3,6],[-18,28],[-9,15]],[[5692,5150],[-9,12],[-23,38]],[[5660,5200],[36,20],[32,-50],[32,-51],[-38,-18]],[[4647,6491],[45,-20],[15,-9]],[[4746,6496],[1,0],[21,-17]],[[4768,6479],[48,52]],[[4825,6524],[1,1]],[[4010,6056],[-35,0],[-22,17],[-4,7]]],"transform":{"scale":[0.000009174442239124258,0.000007139720345044453],"translate":[-122.826323797854,45.5457326550271]}}