{"type":"Topology","objects":{"land":{"type":"GeometryCollection","geometries":[{"type":"Polygon","properties":{"name":"LLOYD DISTRICT/SULLIVAN'S GULCH","gid":64},"arcs":[[0]]}]},"buildings":{"type":"GeometryCollection","geometries":[{"type":"Polygon","properties":{"year_built":2001,"gid":72},"arcs":[[1,2]]},{"type":"Polygon","properties":{"year_built":1987,"gid":259},"arcs":[[3,4,5]]},{"type":"Polygon","properties":{"year_built":2001,"gid":665},"arcs":[[6],[7,8,9,10,11,-3]]},{"type":"Polygon","properties":{"year_built":2001,"gid":666},"arcs":[[12,13],[14],[15]]},{"type":"Polygon","properties":{"year_built":1987,"gid":794},"arcs":[[16]]},{"type":"Polygon","properties":{"year_built":1987,"gid":874},"arcs":[[17,18,19,-6,20,21],[-17]]},{"type":"Polygon","properties":{"year_built":1987,"gid":876},"arcs":[[-5,22,-18,23,-21]]},{"type":"Polygon","properties":{"year_built":1987,"gid":897},"arcs":[[-20,24,-4],[25]]},{"type":"Polygon","properties":{"year_built":1987,"gid":898},"arcs":[[-26],[26]]},{"type":"Polygon","properties":{"year_built":1987,"gid":899},"arcs":[[-19,-23,-25]]},{"type":"Polygon","properties":{"year_built":1987,"gid":900},"arcs":[[-27],[27]]},{"type":"Polygon","properties":{"year_built":1987,"gid":901},"arcs":[[-28]]},{"type":"Polygon","properties":{"year_built":2001,"gid":1072},"arcs":[[28,-13]]},{"type":"Polygon","properties":{"year_built":2001,"gid":1082},"arcs":[[29,-8,-2,-12]]},{"type":"Polygon","properties":{"year_built":2001,"gid":1086},"arcs":[[30,-9,-30,-11]]},{"type":"Polygon","properties":{"year_built":2001,"gid":1087},"arcs":[[-31,-10]]},{"type":"Polygon","properties":{"year_built":2001,"gid":1099},"arcs":[[-15]]},{"type":"Polygon","properties":{"year_built":2001,"gid":1159},"arcs":[[-16]]}]},"roads":{"type":"GeometryCollection","geometries":[{"type":"LineString","properties":{"highway":"proposed","gid":73916},"arcs":[31]},{"type":"LineString","properties":{"highway":"footway","gid":77547},"arcs":[32]},{"type":"LineString","properties":{"highway":"tertiary","gid":77597},"arcs":[33]},{"type":"LineString","properties":{"highway":"footway","gid":77599},"arcs":[34]},{"type":"LineString","properties":{"highway":"tertiary","gid":77600},"arcs":[35,36,37]},{"type":"LineString","properties":{"highway":"footway","gid":77603},"arcs":[38]},{"type":"LineString","properties":{"highway":"tertiary","gid":77606},"arcs":[39]},{"type":"LineString","properties":{"highway":"residential","gid":77608},"arcs":[40,41,42,43]},{"type":"LineString","properties":{"highway":"footway","gid":77628},"arcs":[44,45,46,47,48,49]},{"type":"LineString","properties":{"highway":"footway","gid":77629},"arcs":[50]},{"type":"LineString","properties":{"highway":"footway","gid":77638},"arcs":[51,52]},{"type":"LineString","properties":{"highway":"footway","gid":77639},"arcs":[53,54]},{"type":"LineString","properties":{"highway":"footway","gid":77640},"arcs":[55]},{"type":"LineString","properties":{"highway":"footway","gid":77641},"arcs":[56,57,58,59,60,61]},{"type":"LineString","properties":{"highway":"secondary","gid":77662},"arcs":[62]},{"type":"LineString","properties":{"highway":"footway","gid":77727},"arcs":[63]},{"type":"LineString","properties":{"highway":"footway","gid":77728},"arcs":[64,65,66,67,68,69]},{"type":"LineString","properties":{"highway":"service","gid":77808},"arcs":[70]},{"type":"LineString","properties":{"highway":"footway","gid":77814},"arcs":[71]},{"type":"LineString","properties":{"highway":"footway","gid":77815},"arcs":[72]},{"type":"LineString","properties":{"highway":"tertiary","gid":77875},"arcs":[73]},{"type":"LineString","properties":{"highway":"secondary","gid":77876},"arcs":[74,75]},{"type":"LineString","properties":{"highway":"secondary","gid":77877},"arcs":[76,77,78]},{"type":"LineString","properties":{"highway":"tertiary","gid":77889},"arcs":[79]},{"type":"LineString","properties":{"highway":"footway","gid":77894},"arcs":[80,81]},{"type":"LineString","properties":{"highway":"footway","gid":77895},"arcs":[82,83]},{"type":"LineString","properties":{"highway":"footway","gid":77896},"arcs":[84]},{"type":"LineString","properties":{"highway":"service","gid":77945},"arcs":[85]},{"type":"LineString","properties":{"highway":"secondary_link","gid":77984},"arcs":[86]},{"type":"LineString","properties":{"highway":"footway","gid":78071},"arcs":[87]},{"type":"LineString","properties":{"highway":"footway","gid":78163},"arcs":[88,89]},{"type":"LineString","properties":{"highway":"footway","gid":78164},"arcs":[90,91]},{"type":"LineString","properties":{"highway":"footway","gid":78166},"arcs":[92]},{"type":"LineString","properties":{"highway":"footway","gid":78167},"arcs":[93]},{"type":"LineString","properties":{"highway":"secondary","gid":78204},"arcs":[94]},{"type":"LineString","properties":{"highway":"tertiary","gid":78205},"arcs":[95,96]},{"type":"LineString","properties":{"highway":"motorway_link","gid":78206},"arcs":[97,98]},{"type":"LineString","properties":{"highway":"motorway_link","gid":78213},"arcs":[99]},{"type":"LineString","properties":{"highway":"tertiary","gid":78214},"arcs":[100,101,102,103]},{"type":"LineString","properties":{"highway":"tertiary","gid":78216},"arcs":[104,105,106,107,108]},{"type":"LineString","properties":{"highway":"service","gid":78217},"arcs":[109]},{"type":"LineString","properties":{"highway":"footway","gid":78263},"arcs":[110]},{"type":"LineString","properties":{"highway":"footway","gid":78264},"arcs":[111]},{"type":"LineString","properties":{"highway":"secondary","gid":78501},"arcs":[112]},{"type":"LineString","properties":{"highway":"motorway_link","gid":78659},"arcs":[113]},{"type":"LineString","properties":{"highway":"service","gid":78718},"arcs":[114]},{"type":"LineString","properties":{"highway":"footway","gid":78766},"arcs":[115]},{"type":"LineString","properties":{"highway":"footway","gid":78767},"arcs":[116,117]},{"type":"LineString","properties":{"highway":"secondary","gid":78792},"arcs":[118,119]},{"type":"LineString","properties":{"highway":"pedestrian","gid":78795},"arcs":[120,121]},{"type":"LineString","properties":{"highway":"secondary","gid":78807},"arcs":[122]},{"type":"LineString","properties":{"highway":"pedestrian","gid":78808},"arcs":[123]},{"type":"LineString","properties":{"highway":"footway","gid":78812},"arcs":[124]},{"type":"LineString","properties":{"highway":"service","gid":78813},"arcs":[125,126,127]},{"type":"LineString","properties":{"highway":"service","gid":78817},"arcs":[128,129,130,131]},{"type":"LineString","properties":{"highway":"footway","gid":78835},"arcs":[132,133]},{"type":"LineString","properties":{"highway":"footway","gid":78836},"arcs":[134]},{"type":"LineString","properties":{"highway":"footway","gid":78844},"arcs":[135]},{"type":"LineString","properties":{"highway":"service","gid":78879},"arcs":[136]},{"type":"LineString","properties":{"highway":"service","gid":78880},"arcs":[137,138]},{"type":"LineString","properties":{"highway":"service","gid":78912},"arcs":[139]},{"type":"LineString","properties":{"highway":"secondary","gid":78939},"arcs":[140,141,142]},{"type":"LineString","properties":{"highway":"motorway_link","gid":78960},"arcs":[143]},{"type":"LineString","properties":{"highway":"footway","gid":78983},"arcs":[144]},{"type":"LineString","properties":{"highway":"footway","gid":78984},"arcs":[145]},{"type":"LineString","properties":{"highway":"footway","gid":79028},"arcs":[146]},{"type":"LineString","properties":{"highway":"footway","gid":79029},"arcs":[147,148]}]},"water":{"type":null},"parks":{"type":"GeometryCollection","geometries":[{"type":"Polygon","properties":{"amenity":null,"gid":13430,"name":"Holladay Park"},"arcs":[[149]]},{"type":"Polygon","properties":{"amenity":null,"gid":13837,"name":null},"arcs":[[150]]}]}},"arcs":[[[9784,1998],[-866,-280],[-2913,-947],[-3140,-771],[-2865,1355],[32,4224],[7927,-48],[69,4468],[20,-551],[20,-217],[57,-201],[138,-229],[181,-163],[216,-158],[614,-291],[258,-168],[162,-158],[136,-183],[126,-281],[32,-137],[10,-196],[-3,-294],[-211,-4774]],[[2577,2268],[-4,-200]],[[2573,2068],[-401,5],[0,204],[405,-9]],[[8774,4938],[-85,21],[-56,-19]],[[8633,4940],[85,55]],[[8718,4995],[56,-57]],[[3658,2457],[9,-276],[-34,-5],[-2,-149],[-224,0],[-2,-50],[-234,2],[-1,-55],[-232,0],[-2,-55],[-935,2],[4,594],[1653,-8]],[[2573,2068],[321,-5],[45,24]],[[2939,2087],[218,-4],[3,14]],[[3160,2097],[103,2],[3,128],[-111,2]],[[3155,2229],[-217,3]],[[2938,2232],[7,24],[-368,12]],[[1606,2335],[-87,0],[-3,-128],[91,0]],[[1607,2207],[-4,-724],[-86,2],[0,-101],[-630,2],[-1,26],[-210,0],[-3,85],[-279,0],[-32,151],[21,675],[91,0],[0,96],[1076,19],[51,-43],[5,-60]],[[1300,2076],[-626,9],[-10,-336],[625,-8],[11,335]],[[485,1547],[-4,103],[-77,0],[4,-105],[77,2]],[[8750,4772],[-11,-934],[-145,0],[11,934],[145,0]],[[8136,5188],[407,-303]],[[8543,4885],[98,-60]],[[8641,4825],[118,-2],[43,55],[-28,60]],[[8718,4995],[-427,308]],[[8291,5303],[30,21],[1182,-2],[-2,-363],[225,0],[-2,-458],[-427,2],[1,-233],[-64,2],[1,-230],[-74,2],[-1,-177],[-376,0],[0,-111],[-103,0],[1,-151],[-476,2],[-1,22],[-137,2],[8,1513],[60,44]],[[8633,4940],[-90,-55]],[[8136,5188],[155,115]],[[8641,4825],[-41,79],[33,36]],[[8754,4936],[-53,14],[-87,-46],[10,-50],[70,-29],[91,41],[-31,70]],[[8748,4921],[-69,10],[-43,-60],[53,-32],[78,51],[-19,31]],[[8737,4909],[-84,-14],[56,-44],[28,58]],[[1606,2335],[1,-128]],[[2938,2232],[1,-145]],[[3155,2229],[5,-132]],[[9839,3249],[-1043,-364],[-1447,-809],[-1165,-426],[-4259,-1207]],[[262,2906],[-251,0]],[[11,2974],[1,84]],[[841,4227],[-819,5]],[[32,5560],[144,0]],[[176,5560],[3550,-10]],[[3726,5550],[259,0]],[[177,5375],[-146,-5]],[[172,1273],[-120,176],[-51,148]],[[9,2614],[253,0]],[[262,2614],[1682,-1]],[[1944,2613],[1749,-2]],[[3693,2611],[260,-2]],[[177,5375],[660,-397]],[[837,4978],[954,-700]],[[1791,4278],[201,-137]],[[1992,4141],[361,-257]],[[2353,3884],[811,-572]],[[3164,3312],[529,-396]],[[176,5560],[1,-185]],[[262,2614],[0,167]],[[262,2781],[0,125]],[[3695,2784],[-1751,2]],[[1944,2786],[-1682,-5]],[[262,2906],[200,5],[1482,5]],[[262,2906],[145,113],[433,307]],[[840,3326],[757,543]],[[1597,3869],[196,135]],[[1793,4004],[199,137]],[[1992,4141],[368,261],[814,570]],[[3174,4972],[425,305],[120,33]],[[982,891],[877,253]],[[1944,3003],[-385,0],[-719,323]],[[840,3326],[2324,-14]],[[3164,3312],[5,829]],[[3169,4141],[5,831]],[[3174,4972],[-2337,6]],[[837,4978],[4,-751]],[[841,4227],[-1,-901]],[[1552,1785],[162,-12],[48,-63],[6,-317],[91,-249]],[[1597,3869],[719,-2],[37,17]],[[1791,4278],[-190,-138],[192,-136]],[[1943,860],[-84,284]],[[1859,1144],[275,-24],[368,101]],[[2502,1221],[228,14],[682,185],[647,183],[557,136],[440,103],[361,70],[257,79]],[[3936,1936],[-1150,-382]],[[2786,1554],[-374,-122]],[[2412,1432],[-339,-115],[-214,-173]],[[1949,433],[4,317],[-10,110]],[[1944,2613],[0,173]],[[1944,2786],[0,130]],[[3164,3312],[-739,-305],[-481,-4]],[[1944,3003],[0,-87]],[[1944,2916],[1749,0]],[[2786,1554],[-105,145],[-161,55],[-95,-13],[-62,-38],[-32,-105],[81,-166]],[[2502,1221],[201,100],[996,262],[141,72],[39,63],[57,218]],[[3169,4141],[810,-5]],[[3693,2916],[2,-132]],[[3695,2784],[-2,-173]],[[3693,2916],[276,-3]],[[3969,2913],[273,-16]],[[3719,5310],[68,-17],[198,-4]],[[3719,5310],[7,240]],[[5674,1991],[-237,12],[-507,-74],[-551,-50],[-265,21],[-178,36]],[[3936,1936],[13,151],[4,522]],[[3953,2609],[8,167]],[[6795,2570],[-206,2],[-389,-12],[-499,-67],[-272,-57],[-441,-130]],[[4988,2306],[-554,-190],[-498,-180]],[[4988,2306],[-318,-19],[-210,-3],[-186,34],[-126,106],[-37,122],[-150,230]],[[3961,2776],[8,137]],[[3969,2913],[4,75],[6,1148]],[[3979,4136],[6,1153]],[[3985,5289],[0,261]],[[3985,5550],[3717,-21]],[[7702,5529],[252,-1]],[[7954,5528],[232,-2]],[[8186,5526],[1443,0]],[[9629,5526],[310,0]],[[3985,5555],[0,-5]],[[4242,2897],[265,-22],[162,3],[1838,-10],[132,10],[294,74],[316,122],[296,173],[263,82],[55,96],[23,110],[-19,70]],[[4242,2897],[3198,2156],[444,0]],[[5674,1991],[518,89],[287,63],[429,139],[354,159],[753,405],[1087,593],[157,104],[262,209],[142,149],[159,228],[62,124]],[[9282,2275],[-555,79],[-650,103],[-656,82],[-626,31]],[[7954,5531],[0,-3]],[[7660,5346],[42,183]],[[8225,5346],[-339,0]],[[7886,5346],[-226,0]],[[8011,8926],[199,-264],[152,-141],[98,-73]],[[8460,8448],[114,-71],[285,-140],[231,-99]],[[7867,3605],[17,1448]],[[7884,5053],[2,293]],[[8041,9647],[-19,21]],[[8037,9755],[-14,0]],[[8143,5730],[-181,0]],[[7981,6991],[498,-3]],[[8479,6988],[427,0]],[[8906,6988],[444,-2]],[[7998,8072],[225,-8]],[[8223,8064],[233,-43],[353,-165],[232,-171],[115,-118],[96,-132],[51,-118],[47,-249]],[[9350,7068],[0,-82]],[[9350,6986],[-6,-1049]],[[8225,5346],[-39,180]],[[8186,5526],[-43,204]],[[8473,5941],[-257,-16],[-36,-68],[0,-100],[-37,-27]],[[8460,8448],[-218,-170],[-19,-51],[0,-163]],[[8479,6988],[-6,-1047]],[[9344,5937],[-443,2]],[[8901,5939],[-428,2]],[[8901,5939],[5,1049]],[[9090,8138],[249,-155],[191,-187],[132,-166],[89,-187],[47,-169],[15,-194]],[[9813,7080],[37,-469],[-6,-878]],[[9844,5733],[97,-166]],[[9794,2231],[-73,-2],[-439,46]],[[9344,5937],[294,-204]],[[9350,7068],[463,12]],[[9629,5526],[9,207]],[[9638,5733],[206,0]],[[9844,5733],[105,0]],[[244,5336],[3295,-4],[169,-125],[-5,-2262],[-3454,16],[-5,2375]],[[9866,3879],[-23,-555],[-1017,-375],[-225,15],[380,202],[429,249],[141,108],[162,159],[153,197]]],"transform":{"scale":[5.118035208525784e-7,5.054384614564238e-7],"translate":[-122.654583831058,45.528676809611]}}