{"type":"Topology","objects":{"land":{"type":"GeometryCollection","geometries":[{"type":"Polygon","properties":{"name":"ARLINGTON HEIGHTS/SYLVAN-HIGHLANDS","gid":72},"arcs":[[0,1,2,3,4,5,6,7,8,9,10,11,12,13,14,15,16,17,18,19,20,21,22,23,24,25,26,27,28,29,30,31,32,33,34,35,36,37,38,39,40,41,42]]}]},"buildings":{"type":"GeometryCollection","geometries":[{"type":"Polygon","properties":{"year_built":1957,"gid":182368},"arcs":[[43]]},{"type":"Polygon","properties":{"year_built":2005,"gid":182402},"arcs":[[44]]},{"type":"Polygon","properties":{"year_built":1930,"gid":182466},"arcs":[[45]]},{"type":"Polygon","properties":{"year_built":1959,"gid":183649},"arcs":[[46]]},{"type":"Polygon","properties":{"year_built":1998,"gid":183650},"arcs":[[47]]},{"type":"Polygon","properties":{"year_built":1998,"gid":183860},"arcs":[[48]]},{"type":"Polygon","properties":{"year_built":1959,"gid":183861},"arcs":[[49]]},{"type":"Polygon","properties":{"year_built":1959,"gid":183862},"arcs":[[50]]},{"type":"Polygon","properties":{"year_built":1959,"gid":183863},"arcs":[[51]]},{"type":"Polygon","properties":{"year_built":1959,"gid":183864},"arcs":[[52]]},{"type":"Polygon","properties":{"year_built":1959,"gid":183865},"arcs":[[53]]},{"type":"Polygon","properties":{"year_built":1959,"gid":183866},"arcs":[[54]]},{"type":"Polygon","properties":{"year_built":1959,"gid":183867},"arcs":[[55]]},{"type":"Polygon","properties":{"year_built":1959,"gid":183868},"arcs":[[56]]},{"type":"Polygon","properties":{"year_built":1959,"gid":183869},"arcs":[[57]]},{"type":"Polygon","properties":{"year_built":1959,"gid":183870},"arcs":[[58]]},{"type":"Polygon","properties":{"year_built":1959,"gid":183871},"arcs":[[59]]},{"type":"Polygon","properties":{"year_built":1959,"gid":183872},"arcs":[[60]]},{"type":"Polygon","properties":{"year_built":1959,"gid":183873},"arcs":[[61]]},{"type":"Polygon","properties":{"year_built":1959,"gid":183874},"arcs":[[62]]},{"type":"Polygon","properties":{"year_built":1959,"gid":183875},"arcs":[[63]]},{"type":"Polygon","properties":{"year_built":1959,"gid":183876},"arcs":[[64]]},{"type":"Polygon","properties":{"year_built":1959,"gid":183877},"arcs":[[65]]},{"type":"Polygon","properties":{"year_built":1959,"gid":183878},"arcs":[[66]]},{"type":"Polygon","properties":{"year_built":1959,"gid":183879},"arcs":[[67]]},{"type":"Polygon","properties":{"year_built":1959,"gid":183901},"arcs":[[68]]},{"type":"Polygon","properties":{"year_built":1959,"gid":183902},"arcs":[[69]]},{"type":"Polygon","properties":{"year_built":1959,"gid":183903},"arcs":[[70]]},{"type":"Polygon","properties":{"year_built":1959,"gid":184036},"arcs":[[71]]},{"type":"Polygon","properties":{"year_built":1959,"gid":184037},"arcs":[[72],[73]]},{"type":"Polygon","properties":{"year_built":1959,"gid":184038},"arcs":[[74]]},{"type":"Polygon","properties":{"year_built":1959,"gid":184039},"arcs":[[75]]},{"type":"Polygon","properties":{"year_built":1959,"gid":184040},"arcs":[[76]]},{"type":"Polygon","properties":{"year_built":1959,"gid":184041},"arcs":[[77]]},{"type":"Polygon","properties":{"year_built":1959,"gid":184042},"arcs":[[78]]},{"type":"Polygon","properties":{"year_built":1959,"gid":184043},"arcs":[[79]]},{"type":"Polygon","properties":{"year_built":1959,"gid":184044},"arcs":[[80]]},{"type":"Polygon","properties":{"year_built":1959,"gid":184045},"arcs":[[81]]},{"type":"Polygon","properties":{"year_built":1959,"gid":184046},"arcs":[[82]]},{"type":"Polygon","properties":{"year_built":1959,"gid":184047},"arcs":[[83]]},{"type":"Polygon","properties":{"year_built":1959,"gid":184048},"arcs":[[84]]},{"type":"Polygon","properties":{"year_built":1959,"gid":184049},"arcs":[[85]]},{"type":"Polygon","properties":{"year_built":1959,"gid":184050},"arcs":[[86]]},{"type":"Polygon","properties":{"year_built":1959,"gid":184051},"arcs":[[87]]},{"type":"Polygon","properties":{"year_built":1959,"gid":184052},"arcs":[[88]]},{"type":"Polygon","properties":{"year_built":1959,"gid":184053},"arcs":[[89]]},{"type":"Polygon","properties":{"year_built":1959,"gid":184054},"arcs":[[90]]},{"type":"Polygon","properties":{"year_built":1959,"gid":184055},"arcs":[[91]]},{"type":"Polygon","properties":{"year_built":1959,"gid":184056},"arcs":[[92]]},{"type":"Polygon","properties":{"year_built":1959,"gid":184057},"arcs":[[93]]},{"type":"Polygon","properties":{"year_built":1959,"gid":184058},"arcs":[[94]]},{"type":"Polygon","properties":{"year_built":1959,"gid":184062},"arcs":[[95]]},{"type":"Polygon","properties":{"year_built":1959,"gid":184063},"arcs":[[96]]},{"type":"Polygon","properties":{"year_built":1959,"gid":184064},"arcs":[[97]]},{"type":"Polygon","properties":{"year_built":1959,"gid":184065},"arcs":[[98]]},{"type":"Polygon","properties":{"year_built":1959,"gid":184066},"arcs":[[99]]},{"type":"Polygon","properties":{"year_built":1959,"gid":184067},"arcs":[[100]]},{"type":"Polygon","properties":{"year_built":1959,"gid":184068},"arcs":[[101]]},{"type":"Polygon","properties":{"year_built":1959,"gid":184069},"arcs":[[102]]},{"type":"Polygon","properties":{"year_built":1959,"gid":184070},"arcs":[[103]]},{"type":"Polygon","properties":{"year_built":1959,"gid":184071},"arcs":[[104]]},{"type":"Polygon","properties":{"year_built":1959,"gid":184072},"arcs":[[105]]},{"type":"Polygon","properties":{"year_built":1959,"gid":184073},"arcs":[[106]]},{"type":"Polygon","properties":{"year_built":1959,"gid":184074},"arcs":[[107]]},{"type":"Polygon","properties":{"year_built":1959,"gid":184081},"arcs":[[108]]},{"type":"Polygon","properties":{"year_built":1959,"gid":184084},"arcs":[[109]]},{"type":"Polygon","properties":{"year_built":1959,"gid":184087},"arcs":[[110]]},{"type":"Polygon","properties":{"year_built":1959,"gid":184088},"arcs":[[111]]},{"type":"Polygon","properties":{"year_built":1959,"gid":184089},"arcs":[[112]]},{"type":"Polygon","properties":{"year_built":1959,"gid":184167},"arcs":[[113]]},{"type":"Polygon","properties":{"year_built":1959,"gid":186415},"arcs":[[114]]},{"type":"Polygon","properties":{"year_built":1959,"gid":186416},"arcs":[[115]]},{"type":"Polygon","properties":{"year_built":1959,"gid":186417},"arcs":[[116]]},{"type":"Polygon","properties":{"year_built":2005,"gid":243074},"arcs":[[117]]},{"type":"Polygon","properties":{"year_built":2005,"gid":243075},"arcs":[[118]]},{"type":"Polygon","properties":{"year_built":0,"gid":243076},"arcs":[[119]]},{"type":"Polygon","properties":{"year_built":null,"gid":243318},"arcs":[[120]]},{"type":"Polygon","properties":{"year_built":2005,"gid":243319},"arcs":[[121]]},{"type":"Polygon","properties":{"year_built":2005,"gid":243320},"arcs":[[122]]},{"type":"Polygon","properties":{"year_built":2005,"gid":243329},"arcs":[[123]]},{"type":"Polygon","properties":{"year_built":2005,"gid":243330},"arcs":[[124]]},{"type":"Polygon","properties":{"year_built":1959,"gid":243463},"arcs":[[125]]},{"type":"Polygon","properties":{"year_built":null,"gid":243464},"arcs":[[126]]},{"type":"Polygon","properties":{"year_built":1959,"gid":243465},"arcs":[[127],[128]]},{"type":"Polygon","properties":{"year_built":null,"gid":243466},"arcs":[[129]]},{"type":"Polygon","properties":{"year_built":null,"gid":243467},"arcs":[[130]]}]},"roads":{"type":"GeometryCollection","geometries":[{"type":"LineString","properties":{"highway":"motorway","gid":53619},"arcs":[131]},{"type":"MultiLineString","properties":{"highway":"secondary","gid":55005},"arcs":[[132],[133],[134],[135,136],[137]]},{"type":"LineString","properties":{"highway":"tertiary","gid":55053},"arcs":[138,139,140,141,142,143,144,145,146,147]},{"type":"LineString","properties":{"highway":"motorway_link","gid":55942},"arcs":[148]},{"type":"LineString","properties":{"highway":"residential","gid":56144},"arcs":[149]},{"type":"MultiLineString","properties":{"highway":"residential","gid":56301},"arcs":[[150,151,152,153,154,155,156,157,158,159,160],[161]]},{"type":"LineString","properties":{"highway":"tertiary","gid":56404},"arcs":[162,163]},{"type":"LineString","properties":{"highway":"footway","gid":56744},"arcs":[164,165,166,167,168,169]},{"type":"LineString","properties":{"highway":"footway","gid":56745},"arcs":[170,171,172,173,174,175]},{"type":"LineString","properties":{"highway":"footway","gid":56757},"arcs":[176]},{"type":"LineString","properties":{"highway":"footway","gid":56758},"arcs":[177,178,179,180,181,182,183,184,185,186]},{"type":"LineString","properties":{"highway":"footway","gid":56759},"arcs":[187,188,189,190,191,192]},{"type":"LineString","properties":{"highway":"footway","gid":56760},"arcs":[193,194,195]},{"type":"LineString","properties":{"highway":"footway","gid":56766},"arcs":[196,197,198]},{"type":"LineString","properties":{"highway":"footway","gid":56768},"arcs":[199,200,201]},{"type":"LineString","properties":{"highway":"footway","gid":56770},"arcs":[202]},{"type":"LineString","properties":{"highway":"footway","gid":56786},"arcs":[203]},{"type":"LineString","properties":{"highway":"footway","gid":56796},"arcs":[204,205,206,207,208,209]},{"type":"LineString","properties":{"highway":"footway","gid":56802},"arcs":[210]},{"type":"LineString","properties":{"highway":"footway","gid":56803},"arcs":[211]},{"type":"LineString","properties":{"highway":"footway","gid":56804},"arcs":[212]},{"type":"LineString","properties":{"highway":"service","gid":56810},"arcs":[213,214]},{"type":"LineString","properties":{"highway":"footway","gid":56813},"arcs":[215,216]},{"type":"LineString","properties":{"highway":"footway","gid":56819},"arcs":[217]},{"type":"LineString","properties":{"highway":"footway","gid":56821},"arcs":[218]},{"type":"LineString","properties":{"highway":"footway","gid":56834},"arcs":[219]},{"type":"LineString","properties":{"highway":"footway","gid":56835},"arcs":[220]},{"type":"LineString","properties":{"highway":"footway","gid":56837},"arcs":[221,222]},{"type":"LineString","properties":{"highway":"footway","gid":56851},"arcs":[223]},{"type":"LineString","properties":{"highway":"footway","gid":56857},"arcs":[224]},{"type":"LineString","properties":{"highway":"footway","gid":56873},"arcs":[225]},{"type":"LineString","properties":{"highway":"footway","gid":56876},"arcs":[226,227,228]},{"type":"LineString","properties":{"highway":"footway","gid":56893},"arcs":[229,230]},{"type":"LineString","properties":{"highway":"tertiary","gid":56902},"arcs":[231]},{"type":"MultiLineString","properties":{"highway":"service","gid":56903},"arcs":[[232],[233,234,235]]},{"type":"LineString","properties":{"highway":"tertiary","gid":56907},"arcs":[236]},{"type":"LineString","properties":{"highway":"footway","gid":56908},"arcs":[237]},{"type":"LineString","properties":{"highway":"footway","gid":56915},"arcs":[238]},{"type":"LineString","properties":{"highway":"footway","gid":56920},"arcs":[239]},{"type":"LineString","properties":{"highway":"footway","gid":56921},"arcs":[240]},{"type":"LineString","properties":{"highway":"footway","gid":56934},"arcs":[241,242,243,244,245,246]},{"type":"LineString","properties":{"highway":"footway","gid":56944},"arcs":[247]},{"type":"LineString","properties":{"highway":"footway","gid":56958},"arcs":[248]},{"type":"LineString","properties":{"highway":"footway","gid":56964},"arcs":[249]},{"type":"LineString","properties":{"highway":"tertiary","gid":56965},"arcs":[250,251]},{"type":"LineString","properties":{"highway":"service","gid":56974},"arcs":[252]},{"type":"LineString","properties":{"highway":"service","gid":56975},"arcs":[253]},{"type":"LineString","properties":{"highway":"footway","gid":56978},"arcs":[254]},{"type":"LineString","properties":{"highway":"service","gid":56980},"arcs":[255]},{"type":"LineString","properties":{"highway":"footway","gid":56990},"arcs":[256]},{"type":"LineString","properties":{"highway":"tertiary","gid":57015},"arcs":[257]},{"type":"LineString","properties":{"highway":"footway","gid":57043},"arcs":[258,259]},{"type":"LineString","properties":{"highway":"footway","gid":57044},"arcs":[260,261]},{"type":"LineString","properties":{"highway":"footway","gid":57062},"arcs":[262]},{"type":"LineString","properties":{"highway":"motorway_link","gid":57064},"arcs":[263,264]},{"type":"LineString","properties":{"highway":"tertiary","gid":57065},"arcs":[265]},{"type":"LineString","properties":{"highway":"footway","gid":57075},"arcs":[266]},{"type":"LineString","properties":{"highway":"service","gid":57079},"arcs":[267]},{"type":"LineString","properties":{"highway":"footway","gid":57093},"arcs":[268,269]},{"type":"LineString","properties":{"highway":"footway","gid":57106},"arcs":[270]},{"type":"LineString","properties":{"highway":"footway","gid":57112},"arcs":[271,272,273]},{"type":"LineString","properties":{"highway":"footway","gid":57113},"arcs":[274]},{"type":"LineString","properties":{"highway":"residential","gid":57118},"arcs":[275,276,277,278,279,280]},{"type":"LineString","properties":{"highway":"tertiary","gid":57123},"arcs":[281,282,283,284,285,286,287]},{"type":"LineString","properties":{"highway":"service","gid":57133},"arcs":[288,289]},{"type":"LineString","properties":{"highway":"tertiary","gid":57145},"arcs":[290]},{"type":"LineString","properties":{"highway":"service","gid":57146},"arcs":[291]},{"type":"LineString","properties":{"highway":"footway","gid":57147},"arcs":[292]},{"type":"LineString","properties":{"highway":"service","gid":57161},"arcs":[293]},{"type":"LineString","properties":{"highway":"footway","gid":57166},"arcs":[294,295]},{"type":"LineString","properties":{"highway":"footway","gid":57167},"arcs":[296,297,298,299,300]},{"type":"LineString","properties":{"highway":"motorway_link","gid":57182},"arcs":[301]},{"type":"LineString","properties":{"highway":"footway","gid":57183},"arcs":[302,303,304,305,306]},{"type":"LineString","properties":{"highway":"service","gid":57190},"arcs":[307,308,309,310,311,312]},{"type":"LineString","properties":{"highway":"service","gid":57191},"arcs":[313,314]},{"type":"LineString","properties":{"highway":"service","gid":57213},"arcs":[315,316]},{"type":"LineString","properties":{"highway":"service","gid":57222},"arcs":[317,318]},{"type":"LineString","properties":{"highway":"footway","gid":57223},"arcs":[319,320]},{"type":"LineString","properties":{"highway":"footway","gid":57225},"arcs":[321]},{"type":"LineString","properties":{"highway":"steps","gid":57234},"arcs":[322]},{"type":"LineString","properties":{"highway":"footway","gid":57235},"arcs":[323]},{"type":"LineString","properties":{"highway":"steps","gid":57242},"arcs":[324]},{"type":"LineString","properties":{"highway":"footway","gid":57243},"arcs":[325,326]},{"type":"LineString","properties":{"highway":"service","gid":57246},"arcs":[327,328]},{"type":"LineString","properties":{"highway":"footway","gid":57247},"arcs":[329]},{"type":"LineString","properties":{"highway":"footway","gid":57248},"arcs":[330]},{"type":"LineString","properties":{"highway":"steps","gid":57257},"arcs":[331]},{"type":"LineString","properties":{"highway":"footway","gid":57267},"arcs":[332]},{"type":"LineString","properties":{"highway":"steps","gid":57273},"arcs":[333]},{"type":"LineString","properties":{"highway":"service","gid":57278},"arcs":[334,335]},{"type":"LineString","properties":{"highway":"service","gid":57279},"arcs":[336,337,338]},{"type":"LineString","properties":{"highway":"tertiary","gid":57280},"arcs":[339,340,341]},{"type":"LineString","properties":{"highway":"footway","gid":57287},"arcs":[342]},{"type":"LineString","properties":{"highway":"footway","gid":57294},"arcs":[343,344,345,346]},{"type":"LineString","properties":{"highway":"footway","gid":57296},"arcs":[347]},{"type":"LineString","properties":{"highway":"steps","gid":57297},"arcs":[348]},{"type":"LineString","properties":{"highway":"footway","gid":57301},"arcs":[349]},{"type":"LineString","properties":{"highway":"service","gid":57316},"arcs":[350,351,352,353]},{"type":"LineString","properties":{"highway":"tertiary","gid":57317},"arcs":[354]},{"type":"LineString","properties":{"highway":"tertiary","gid":57318},"arcs":[355,356,357,358]},{"type":"LineString","properties":{"highway":"footway","gid":57322},"arcs":[359]},{"type":"LineString","properties":{"highway":"footway","gid":57323},"arcs":[360]},{"type":"LineString","properties":{"highway":"footway","gid":57329},"arcs":[361]},{"type":"LineString","properties":{"highway":"tertiary","gid":57330},"arcs":[362]},{"type":"LineString","properties":{"highway":"footway","gid":57331},"arcs":[363,364]},{"type":"LineString","properties":{"highway":"service","gid":57332},"arcs":[365,366]},{"type":"LineString","properties":{"highway":"footway","gid":57333},"arcs":[367,368]},{"type":"LineString","properties":{"highway":"footway","gid":57337},"arcs":[369,370,371,372,373,374,375,376,377,378,379]},{"type":"LineString","properties":{"highway":"footway","gid":57340},"arcs":[380]},{"type":"LineString","properties":{"highway":"footway","gid":57341},"arcs":[381]},{"type":"LineString","properties":{"highway":"footway","gid":57344},"arcs":[382,383]},{"type":"LineString","properties":{"highway":"footway","gid":57346},"arcs":[384]},{"type":"LineString","properties":{"highway":"footway","gid":57347},"arcs":[385]},{"type":"LineString","properties":{"highway":"footway","gid":57348},"arcs":[386]},{"type":"LineString","properties":{"highway":"tertiary","gid":57350},"arcs":[387]},{"type":"LineString","properties":{"highway":"footway","gid":57354},"arcs":[388]},{"type":"LineString","properties":{"highway":"footway","gid":57357},"arcs":[389]},{"type":"LineString","properties":{"highway":"footway","gid":57358},"arcs":[390]},{"type":"LineString","properties":{"highway":"service","gid":57359},"arcs":[391,392,393,394,395]},{"type":"LineString","properties":{"highway":"service","gid":57360},"arcs":[396]},{"type":"LineString","properties":{"highway":"footway","gid":57361},"arcs":[397]},{"type":"LineString","properties":{"highway":"footway","gid":57365},"arcs":[398]},{"type":"LineString","properties":{"highway":"service","gid":57371},"arcs":[399]},{"type":"LineString","properties":{"highway":"service","gid":57377},"arcs":[400,401,402,403,404,405,406]},{"type":"LineString","properties":{"highway":"tertiary","gid":57378},"arcs":[407,408,409]},{"type":"LineString","properties":{"highway":"footway","gid":57381},"arcs":[410]},{"type":"LineString","properties":{"highway":"footway","gid":57401},"arcs":[411,412]},{"type":"LineString","properties":{"highway":"steps","gid":57402},"arcs":[413]},{"type":"LineString","properties":{"highway":"footway","gid":57403},"arcs":[414,415]},{"type":"LineString","properties":{"highway":"footway","gid":57409},"arcs":[416]},{"type":"LineString","properties":{"highway":"steps","gid":57414},"arcs":[417]},{"type":"LineString","properties":{"highway":"footway","gid":57415},"arcs":[418]},{"type":"LineString","properties":{"highway":"footway","gid":57416},"arcs":[419]},{"type":"LineString","properties":{"highway":"footway","gid":57424},"arcs":[420]},{"type":"LineString","properties":{"highway":"tertiary","gid":57429},"arcs":[421,422]},{"type":"LineString","properties":{"highway":"tertiary","gid":57430},"arcs":[423]},{"type":"LineString","properties":{"highway":"footway","gid":57436},"arcs":[424,425,426,427]},{"type":"LineString","properties":{"highway":"footway","gid":57442},"arcs":[428]},{"type":"LineString","properties":{"highway":"footway","gid":57452},"arcs":[429]},{"type":"LineString","properties":{"highway":"footway","gid":57456},"arcs":[430]},{"type":"LineString","properties":{"highway":"footway","gid":57460},"arcs":[431,432,433]},{"type":"LineString","properties":{"highway":"footway","gid":57461},"arcs":[434]},{"type":"LineString","properties":{"highway":"footway","gid":57462},"arcs":[435,436,437,438,439,440]},{"type":"LineString","properties":{"highway":"residential","gid":57490},"arcs":[441,442]},{"type":"LineString","properties":{"highway":"tertiary","gid":57491},"arcs":[443]},{"type":"LineString","properties":{"highway":"service","gid":57494},"arcs":[444]},{"type":"LineString","properties":{"highway":"tertiary","gid":57495},"arcs":[445]},{"type":"LineString","properties":{"highway":"tertiary","gid":57496},"arcs":[446]},{"type":"LineString","properties":{"highway":"footway","gid":57498},"arcs":[447,448]},{"type":"LineString","properties":{"highway":"tertiary","gid":57512},"arcs":[449,450]},{"type":"LineString","properties":{"highway":"footway","gid":57516},"arcs":[451,452]},{"type":"LineString","properties":{"highway":"service","gid":57517},"arcs":[453]},{"type":"LineString","properties":{"highway":"service","gid":57522},"arcs":[454,455]},{"type":"LineString","properties":{"highway":"steps","gid":57533},"arcs":[456,457]},{"type":"LineString","properties":{"highway":"footway","gid":57547},"arcs":[458]},{"type":"LineString","properties":{"highway":"footway","gid":57549},"arcs":[459]},{"type":"LineString","properties":{"highway":"footway","gid":57552},"arcs":[460,461]},{"type":"LineString","properties":{"highway":"service","gid":57556},"arcs":[462,463]},{"type":"LineString","properties":{"highway":"service","gid":57566},"arcs":[464]},{"type":"LineString","properties":{"highway":"footway","gid":57574},"arcs":[465,466,467,468]},{"type":"LineString","properties":{"highway":"tertiary","gid":57576},"arcs":[469]},{"type":"LineString","properties":{"highway":"service","gid":57577},"arcs":[470]},{"type":"LineString","properties":{"highway":"service","gid":57587},"arcs":[471]},{"type":"LineString","properties":{"highway":"footway","gid":57597},"arcs":[472]},{"type":"LineString","properties":{"highway":"footway","gid":57603},"arcs":[473]},{"type":"LineString","properties":{"highway":"service","gid":57620},"arcs":[474]},{"type":"LineString","properties":{"highway":"service","gid":57621},"arcs":[475]},{"type":"LineString","properties":{"highway":"service","gid":57626},"arcs":[476,477]},{"type":"LineString","properties":{"highway":"footway","gid":57635},"arcs":[478]},{"type":"LineString","properties":{"highway":"footway","gid":57640},"arcs":[479]},{"type":"LineString","properties":{"highway":"tertiary","gid":57642},"arcs":[480]},{"type":"LineString","properties":{"highway":"service","gid":57643},"arcs":[481]},{"type":"LineString","properties":{"highway":"footway","gid":57648},"arcs":[482,483,484]},{"type":"LineString","properties":{"highway":"service","gid":57651},"arcs":[485]},{"type":"LineString","properties":{"highway":"service","gid":57652},"arcs":[486,487,488,489,490,491,492,493,494,495]},{"type":"LineString","properties":{"highway":"footway","gid":57653},"arcs":[496]},{"type":"LineString","properties":{"highway":"footway","gid":57657},"arcs":[497]},{"type":"LineString","properties":{"highway":"footway","gid":57660},"arcs":[498,499,500]},{"type":"LineString","properties":{"highway":"service","gid":57666},"arcs":[501]},{"type":"LineString","properties":{"highway":"service","gid":57667},"arcs":[502]},{"type":"LineString","properties":{"highway":"footway","gid":57668},"arcs":[503]},{"type":"LineString","properties":{"highway":"service","gid":57670},"arcs":[504]},{"type":"LineString","properties":{"highway":"service","gid":57672},"arcs":[505,506]},{"type":"LineString","properties":{"highway":"service","gid":57676},"arcs":[507,508]},{"type":"LineString","properties":{"highway":"footway","gid":57682},"arcs":[509]},{"type":"LineString","properties":{"highway":"footway","gid":57694},"arcs":[510,511]},{"type":"LineString","properties":{"highway":"service","gid":57698},"arcs":[512,513]},{"type":"LineString","properties":{"highway":"footway","gid":57699},"arcs":[514]},{"type":"LineString","properties":{"highway":"service","gid":57704},"arcs":[515]},{"type":"LineString","properties":{"highway":"service","gid":57716},"arcs":[516,517]},{"type":"LineString","properties":{"highway":"footway","gid":57718},"arcs":[518,519]},{"type":"LineString","properties":{"highway":"footway","gid":57724},"arcs":[520,521]},{"type":"LineString","properties":{"highway":"footway","gid":57725},"arcs":[522]},{"type":"LineString","properties":{"highway":"footway","gid":57733},"arcs":[523,524]},{"type":"LineString","properties":{"highway":"footway","gid":57740},"arcs":[525,526,527]},{"type":"LineString","properties":{"highway":"footway","gid":57741},"arcs":[528]},{"type":"LineString","properties":{"highway":"footway","gid":57749},"arcs":[529]},{"type":"LineString","properties":{"highway":"footway","gid":57750},"arcs":[530]},{"type":"LineString","properties":{"highway":"steps","gid":57751},"arcs":[531]},{"type":"LineString","properties":{"highway":"footway","gid":57752},"arcs":[532,533]},{"type":"LineString","properties":{"highway":"pedestrian","gid":57754},"arcs":[534]},{"type":"LineString","properties":{"highway":"service","gid":57757},"arcs":[535,536]},{"type":"LineString","properties":{"highway":"footway","gid":57758},"arcs":[537,538,539,540]},{"type":"LineString","properties":{"highway":"footway","gid":57763},"arcs":[541]},{"type":"LineString","properties":{"highway":"footway","gid":57764},"arcs":[542,543]},{"type":"LineString","properties":{"highway":"footway","gid":57765},"arcs":[544]},{"type":"LineString","properties":{"highway":"service","gid":57778},"arcs":[545,546]},{"type":"LineString","properties":{"highway":"footway","gid":57786},"arcs":[547]},{"type":"LineString","properties":{"highway":"footway","gid":57788},"arcs":[548]},{"type":"LineString","properties":{"highway":"steps","gid":57789},"arcs":[549]},{"type":"LineString","properties":{"highway":"footway","gid":57793},"arcs":[550]},{"type":"LineString","properties":{"highway":"footway","gid":57794},"arcs":[551]},{"type":"LineString","properties":{"highway":"footway","gid":57797},"arcs":[552]},{"type":"LineString","properties":{"highway":"footway","gid":57800},"arcs":[553]},{"type":"LineString","properties":{"highway":"footway","gid":57801},"arcs":[554]},{"type":"LineString","properties":{"highway":"footway","gid":57802},"arcs":[555]},{"type":"LineString","properties":{"highway":"footway","gid":57805},"arcs":[556,557,558]},{"type":"LineString","properties":{"highway":"footway","gid":57806},"arcs":[559]},{"type":"LineString","properties":{"highway":"pedestrian","gid":57807},"arcs":[560,561,562,563,564]},{"type":"LineString","properties":{"highway":"footway","gid":57812},"arcs":[565]},{"type":"LineString","properties":{"highway":"footway","gid":57815},"arcs":[566,567]},{"type":"LineString","properties":{"highway":"steps","gid":57816},"arcs":[568]},{"type":"LineString","properties":{"highway":"footway","gid":57820},"arcs":[569]},{"type":"LineString","properties":{"highway":"footway","gid":57823},"arcs":[570]},{"type":"LineString","properties":{"highway":"service","gid":57826},"arcs":[571,572]},{"type":"LineString","properties":{"highway":"footway","gid":57831},"arcs":[573]},{"type":"LineString","properties":{"highway":"steps","gid":57832},"arcs":[574]},{"type":"LineString","properties":{"highway":"footway","gid":57834},"arcs":[575,576]},{"type":"LineString","properties":{"highway":"footway","gid":57840},"arcs":[577,578]},{"type":"LineString","properties":{"highway":"service","gid":57854},"arcs":[579]},{"type":"LineString","properties":{"highway":"service","gid":57857},"arcs":[580]},{"type":"LineString","properties":{"highway":"footway","gid":57861},"arcs":[581,582,583,584,585,586]},{"type":"LineString","properties":{"highway":"pedestrian","gid":57866},"arcs":[587,588,589]},{"type":"LineString","properties":{"highway":"footway","gid":57868},"arcs":[590]},{"type":"LineString","properties":{"highway":"footway","gid":57871},"arcs":[591,592]},{"type":"LineString","properties":{"highway":"service","gid":57872},"arcs":[593,594]},{"type":"LineString","properties":{"highway":"footway","gid":57878},"arcs":[595]},{"type":"LineString","properties":{"highway":"footway","gid":57883},"arcs":[596,597,598,599]},{"type":"LineString","properties":{"highway":"steps","gid":57886},"arcs":[600]},{"type":"LineString","properties":{"highway":"footway","gid":57949},"arcs":[601]},{"type":"LineString","properties":{"highway":"footway","gid":57952},"arcs":[602,603]},{"type":"LineString","properties":{"highway":"footway","gid":57955},"arcs":[604,605,606,607,608,609]},{"type":"LineString","properties":{"highway":"residential","gid":57977},"arcs":[610]},{"type":"LineString","properties":{"highway":"footway","gid":57987},"arcs":[611]},{"type":"LineString","properties":{"highway":"steps","gid":58020},"arcs":[612]},{"type":"LineString","properties":{"highway":"footway","gid":58021},"arcs":[613]},{"type":"LineString","properties":{"highway":"footway","gid":58032},"arcs":[614]},{"type":"LineString","properties":{"highway":"residential","gid":58034},"arcs":[615]},{"type":"LineString","properties":{"highway":"pedestrian","gid":58039},"arcs":[616]},{"type":"LineString","properties":{"highway":"footway","gid":58040},"arcs":[617]},{"type":"LineString","properties":{"highway":"footway","gid":58045},"arcs":[618]},{"type":"LineString","properties":{"highway":"footway","gid":58058},"arcs":[619]},{"type":"LineString","properties":{"highway":"residential","gid":58059},"arcs":[620,621,622,623,624]},{"type":"LineString","properties":{"highway":"footway","gid":58071},"arcs":[625]},{"type":"LineString","properties":{"highway":"pedestrian","gid":58072},"arcs":[626]},{"type":"LineString","properties":{"highway":"steps","gid":58073},"arcs":[627]},{"type":"LineString","properties":{"highway":"footway","gid":58088},"arcs":[628]},{"type":"LineString","properties":{"highway":"footway","gid":58103},"arcs":[629,630,631,632]},{"type":"LineString","properties":{"highway":"footway","gid":58104},"arcs":[633]},{"type":"LineString","properties":{"highway":"footway","gid":58107},"arcs":[634,635]},{"type":"LineString","properties":{"highway":"footway","gid":58120},"arcs":[636,637]},{"type":"LineString","properties":{"highway":"pedestrian","gid":58135},"arcs":[638]},{"type":"LineString","properties":{"highway":"pedestrian","gid":58136},"arcs":[639]},{"type":"LineString","properties":{"highway":"pedestrian","gid":58160},"arcs":[640,641,642,643]},{"type":"LineString","properties":{"highway":"service","gid":58175},"arcs":[644,645]},{"type":"LineString","properties":{"highway":"steps","gid":58178},"arcs":[646]},{"type":"LineString","properties":{"highway":"residential","gid":58187},"arcs":[647]},{"type":"LineString","properties":{"highway":"pedestrian","gid":58188},"arcs":[648]},{"type":"LineString","properties":{"highway":"footway","gid":58189},"arcs":[649,650,651]},{"type":"LineString","properties":{"highway":"service","gid":58193},"arcs":[652]},{"type":"LineString","properties":{"highway":"service","gid":58194},"arcs":[653]},{"type":"LineString","properties":{"highway":"pedestrian","gid":58198},"arcs":[654,655]},{"type":"LineString","properties":{"highway":"footway","gid":58211},"arcs":[656,657,658]},{"type":"LineString","properties":{"highway":"residential","gid":58221},"arcs":[659,660,661,662,663]},{"type":"LineString","properties":{"highway":"pedestrian","gid":58227},"arcs":[664,665,666,667]},{"type":"LineString","properties":{"highway":"footway","gid":58254},"arcs":[668]},{"type":"LineString","properties":{"highway":"footway","gid":58256},"arcs":[669]},{"type":"LineString","properties":{"highway":"footway","gid":58259},"arcs":[670,671,672,673]},{"type":"LineString","properties":{"highway":"service","gid":58270},"arcs":[674]},{"type":"LineString","properties":{"highway":"pedestrian","gid":58274},"arcs":[675]},{"type":"LineString","properties":{"highway":"footway","gid":58285},"arcs":[676]},{"type":"LineString","properties":{"highway":"footway","gid":58316},"arcs":[677,678,679]},{"type":"LineString","properties":{"highway":"footway","gid":58344},"arcs":[680]},{"type":"LineString","properties":{"highway":"footway","gid":58345},"arcs":[681]},{"type":"LineString","properties":{"highway":"steps","gid":58363},"arcs":[682]},{"type":"LineString","properties":{"highway":"residential","gid":58380},"arcs":[683]},{"type":"MultiLineString","properties":{"highway":"motorway","gid":58386},"arcs":[[684],[685]]},{"type":"LineString","properties":{"highway":"footway","gid":58396},"arcs":[686]},{"type":"LineString","properties":{"highway":"pedestrian","gid":58398},"arcs":[687]},{"type":"LineString","properties":{"highway":"pedestrian","gid":58467},"arcs":[688]},{"type":"LineString","properties":{"highway":"pedestrian","gid":58468},"arcs":[689]},{"type":"LineString","properties":{"highway":"footway","gid":58502},"arcs":[690]},{"type":"LineString","properties":{"highway":"pedestrian","gid":58514},"arcs":[691,692]},{"type":"LineString","properties":{"highway":"footway","gid":58515},"arcs":[693]},{"type":"LineString","properties":{"highway":"footway","gid":58645},"arcs":[694]},{"type":"LineString","properties":{"highway":"pedestrian","gid":58653},"arcs":[695]},{"type":"LineString","properties":{"highway":"service","gid":58669},"arcs":[696]},{"type":"LineString","properties":{"highway":"footway","gid":58695},"arcs":[697]},{"type":"LineString","properties":{"highway":"service","gid":58752},"arcs":[698]},{"type":"LineString","properties":{"highway":"residential","gid":58788},"arcs":[699]}]},"water":{"type":null},"parks":{"type":"GeometryCollection","geometries":[{"type":"MultiPolygon","properties":{"amenity":null,"gid":8258,"name":"Hoyt Arboretum"},"arcs":[[[15,700,701,31,702,33,703,704,705,37,706,707,708,709,710,711,712,713,714,715]],[[716,18,717,20,718,719]],[[24,720]],[[29,721,27,722]]]},{"type":"Polygon","properties":{"amenity":null,"gid":8259,"name":"Vietnam Veterans of Oregon Memorial"},"arcs":[[723,10,724,12,725,14,-716,726]]},{"type":"MultiPolygon","properties":{"amenity":null,"gid":8477,"name":"Washington Park"},"arcs":[[[727,1,728,729,4,730,6,731,8,732,-727,-715,733,42]],[[734,735,-710]],[[736,-713]],[[737]]]}]}},"arcs":[[[1332,1493],[0,28]],[[1332,1521],[0,173]],[[1332,1694],[0,45]],[[1332,1739],[0,6]],[[1332,1745],[1,234]],[[1333,1979],[0,237]],[[1333,2216],[0,290]],[[1333,2506],[0,85]],[[1333,2591],[1,156]],[[1334,2747],[0,130]],[[1334,2877],[0,51]],[[1334,2928],[0,283]],[[1334,3211],[2,232]],[[1336,3443],[0,170]],[[1336,3613],[0,59]],[[1336,3672],[1,520]],[[1337,4192],[0,551],[1,442]],[[1338,5185],[-1,112]],[[1337,5297],[1,265],[-4,447]],[[1334,6009],[-6,1133]],[[1328,7142],[-6,844],[-599,-3],[-32,-25],[-80,-37],[-92,-22],[-80,-6],[-97,0],[-64,3],[-71,11],[-80,30]],[[127,7937],[-60,50],[-67,48],[658,625],[94,93],[92,97],[240,232],[178,170],[173,104],[189,62],[172,28],[198,1],[501,-63],[179,0],[181,27],[201,71],[121,66],[381,252],[197,109],[141,57],[168,30],[26,3],[12,-1757]],[[4102,8242],[2,-170]],[[4104,8072],[1,-77]],[[4105,7995],[0,-80]],[[4105,7915],[0,-161],[5,-527]],[[4110,7227],[634,16],[199,6]],[[4943,7249],[187,5]],[[5130,7254],[5,-387]],[[5135,6867],[5,-343]],[[5140,6524],[3,-251]],[[5143,6273],[3,-149]],[[5146,6124],[5,-447]],[[5151,5677],[2,-158]],[[5153,5519],[7,-373],[0,-70]],[[5160,5076],[2,-127]],[[5162,4949],[228,-1]],[[5390,4948],[227,0]],[[5617,4948],[432,-2]],[[6049,4946],[610,-3]],[[6659,4943],[32,-1536]],[[6691,3407],[3307,-12],[-508,-167],[-479,-242],[-268,-194],[-143,-181],[-407,-746],[-452,-694],[-238,-250],[-392,-291],[-279,-163],[-330,-90],[-2187,-349],[-442,-28],[-485,45],[-557,111],[-1307,345],[-192,60],[1,755]],[[1333,1316],[-1,177]],[[381,8202],[7,-11],[22,8],[24,-38],[26,5],[6,-31],[14,-5],[-24,-37],[-39,13],[7,12],[-26,-10],[-9,16],[-16,-7],[-27,15],[28,9],[-30,48],[37,13]],[[3338,4879],[-41,-5],[-40,8],[-25,16],[-21,30],[0,39],[14,27],[27,20],[36,12],[36,8],[60,-14],[39,-45],[7,-27],[-25,-38],[-35,-26],[-32,-5]],[[4104,8072],[0,-5],[-68,0],[-1,40],[69,1],[0,-36]],[[2327,1341],[13,11],[114,-19],[86,1],[42,7],[70,19],[26,-54],[27,7],[58,-22],[2,-7],[-19,-22],[-12,8],[-32,-11],[39,-92],[-69,-21],[-41,-9],[-76,-11],[5,-55],[-110,-2],[5,57],[-46,3],[-90,13],[-47,11],[-15,-6],[-122,37],[-16,2],[-65,37],[50,63],[10,18],[30,34],[-70,45],[56,45],[55,-37],[35,-15],[107,-35]],[[3360,2630],[3,-50],[-13,-6],[-1,-23],[-38,-1],[-8,37],[-32,-1],[-4,36],[36,3],[5,16],[56,3],[-4,-14]],[[2690,2562],[14,-40],[-41,1],[0,21],[-36,-1],[0,72],[56,2],[1,-18],[49,0],[2,-36],[-45,-1]],[[3613,2299],[-16,-83],[-54,7],[17,81],[53,-5]],[[3621,2342],[-5,-28],[-35,2],[3,29],[37,-3]],[[3552,2208],[-10,-41],[25,-1],[-9,-60],[55,-8],[5,34],[14,15],[97,-7],[6,-21],[-1,-36],[98,-11],[-6,-55],[-80,8],[-3,-11],[-27,4],[-5,-30],[-39,0],[-12,-39],[-77,6],[1,15],[-227,26],[22,113],[0,40],[10,32],[66,-2],[6,39],[44,-10],[47,0]],[[3806,1390],[-2,38],[-15,19],[40,32],[28,-32],[10,-34],[-26,-3],[-5,-29],[-19,-27],[-28,-16],[-18,19],[35,33]],[[3538,1626],[4,-57],[15,10],[45,2],[5,-68],[-61,-6],[1,-56],[-6,0],[55,-52],[67,-57],[-6,-6],[26,-21],[35,15],[20,-16],[22,13],[37,-34],[-22,-13],[31,-29],[-55,-35],[-5,4],[-106,-66],[-41,34],[-18,-10],[-43,37],[20,23],[-10,10],[79,50],[16,20],[-15,4],[-47,43],[-26,30],[-39,17],[-29,-1],[0,39],[-35,2],[-6,16],[-23,-6],[-5,15],[11,10],[-19,38],[13,5],[-18,34],[-24,1],[0,50],[63,9],[94,2]],[[3756,866],[-7,-41],[-11,-18],[-34,-1],[-36,27],[-3,32],[35,28],[34,1],[1,9],[30,0],[1,-36],[-10,-1]],[[3552,866],[-4,-164],[-81,0],[3,102],[-15,-1],[1,64],[96,-1]],[[3753,804],[13,-61],[-52,2],[-10,44],[49,15]],[[3303,746],[86,-154],[81,9],[42,2],[-5,25],[-37,0],[0,61],[82,-1],[-2,-78],[15,-62],[-80,-10],[-94,-12],[3,-4],[-45,-6],[-11,42],[-95,170],[60,18]],[[3763,721],[-49,-52],[-8,-14],[-109,6],[4,31],[8,10],[23,-1],[-1,-11],[38,6],[42,43],[52,-18]],[[3733,587],[-49,-41],[-50,37],[50,39],[49,-35]],[[3582,465],[2,-7],[-23,-4],[-3,8],[-52,-7],[-15,54],[83,13],[14,-56],[-6,-1]],[[4088,714],[-57,-36],[-62,58],[55,35],[64,-57]],[[3977,663],[-39,-11],[-24,41],[37,11],[26,-41]],[[3983,646],[12,-33],[59,16],[11,-26],[-21,-4],[34,-83],[-110,-26],[5,-18],[-59,-12],[-37,86],[36,5],[20,15],[-25,63],[75,17]],[[2937,523],[111,-20],[2,14],[112,-21],[-21,-47],[-214,38],[10,36]],[[3174,859],[-80,-16],[-13,37],[80,16],[13,-37]],[[2673,775],[25,-53],[-117,-30],[-25,54],[117,29]],[[2563,704],[70,-71],[-57,-32],[-70,72],[57,31]],[[5919,1607],[-21,-48],[-213,70],[23,47],[211,-69]],[[6009,1453],[-24,-27],[-31,26],[-39,-9],[-24,10],[-13,29],[-27,6],[-9,17],[30,27],[40,12],[28,-1],[39,-14],[31,-35],[-1,-41]],[[5996,1214],[131,35],[-4,6],[25,7],[48,-100],[20,6],[53,-21],[10,-23],[-12,-17],[-28,-9],[-56,20],[16,-36],[-109,-28],[-57,124],[-18,-5],[-19,41]],[[4196,1072],[-15,-55],[-187,29],[10,40],[21,12],[171,-26]],[[4192,907],[20,-9],[27,3],[8,-35],[-45,-7],[5,-20],[20,-10],[12,10],[64,-27],[2,-13],[-22,-26],[4,-16],[-109,-15],[-13,27],[6,6],[-42,26],[16,16],[-4,19],[-29,-2],[-10,49],[25,3],[14,26],[46,6],[5,-11]],[[4232,793],[9,-25],[26,15],[-14,14],[-4,16],[-17,-20]],[[5075,596],[2,-65],[-104,-1],[-1,64],[103,2]],[[4007,1669],[78,14],[39,-19],[36,5],[18,-66],[-72,-11],[3,-14],[-100,-25],[-26,107],[-47,-20],[-56,55],[89,56],[66,-69],[-28,-13]],[[4968,1642],[11,-1],[50,23],[-5,21],[21,10],[29,-13],[-43,-100],[211,-46],[-15,-45],[14,-2],[-27,-67],[-267,57],[-8,-18],[99,-21],[-22,-57],[-21,-5],[-78,14],[4,12],[-145,37],[19,34],[31,-7],[66,262],[57,-11],[-9,-27],[28,-50]],[[5532,1695],[-96,-79],[-62,42],[94,79],[64,-42]],[[4481,1673],[9,-1],[21,-27],[5,-18],[12,0],[-11,-42],[-16,5],[-16,-22],[-25,-13],[-28,-7],[-2,12],[-20,-5],[-52,12],[-29,26],[20,7],[-4,30],[8,15],[-20,9],[33,25],[40,7],[2,10],[44,-6],[29,-17]],[[4242,1599],[22,-1],[33,-17],[-10,-11],[15,-8],[-23,-23],[-13,9],[-23,-10],[-16,10],[2,19],[14,16],[-1,16]],[[5425,1359],[-9,-15],[-21,-4],[0,-17],[-44,-29],[-42,-1],[-1,-29],[32,-1],[33,-13],[18,-22],[1,-26],[-7,-21],[-35,-31],[-56,-4],[0,-14],[-129,3],[-12,10],[-23,-12],[-51,1],[-29,16],[-9,17],[0,38],[14,12],[34,16],[23,2],[-1,69],[41,4],[6,40],[141,-12],[31,1],[50,29],[26,8],[19,-15]],[[5384,1013],[-33,-25],[-49,2],[-20,19],[3,34],[32,25],[21,-5],[42,-38],[4,-12]],[[4628,1206],[-65,-26],[-46,60],[40,16],[-44,60],[70,30],[45,1],[36,-47],[-27,-13],[20,-30],[-19,-8],[7,-11],[-30,-13],[13,-19]],[[4054,1410],[-25,-19],[-25,22],[29,18],[21,-21]],[[4762,1817],[-81,-14],[-6,28],[81,14],[6,-28]],[[5202,1813],[0,-104],[-73,2],[-20,7],[7,100],[86,-5]],[[4679,2074],[131,-39],[-19,-32],[-123,41],[11,30]],[[4725,1969],[-35,-62],[-17,-6],[-43,4],[-44,24],[-7,-7],[-25,19],[13,24],[-30,-36],[-17,-11],[-17,15],[29,15],[30,57],[12,36],[34,-3],[41,-13],[10,-16],[35,-7],[29,-19],[2,-14]],[[4603,1809],[-19,-11],[-30,22],[-19,33],[-2,28],[26,0],[10,19],[27,-9],[-4,-19],[18,-31],[-7,-32]],[[4984,1770],[-35,-11],[-20,3],[-17,28],[56,20],[19,-27],[-3,-13]],[[3626,2486],[229,-28],[7,-14],[1,-29],[-32,7],[-12,-86],[-30,-1],[1,14],[-75,2],[0,-10],[-77,3],[0,14],[-46,5],[0,33],[10,52],[16,0],[3,25],[-13,12],[18,1]],[[5070,2231],[-36,-62],[-57,19],[37,61],[29,-15],[27,-3]],[[5402,2252],[-26,-55],[-48,10],[-4,-9],[-85,23],[44,80],[78,-25],[0,-13],[41,-11]],[[5304,2594],[-16,-4],[-13,27],[17,3],[12,-26]],[[5587,2681],[-153,-73],[-100,115],[154,73],[99,-115]],[[4176,1723],[51,6],[5,-26],[-51,-7],[-5,27]],[[4873,2176],[-36,14],[23,32],[36,-14],[-23,-32]],[[4613,2214],[21,-10],[-21,-24],[-21,10],[21,24]],[[4474,2307],[130,-67],[-51,-58],[-131,67],[52,58]],[[4430,2331],[40,7],[6,-22],[-39,-6],[-7,21]],[[4563,2338],[69,55],[97,-67],[0,-15],[-59,-46],[-107,73]],[[4173,2442],[39,7],[11,-35],[-37,-7],[-13,35]],[[4404,2464],[-23,-25],[-51,22],[23,26],[51,-23]],[[4278,2537],[31,42],[39,-17],[-33,-42],[-37,17]],[[3536,1671],[90,10],[22,-1],[2,-18],[-22,-2],[3,-13],[-89,-10],[-6,34]],[[3536,1671],[-10,-15],[-42,11],[10,19],[42,-15]],[[3349,1038],[10,-12],[20,8],[61,-74],[-228,-112],[-63,77],[108,54],[-9,9],[101,50]],[[4197,557],[91,95],[52,-31],[-97,-90],[-46,26]],[[5610,2888],[94,-91],[-69,-39],[-93,91],[68,39]],[[6680,1503],[-6,-247],[-79,1],[9,247],[76,-1]],[[6248,1097],[26,8],[39,-36],[11,-35],[-50,-13],[-26,76]],[[5923,1010],[-25,-31],[-50,26],[30,32],[45,-27]],[[6216,909],[43,-61],[-255,-131],[-45,74],[178,81],[8,-13],[21,10],[-6,14],[56,26]],[[5769,2949],[22,-18],[14,6],[47,-55],[-17,-11],[23,-28],[-38,-21],[-25,27],[-19,-6],[-51,65],[15,7],[-11,13],[40,21]],[[4710,1421],[5,13],[42,-6],[-3,-12],[-44,5]],[[5645,1577],[21,36],[136,-46],[-21,-36],[-136,46]],[[6025,1293],[-2,31],[72,2],[1,-31],[-71,-2]],[[3635,5763],[145,-28],[-14,-40],[-57,10],[0,-9],[-16,-52],[-6,-4],[-60,12],[10,30],[27,-5],[11,34],[-53,12],[13,40]],[[3856,5693],[-79,14],[14,40],[80,-15],[-15,-39]],[[2987,5699],[47,44],[61,-36],[-47,-44],[-61,36]],[[2043,2198],[-6,18],[59,15],[40,16],[68,22],[12,-23],[-29,-14],[-88,-26],[-56,-8]],[[2054,2444],[71,-38],[13,-64],[-52,-54],[-85,-11],[-73,39],[-13,64],[49,53],[90,11]],[[2124,2542],[-135,71],[-26,117],[96,100],[161,22],[128,-70],[29,-123],[-15,-15],[27,-16],[-70,-75],[-28,17],[-8,-8],[-159,-20]],[[1906,1887],[-23,68],[-9,-2],[-13,37],[57,18],[30,22],[16,19],[13,33],[-5,46],[46,8],[5,-11],[93,16],[7,-62],[-7,-29],[-17,-41],[46,-20],[-46,-56],[-41,24],[-34,-25],[-40,-23],[-56,-18],[-22,-4]],[[1662,1906],[-82,28],[-26,54],[-34,12],[47,78],[182,51],[51,85],[50,-16],[4,9],[20,-6],[-49,-83],[5,-13],[-9,-14],[-32,1],[-33,-53],[24,-49],[-36,-61],[-82,-23]],[[4813,739],[-28,-9],[-26,40],[51,19],[5,-8],[57,22],[10,-3],[30,-45],[-89,-32],[-10,16]],[[4807,692],[59,19],[31,-48],[-57,-21],[-33,50]],[[5135,932],[18,20],[59,-22],[-27,-30],[46,-35],[37,-42],[-19,-23],[-59,-3],[-23,-27],[-26,-8],[-51,4],[-15,8],[-46,3],[5,6],[-52,56],[-24,38],[27,30],[14,-6],[55,59],[81,-28]],[[5045,826],[29,-18],[51,-1],[32,12],[20,20],[-132,68],[-30,-34],[30,-47]],[[5069,2702],[78,-119],[-341,-127],[-15,23],[-71,-28],[-25,38],[70,27],[-40,60],[344,126]],[[4715,2448],[-6,-13],[-24,-7],[-20,12],[-1,12],[22,17],[24,-8],[5,-13]],[[5121,176],[-280,-45],[-255,-35],[-266,-30],[-189,-12],[-156,-3],[-93,-1],[-193,9],[-97,8],[-79,10],[-214,32],[-128,23],[-177,38],[-189,46],[-387,97],[-1086,274]],[[4090,9994],[-138,-21],[-80,-25],[-131,-46]],[[3150,9534],[-71,-42],[-120,-53],[-79,-25],[-85,-20],[-71,-14],[-134,-8],[-89,0],[-235,22],[-320,39],[-69,3],[-138,-3],[-85,-11],[-56,-13]],[[1454,9362],[-50,-27]],[[1318,9285],[-68,-55],[-425,-404]],[[825,8826],[-56,-53]],[[67,8098],[-67,-64]],[[4105,7849],[-128,-138],[-136,-137],[-66,-66],[-57,-64]],[[3718,7444],[-54,-73]],[[3664,7371],[-31,-65],[-5,-28],[0,-75],[5,-41],[37,-113],[51,-138],[19,-84],[4,-51],[-4,-96],[-11,-58],[-19,-59],[-25,-51],[-101,-177],[-28,-60],[-20,-71]],[[3536,6204],[-13,-62],[-11,-76],[-16,-265],[-11,-77]],[[3485,5724],[-20,-53],[-40,-83],[-37,-71],[-54,-67],[-61,-64]],[[3273,5386],[-27,-27]],[[3246,5359],[-43,-32],[-71,-44],[-78,-39],[-76,-32],[-93,-34],[-439,-123]],[[2446,5055],[-300,-80]],[[2146,4975],[-356,-96]],[[1790,4879],[-453,-122]],[[1834,579],[-259,59],[-104,23],[-138,36]],[[825,8826],[-5,0]],[[3536,6204],[-71,6],[-59,-2]],[[3406,6208],[-43,-5],[-44,-14],[-38,-24],[-34,-40],[-36,-79]],[[3211,6046],[-18,-35],[-27,-26],[-35,-17],[-45,-9],[-44,0],[-60,9],[-106,31],[-27,5]],[[2849,6004],[-73,-2],[-67,-19],[-68,-26],[-66,-40],[-66,-34]],[[2509,5883],[-63,-38],[-44,-14],[-57,-11],[-47,2],[-46,6],[-46,11]],[[2206,5839],[-110,47]],[[2096,5886],[-90,24],[-111,26],[-50,23],[-36,31]],[[1809,5990],[-13,20],[-12,72]],[[1784,6082],[12,74],[15,51],[18,40],[36,56],[30,40],[54,57],[121,116],[55,63],[45,71],[46,81],[63,155]],[[2279,6886],[75,307],[14,83],[9,112],[-3,89],[-7,38],[-20,63],[-28,96]],[[2319,7674],[-32,111],[-25,69],[-35,69],[-43,67],[-131,171],[-56,90],[-128,246],[-30,67],[-9,59],[12,92],[29,84],[65,137],[12,38],[-1,21],[-20,42],[-22,24],[-23,15],[-37,14],[-36,2],[-67,-4],[-60,-15],[-41,-23],[-29,-27],[-101,-142],[-117,-171],[-226,-284],[-160,-168],[-162,-156],[-185,-159]],[[143,7931],[-25,15]],[[1727,784],[-69,0]],[[1658,784],[-132,4],[-77,4],[-116,12]],[[1631,1319],[-45,20],[-69,37],[-32,31],[-46,58],[-9,24],[-2,44],[30,135],[-2,51],[-27,102],[-32,70]],[[1397,1891],[-25,73],[6,71],[21,55],[26,35],[31,27],[49,28]],[[1505,2180],[97,57],[49,35],[22,20],[16,30],[14,58],[-9,70],[-21,73]],[[1673,2523],[-41,47]],[[1632,2570],[-32,28],[-28,19],[-92,41]],[[1480,2658],[-15,7],[-62,61],[-33,59],[8,26],[81,24],[85,46],[83,94],[32,31],[44,22],[34,36],[-17,35],[-31,18],[-35,30],[-158,74],[-41,34],[-77,49],[-30,35],[-10,70],[18,110],[48,65],[112,39],[80,43],[50,48],[78,64]],[[2308,8041],[39,-25],[16,-23],[5,-27],[-3,-194],[-13,-55],[-15,-28],[-18,-15]],[[2319,7674],[-27,2],[-15,10],[-36,91],[-49,78],[-68,86],[-24,20],[-68,34],[-105,103],[-26,10],[-27,0],[-115,-21]],[[1759,8087],[-9,35],[-28,184],[-19,76],[-50,127],[-2,25],[6,30],[-9,90],[-19,19],[-38,-5],[-29,-22],[-6,-114],[-10,-76],[-15,-34],[-4,-30],[-44,-69],[-66,-72],[-17,-95],[-8,-84]],[[1392,8072],[-30,-74]],[[1362,7998],[10,-36],[0,-65],[-20,-218],[-11,-91],[16,-46],[52,-40],[9,-45],[-19,-84],[-1,-33],[-8,-21],[5,-68],[40,-117],[-7,-27],[-24,-38],[-16,-21],[-39,-65],[-6,-46],[14,-53],[67,-51],[1,-51],[-62,-232],[-15,-163],[1,-36],[20,-34],[28,-111],[30,-30],[39,35],[15,4]],[[1481,6215],[18,-6],[11,-29],[-5,-27],[-41,-47],[-57,-50],[-61,-31],[2,-28],[66,-44],[24,-23],[11,-23],[-18,-121],[18,-16]],[[1362,7998],[28,-12],[18,-22],[21,-95],[15,-125],[15,-17],[63,-38]],[[1367,5678],[78,-67],[62,8],[122,-43],[35,-21],[24,-35],[36,-15],[49,-2],[42,16]],[[1815,5519],[34,-52],[56,-71],[17,-31]],[[1922,5365],[67,20],[29,-3],[40,-35],[41,-19],[77,-14],[147,-76],[37,2],[69,40],[92,32],[83,50],[83,54],[38,53]],[[2725,5469],[151,26],[50,1],[37,11],[151,94]],[[3114,5601],[31,19]],[[3145,5620],[81,9]],[[3226,5629],[2,66],[28,108],[16,19],[29,17],[24,60],[44,79]],[[3369,5978],[15,33],[26,128],[-4,69]],[[3406,6208],[-2,76],[-9,25]],[[3395,6309],[41,69],[24,32],[50,38],[-5,113],[57,84],[-4,57],[-16,85],[15,64],[0,136],[-44,159],[-12,53],[17,30],[18,62],[50,80],[41,10]],[[2637,7937],[-4,-55],[5,-95],[10,-52],[-1,-40],[-76,-86],[-13,-41],[-26,-165],[13,-198],[-8,-45],[-31,-87]],[[2506,7073],[0,-35],[-36,-134],[-62,-91],[-45,-82]],[[2363,6731],[-87,-150],[-19,-48],[-26,-39],[-35,-19],[-127,-90],[-87,-83],[-39,-23],[-56,-20],[-31,-30],[-27,-51],[-23,-76],[-22,-20]],[[1784,6082],[-146,16]],[[1638,6098],[-112,-65],[-20,-32],[4,-30],[21,-30],[-1,-29],[-24,-43],[-33,-46],[-24,-53]],[[1449,5770],[-19,-46],[-63,-46]],[[1505,2180],[-71,-5],[-15,14],[26,54],[38,31],[83,35],[71,14],[-5,13],[-52,-4],[-25,6],[-130,-3],[-43,6],[-12,11],[15,40],[18,17],[92,34],[32,27],[12,16],[26,65]],[[1565,2551],[21,12],[46,7]],[[1632,2570],[61,14],[30,12]],[[1537,4556],[-118,17],[-15,9],[-11,29],[17,25],[142,68],[91,35],[55,24],[85,48],[27,34],[-20,34]],[[1790,4879],[-12,24],[-49,3],[-195,126],[-24,5],[-21,-6],[-81,-39],[-25,9],[39,69],[63,77],[-7,18],[-56,-19],[-30,-1],[1,87],[15,39],[25,24],[40,14],[41,4]],[[1514,5313],[-38,6],[-16,20],[47,99],[20,11],[31,3],[68,-12],[60,-19],[36,-3],[28,9],[59,68],[6,24]],[[2506,7073],[-45,-58],[-50,-90],[-41,-25],[-91,-14]],[[2279,6886],[-79,11],[-86,42],[16,35],[97,70],[-5,75],[9,33],[2,128],[-20,121],[-24,79],[-76,56],[-66,24],[-44,4],[-113,24],[-34,28],[44,44],[25,43],[-24,77],[-27,39],[-50,52]],[[1824,7871],[-21,26],[-28,22],[-30,5],[-133,-44],[-36,19],[-45,106],[-40,54],[-26,12],[-41,9],[-32,-8]],[[1397,1891],[63,4],[84,-7]],[[1480,9352],[-14,13]],[[1481,6215],[3,24],[-9,35]],[[1475,6274],[-12,10],[0,22],[30,65],[63,114]],[[1556,6485],[-20,16],[-31,43],[4,23],[31,33],[40,22],[93,6],[20,9],[16,18],[5,18],[-21,32],[-24,12],[-59,17]],[[1610,6734],[-22,1],[-37,18],[-15,25],[-5,55],[24,54],[-1,19],[-25,61],[17,42],[35,39],[46,23],[20,4],[72,4],[37,13],[33,25],[24,52],[3,46],[-6,31],[-22,62],[-4,16],[30,65],[-19,48]],[[1795,7437],[-42,-1],[-121,9],[-29,13],[-35,33],[-43,63],[-31,65],[6,53],[22,17]],[[1522,7689],[60,32],[55,18]],[[1556,6485],[27,9],[38,-22],[13,-18],[5,-27],[-17,-36],[-49,-28],[-28,-30],[0,-37],[21,-45],[-12,-10],[-28,7],[-22,15],[-29,11]],[[1565,2551],[-61,62],[-24,45]],[[2308,8041],[-51,29],[-27,25],[-12,21],[-92,77],[-26,46],[-1,26],[37,31],[29,4],[20,10],[1,19],[-29,10],[-23,39],[-23,19],[-20,86],[-27,50],[5,50],[-7,21],[2,38],[19,71],[13,17],[8,45],[58,43],[12,19],[2,24],[19,33],[37,26],[25,23],[11,34],[25,16],[49,67],[-14,52],[-34,41],[-71,48],[-66,19],[-57,8],[-154,43],[-77,16],[-108,1],[-58,-22],[-111,15],[-82,44],[-30,27]],[[1502,1965],[42,-77]],[[1544,1888],[78,-23],[222,-27],[374,-41]],[[1922,5365],[-7,-38],[-24,-37],[-27,-19],[-34,-8],[-36,4],[-94,34],[-118,52],[-38,6],[-24,-14],[-6,-32]],[[1514,5313],[6,-16],[36,-35],[61,-36],[52,-40],[69,-80],[16,-27],[52,-43],[95,-21],[153,-10],[65,-13],[27,-17]],[[1537,4556],[-6,20],[15,39],[35,24],[121,23],[81,5],[33,-11],[222,-11],[163,1],[83,24],[121,15],[115,9],[78,18],[101,45],[29,19],[27,8]],[[1571,4044],[0,16],[-25,50],[45,145],[-9,42],[15,39],[-4,91],[-56,129]],[[1724,3778],[-48,54],[-86,156],[-19,56]],[[2196,4044],[-41,-23],[-37,-47],[-60,-24],[-51,-5],[-61,16],[-81,53],[-34,13],[-117,15],[-92,7],[-51,-5]],[[2179,3723],[-54,-5],[-53,7],[-93,1],[-94,-11],[-92,-27],[-85,-42],[-76,-67],[-25,-35],[-22,-67],[-4,-36],[6,-56],[34,-67],[62,-56],[39,-24],[88,-31],[93,-5],[85,14]],[[1988,3216],[70,41],[30,29]],[[1638,6098],[65,96],[5,59],[16,34],[34,44],[11,26],[11,100],[-9,101],[-8,33],[21,45],[0,52],[-14,84],[9,66],[-10,32],[-30,3],[-71,-14],[-31,-36],[-9,-44],[-23,-37],[5,-8]],[[1778,1249],[-34,22],[-113,48]],[[1700,841],[-37,-28],[-5,-29]],[[1673,2523],[30,36],[20,37]],[[1723,2596],[7,50],[-22,110],[2,23],[24,52],[61,82],[65,67]],[[1860,2980],[66,24],[87,46],[87,32],[99,25],[195,41],[76,5],[51,-4],[52,-35]],[[1727,784],[0,21],[-27,36]],[[1700,841],[23,21],[26,11],[35,33],[30,12],[63,10],[45,1],[25,12],[12,35],[-10,27],[-122,69],[-48,41],[-9,16],[3,32],[17,46],[-12,42]],[[1766,437],[47,101]],[[2091,1748],[-67,3]],[[2024,1751],[-141,6]],[[1883,1757],[-134,8],[-15,-132],[-16,-209],[45,0],[104,73]],[[1867,1497],[146,107],[11,147]],[[1931,728],[-82,43],[-49,11],[-73,2]],[[2196,4044],[-1,-87],[-19,-37],[-42,-38],[-38,-22],[-73,-30],[-44,-10],[-49,-2],[-137,10],[-32,-10],[-28,-21],[-9,-19]],[[1824,7871],[20,13],[8,51],[-15,87],[-23,10],[-75,5],[6,31],[14,19]],[[2079,3483],[-64,37],[-38,11],[-74,3],[-42,-9],[-31,-11],[-50,-37],[-20,-27],[-6,-28],[5,-50],[36,-44],[29,-18],[53,-14],[30,-3],[60,11],[26,10],[41,37],[15,31]],[[1815,5519],[-1,73],[-13,34],[-45,73],[24,8],[41,0],[39,6],[40,20]],[[2817,7733],[13,-39],[61,-85],[6,-28],[-36,-39],[-25,-12],[-31,-24],[-9,-22],[4,-46],[25,-44],[4,-34],[-8,-106],[10,-17]],[[2831,7237],[66,-76],[15,-22],[0,-45],[-26,-17],[-115,-31],[-67,-43],[-66,-79],[-26,-52],[-5,-44]],[[2607,6828],[-1,-47],[18,-79],[-6,-48],[-103,-5],[-35,-34],[-37,-88],[1,-38],[10,-25],[45,-38],[1,-20],[-37,-23],[-96,-23],[-44,-15],[-41,-24],[-47,-46],[-5,-33],[15,-72]],[[2245,6170],[5,-24],[-22,-70],[-13,-18],[-30,-4],[-133,67],[-59,13],[-25,-7],[-30,-38],[-101,-80],[-28,-19]],[[1809,5990],[-8,-15],[-1,-49],[10,-75],[-41,-21],[1,-8],[89,-51],[41,-38]],[[1900,5733],[48,-7],[85,-24],[39,-19],[62,-67],[42,-66],[91,-59],[30,-14],[195,-53],[69,-3],[61,7],[103,41]],[[1778,1249],[13,4],[13,29],[16,9],[27,1]],[[1883,7466],[-73,-20],[-15,-9]],[[2020,3384],[-22,-30],[-25,-16],[-31,-10],[-32,-3],[-34,5],[-27,12],[-24,19],[-14,21],[-2,37],[11,24],[20,21],[29,13],[31,8],[64,-8],[33,-20],[22,-38]],[[1813,538],[21,41]],[[1834,579],[47,89],[50,60]],[[1847,1292],[4,-27],[20,-32],[22,-15],[83,-38],[63,-29],[133,-43],[134,-30],[69,-11],[58,-7],[63,-2]],[[2238,1622],[-42,-19],[-56,-42],[-254,-197],[-27,-37],[-12,-35]],[[1860,2980],[112,96],[16,51],[0,89]],[[1883,1757],[-16,-260]],[[1900,5733],[89,61],[49,45],[58,47]],[[1931,728],[81,49],[47,21]],[[2497,3335],[-293,30],[-155,17]],[[2049,3382],[-29,2]],[[2019,3419],[39,-6]],[[2058,3413],[112,-13],[331,-35]],[[2049,3382],[9,31]],[[5121,176],[-544,-27],[-335,-19],[-192,-3],[-172,7],[-140,11],[-114,12],[-174,29],[-116,23],[-296,68],[-330,83],[-101,28],[-88,34]],[[2519,422],[-84,30],[-62,35],[-59,42],[-52,49],[-149,163],[-54,57]],[[2597,900],[-360,-60],[-97,-17],[-81,-25]],[[2088,3286],[16,23],[20,55],[-9,70],[-36,49]],[[2208,1744],[-117,4]],[[2128,2241],[37,15],[90,17]],[[2255,2273],[13,0],[30,15],[41,32],[15,2]],[[2637,4148],[-158,-119],[-51,-49],[-190,-211],[-18,-25],[-41,-21]],[[2301,2214],[-34,-1],[-12,60]],[[2255,2273],[-13,47],[-47,33],[41,29],[73,9],[41,14],[27,13],[10,18]],[[2387,2436],[2,59],[10,10]],[[2587,4274],[-164,-46],[-80,-39],[-62,-56],[-85,-89]],[[3137,8005],[3,-92],[-35,-126],[9,-73],[1,-60],[26,-81],[15,-78],[-20,-55],[-1,-42],[10,-104],[20,-199]],[[3165,7095],[9,-39],[-3,-35],[-10,-29],[-24,-28]],[[3137,6964],[-37,-22],[-60,-11],[-61,-7],[-57,-16],[-42,-27],[-33,-35],[-21,-44],[-7,-86],[32,-109],[-11,-37],[-35,-36],[-60,-24],[-37,-13],[-30,-20],[-15,-38],[16,-45],[130,-134]],[[2809,6260],[17,-38],[-12,-29],[-30,-25],[-137,-34],[-50,-28],[-36,-34],[-28,-33]],[[2533,6039],[-21,-38],[4,-68],[-7,-50]],[[2509,5883],[-12,-74],[4,-153],[-16,-38],[-30,-27],[-35,-13],[-28,-3],[-29,5],[-51,19],[-35,33],[-22,47],[-49,160]],[[2542,2433],[-12,-41],[-21,-35],[-34,-44],[-46,-42],[-39,-31],[-27,-31],[-25,-36]],[[2338,2173],[-20,-31],[-12,-31],[-30,-98]],[[2276,2013],[-34,-126]],[[2242,1887],[-17,-64]],[[2225,1823],[-7,-26]],[[2218,1797],[-10,-53]],[[2208,1744],[0,-38],[18,-64],[12,-20]],[[2225,1823],[82,32]],[[2307,1855],[25,0],[26,8]],[[2238,1622],[33,-45],[37,-34],[66,-35],[70,-25],[72,-10],[55,-3]],[[2242,1887],[65,-32]],[[2533,6039],[-18,85],[-26,10],[-25,-7],[-74,-62],[-27,4],[-19,13],[-18,29],[-81,59]],[[2389,1999],[-39,2],[-74,12]],[[2291,2189],[47,-16]],[[2338,2173],[105,-42]],[[2291,2189],[10,25]],[[2301,2214],[5,26],[39,43],[9,39]],[[2354,2322],[25,27],[40,10],[51,28],[19,25]],[[2489,2412],[16,52],[2,45],[-3,66]],[[2504,2575],[-2,34]],[[2519,422],[-64,43],[-76,47],[-24,18],[-37,60],[-11,38],[1,66],[11,30],[40,51],[30,26],[47,28],[44,15],[56,14],[61,42]],[[3627,7381],[1,32],[-6,126],[-31,89],[-39,56],[-75,62],[-18,37],[-12,41],[-83,102],[15,24],[51,13],[52,21],[13,40],[26,18],[52,27],[14,27],[11,52]],[[3598,8148],[-27,-14],[-10,-25],[-33,-18],[-175,30],[-65,15],[-41,4],[-19,16],[-62,2],[-29,7]],[[3137,8165],[-26,2],[-33,-15],[-29,-31],[-15,-50],[8,-27],[-12,-88],[-17,-32],[-8,-66],[-37,-103],[-27,-24],[-24,3],[-10,29],[9,80],[-35,93],[-24,25],[-1,-35],[-26,-78],[-5,-40],[14,-39],[-22,-36]],[[2817,7733],[-6,10],[9,24],[-36,157],[-44,79],[-7,55],[25,97],[-4,20],[-23,-41],[-26,-21],[-17,-82],[-36,-62],[-4,-26],[-11,-6]],[[2637,7937],[-10,-9],[-29,10],[-22,21],[1,37],[30,58],[9,142],[-26,21],[-30,-32],[-45,-123],[-31,-4],[-85,99],[-14,-25],[23,-58],[-14,-21],[-52,-13],[-34,1]],[[3247,1771],[-313,-88]],[[2934,1683],[-432,-124],[-36,4],[-40,14],[-44,24],[-34,25]],[[2348,1626],[-22,32],[-9,25],[-1,47]],[[2316,1730],[42,133]],[[2358,1863],[31,136]],[[2389,1999],[26,98],[28,34]],[[2316,1730],[520,148]],[[2836,1878],[462,132]],[[2348,1626],[538,153]],[[2886,1779],[386,112]],[[2358,1863],[423,121]],[[2781,1984],[546,156]],[[2563,2927],[-37,0],[-45,-14],[-63,-72],[-19,-33],[-1,-39],[21,-94],[-10,-61],[-30,-31]],[[2379,2583],[-20,10]],[[2363,6731],[41,-10],[36,1],[72,33],[79,66],[16,7]],[[2368,2527],[31,-22]],[[2373,2548],[-5,-21]],[[2387,2565],[-14,-17]],[[2379,2583],[15,-9]],[[2394,2574],[9,9]],[[2389,1999],[67,14],[273,77]],[[2729,2090],[516,146],[23,22]],[[2387,2436],[102,-24]],[[2394,2574],[-7,-9]],[[2403,2583],[18,15]],[[2421,2598],[17,9]],[[2438,2607],[33,1]],[[2443,2131],[231,65]],[[2674,2196],[211,57],[110,15],[198,4],[75,-14]],[[2443,2131],[124,146]],[[2567,2277],[56,20]],[[2623,2297],[111,34],[93,24],[131,14],[182,6],[351,-14]],[[2446,5055],[49,-75],[31,-42],[40,-39],[75,-50],[83,-31],[73,-22]],[[2797,4796],[126,-41],[202,-85],[117,-60],[112,-67],[74,-80],[56,-70],[42,-46],[56,-38],[81,-45],[101,-50],[25,-21],[17,-30],[5,-23],[-5,-40],[-14,-23],[-26,-24],[-42,-22]],[[3724,4031],[-62,-5],[-49,6],[-46,16],[-86,37],[-189,117],[-71,38],[-65,16],[-45,0],[-53,-6],[-55,-22],[-32,-21],[-29,-35],[-15,-39],[-4,-47]],[[2471,2608],[31,1]],[[2937,3771],[-35,-8],[-56,-29],[-35,-41],[-77,-100],[-42,-36],[-140,-105]],[[2552,3452],[-21,-25],[-30,-62]],[[2501,3365],[-4,-30]],[[2497,3335],[7,-64]],[[2504,2575],[44,2]],[[2504,3271],[7,-28]],[[2511,3243],[31,-24],[69,-32],[37,-14]],[[3502,2427],[-77,10],[-35,9]],[[3390,2446],[-147,10],[-174,-1],[-101,-4],[-178,-12]],[[2790,2439],[-61,4],[-106,-16],[-36,-1]],[[2587,2426],[-45,7]],[[2548,2577],[4,-64],[-1,-40],[-9,-40]],[[2688,3245],[-40,-72]],[[2648,3173],[-31,-69]],[[2617,3104],[-25,-74],[-29,-103]],[[2563,2927],[-12,-53],[-8,-122],[5,-175]],[[2548,2577],[48,2]],[[2552,3452],[20,-16],[65,-14],[41,5],[46,23],[51,37],[61,9],[31,-9],[41,-20]],[[2568,1508],[3,-38]],[[2571,1470],[87,13],[153,44]],[[3212,1695],[-246,-72]],[[2966,1623],[-398,-115]],[[2790,2439],[-76,-31],[-68,-41],[-39,-38]],[[2607,2329],[-40,-52]],[[2573,3114],[44,-10]],[[2617,3104],[34,-6]],[[2592,2455],[-5,-29]],[[2587,2426],[-6,-47],[26,-50]],[[2607,2329],[16,-32]],[[2623,2297],[51,-101]],[[2674,2196],[55,-106]],[[2729,2090],[25,-51]],[[2754,2039],[27,-55]],[[2781,1984],[55,-106]],[[2836,1878],[50,-99]],[[2886,1779],[48,-96]],[[2934,1683],[32,-60]],[[2637,4148],[15,16],[6,30],[-5,26],[-26,35],[-40,19]],[[2587,4274],[40,37],[40,63],[79,96],[42,33]],[[2597,2524],[0,-46]],[[2597,2478],[-5,-23]],[[2597,2478],[101,-1]],[[2596,2579],[1,-55]],[[2597,2524],[60,4]],[[2933,957],[-336,-57]],[[2959,3836],[-33,5],[-20,11],[-38,35],[-47,60],[-27,26],[-34,6],[-31,12],[-20,23],[-4,21],[10,22],[-7,64],[-20,10],[-51,17]],[[2653,2581],[4,-53]],[[2653,2581],[121,4]],[[2972,3107],[-218,-56]],[[2754,3051],[-50,-16],[-34,-128]],[[2670,2907],[-17,-125]],[[2653,2782],[0,-60],[169,0],[85,13],[59,18]],[[2966,2753],[459,126]],[[2653,2782],[624,179]],[[2651,3098],[73,13],[30,-60]],[[2657,2528],[11,-6],[63,5],[49,-2]],[[2670,2907],[455,125]],[[3511,2671],[0,85],[-12,35]],[[3499,2791],[-13,28],[-26,29],[-35,31]],[[3425,2879],[-56,36],[-92,46]],[[3277,2961],[-152,71]],[[3125,3032],[-137,68]],[[2988,3100],[-16,7]],[[2972,3107],[-106,52],[-76,39],[-102,47]],[[2972,3771],[26,-90],[7,-57],[-2,-24],[-15,-47],[-25,-36],[-55,-50]],[[2908,3467],[-67,-64]],[[2841,3403],[-113,-103],[-40,-55]],[[2698,2477],[149,14]],[[2754,2039],[564,160],[20,-1]],[[3338,2198],[26,-2],[39,21],[76,52]],[[2755,4784],[60,-24],[-14,-29]],[[2755,4784],[42,12]],[[2797,4796],[52,12]],[[2774,2585],[524,23]],[[2780,2525],[40,4]],[[3719,4058],[-8,63],[-27,36],[-166,111],[-137,112],[-119,88],[-39,18],[-81,24],[-32,5],[-244,-3],[-78,-9]],[[2801,4731],[9,-103],[-9,-66],[-13,-59]],[[2809,6260],[61,90],[11,45],[22,20],[53,8],[52,2],[24,-11]],[[2811,1527],[94,-2],[74,-14],[82,-38]],[[3061,1473],[35,-28],[25,-38],[51,-156],[5,-38]],[[3081,1532],[-58,16],[-65,10],[-56,1],[-51,-5],[-40,-27]],[[2820,2529],[21,3]],[[2841,2532],[14,8],[46,5],[57,32],[42,10]],[[3000,2587],[44,0],[41,-12],[42,3],[14,16],[1,25],[-12,20],[-9,27],[-21,22],[-73,20],[-9,10]],[[3018,2718],[-35,3]],[[2831,7237],[54,-4],[21,8],[37,118],[13,16],[25,6],[72,-181],[112,-105]],[[2988,3100],[37,47],[3,25],[-25,98],[-20,36],[-142,97]],[[2847,2491],[-6,41]],[[2847,2491],[100,9],[19,28],[33,10]],[[2999,2538],[35,-11],[22,-16],[161,0],[120,-6]],[[3337,2505],[93,-17]],[[2849,4808],[110,39],[90,4],[153,-28]],[[3137,8165],[-12,-35],[5,-29],[66,-22],[20,-19],[20,-96],[-18,-55],[4,-20],[40,-28],[35,-62],[16,-53],[52,-78],[85,-68],[-1,-35]],[[3449,7565],[-21,-34],[-109,-137],[-104,-142],[-12,-28],[-5,-71],[34,-88],[-36,-128],[-24,-24],[-27,-13]],[[3145,6900],[-111,-43],[-77,-59],[-29,-33],[4,-39],[39,-22],[78,-11],[25,-9],[39,-79],[44,-48],[44,-58],[-5,-41],[-19,-35],[-86,3],[-59,-12]],[[3032,6414],[-33,-47],[-16,-49],[11,-19],[-2,-23],[18,-61],[13,-18]],[[3023,6197],[9,-105],[7,-20],[27,-29],[-5,-20],[-185,9],[-27,-28]],[[2849,6004],[0,-17],[56,-79],[77,-37],[97,-63],[22,-31],[34,-81],[-6,-52],[16,-24]],[[6267,2970],[-364,93],[-113,16],[-126,10],[-55,-4],[-77,-19],[-47,-18],[-100,-59],[-107,-68],[-54,-21],[-56,-9],[-115,-4],[-54,-5],[-52,-12],[-309,-68],[-40,-3],[-117,12],[-70,15],[-88,53],[-65,58],[-97,115],[-153,233],[-54,50],[-86,40],[-133,69],[-132,100],[-62,60],[-44,52],[-30,48],[-28,66]],[[3439,3770],[-33,113],[-27,51],[-31,37],[-49,34],[-67,28],[-86,25],[-118,22],[-105,6]],[[2923,4086],[6,-82],[30,-168]],[[2983,867],[-50,90]],[[3177,1213],[-3,-48],[-14,-46],[-25,-40],[-40,-39],[-45,-30],[-82,-29],[-35,-24]],[[2933,957],[66,0],[50,18],[132,71],[36,30]],[[2937,3771],[35,0]],[[2972,3771],[42,0]],[[2959,3836],[4,-25]],[[2963,3811],[9,-40]],[[2966,2753],[17,-32]],[[2983,2721],[10,-74]],[[2963,3811],[147,19]],[[3577,421],[-32,1],[-78,17],[-108,42],[-65,30],[-88,48],[-35,25],[-44,41],[-38,50],[-60,111]],[[3029,786],[-25,37],[-21,44]],[[2999,2538],[1,49]],[[3000,2587],[-7,60]],[[3404,3763],[-41,0],[-41,33],[-227,-26],[-55,6],[-26,-5]],[[3018,2718],[38,0],[363,103],[25,-46]],[[3023,6197],[113,-93],[75,-58]],[[3211,6046],[24,-15],[134,-53]],[[3606,955],[-49,-20],[-127,-43],[-20,-10],[-24,-22],[-21,-50]],[[3365,810],[-143,-32],[-46,-8],[-73,0],[-74,16]],[[3081,1532],[-16,-29],[-4,-30]],[[4073,3969],[-44,31]],[[4029,4000],[-5,18],[10,41],[19,45],[46,87],[56,121],[-3,51]],[[4152,4363],[-25,24],[-22,6],[-164,23],[-46,12],[-60,24],[-61,31],[-85,55],[-63,49],[-100,87],[-91,55],[-142,47],[-91,47]],[[3202,4823],[-30,26],[-71,32],[-17,21],[-9,27],[8,27],[38,42],[56,38],[77,30]],[[3249,1187],[-14,59],[-49,150],[-10,30],[-27,41],[-68,65]],[[3081,1532],[78,75]],[[3110,3830],[171,23],[-15,45],[-50,37],[-76,20],[-50,-4],[20,-121]],[[3114,5601],[1,-59],[25,-38],[50,-43],[67,-46],[-36,-42]],[[3137,6964],[8,-64]],[[3263,1601],[-58,11],[-46,-5]],[[3159,1607],[41,29],[23,34]],[[3177,1213],[31,-16],[41,-10]],[[3249,1187],[53,-6],[57,3],[66,24]],[[3202,4823],[39,-7],[42,0],[81,17],[142,13],[212,-5],[83,3],[67,8]],[[3232,1692],[-20,3]],[[3217,1076],[10,17],[20,63],[2,31]],[[3217,1076],[25,1],[76,34],[87,65],[20,32]],[[3221,5373],[25,-14]],[[3246,5359],[33,-21],[75,-34],[27,-6],[55,-2],[20,5]],[[3456,5301],[18,3]],[[3263,1601],[-40,69]],[[3223,1670],[9,22]],[[3232,1692],[15,79]],[[3247,1771],[15,76]],[[3262,1847],[10,44]],[[3272,1891],[26,119]],[[3298,2010],[29,130]],[[3327,2140],[11,58]],[[3338,2198],[7,35],[34,31]],[[3379,2264],[68,50],[30,27],[14,20]],[[3491,2361],[11,66]],[[3226,5629],[61,5],[76,23],[72,36],[9,33]],[[3442,5276],[-109,-73],[-66,-49],[-20,-40],[9,-25],[22,-17]],[[3868,4852],[-124,76]],[[3744,4928],[-45,22],[-67,29],[-152,53],[-121,31],[-70,11],[-11,-2]],[[3278,5072],[-24,-6]],[[3425,1208],[17,39],[2,25],[-8,26],[-103,201],[-25,33],[-45,69]],[[3345,1836],[-83,11]],[[3449,7565],[40,-18],[7,-26],[-6,-64],[-16,-37],[-33,-42],[-48,-87],[-39,-122],[-5,-40],[6,-74],[34,-71],[0,-35],[-15,-48],[-20,-29],[-91,-71],[-1,-87],[21,-116],[49,-160],[35,-82],[28,-47]],[[3268,2258],[111,6]],[[3273,5386],[71,-48],[61,-15],[44,4]],[[3449,5327],[12,5]],[[3499,2791],[-55,-16]],[[3444,2775],[-167,-51]],[[3298,2608],[47,2]],[[3345,2610],[4,-36],[-5,-32]],[[3344,2542],[-7,-37]],[[3449,1648],[-25,12],[-40,32],[-30,44],[-11,38],[2,62]],[[3345,1836],[18,60],[37,67]],[[3479,2666],[-54,-3],[-27,-121],[-54,0]],[[3365,810],[56,-150]],[[3511,2671],[-15,-22],[-9,-49],[-18,-80],[-12,-34]],[[3457,2486],[-13,-19],[-19,-12],[-35,-9]],[[4080,2258],[-12,50],[-19,44],[-39,49],[-3,53],[-14,24],[-28,16],[-44,16],[-115,46],[-67,34],[-30,63],[-16,55],[-14,94],[-39,79],[-46,64],[-41,40]],[[3553,2985],[-124,85],[-26,28],[-8,25],[0,55],[24,39],[26,18],[67,17],[56,-1],[50,-20]],[[3465,3775],[-26,-5]],[[3439,3770],[-35,-7]],[[3570,5647],[-40,-47],[-129,-199],[22,-42]],[[3423,5359],[26,-32]],[[3449,5327],[25,-23]],[[3430,2488],[27,-2]],[[3457,2486],[66,-5]],[[3523,2481],[40,-4]],[[3479,2666],[-49,-178]],[[3444,2775],[-3,-27],[31,-57],[7,-25]],[[3744,4928],[5,20],[-11,34],[-38,41],[-93,60],[-67,49],[-38,48],[-60,96]],[[3456,5301],[-14,-25]],[[3531,5719],[-46,5]],[[3485,5724],[-41,2]],[[3710,1645],[-113,-12],[-95,3],[-53,12]],[[3461,5332],[49,-1],[51,13],[31,13],[92,67],[40,27],[21,31],[4,27],[-31,40]],[[3718,5549],[-19,13],[-49,13],[-53,-10],[-15,-14],[-116,-180],[-9,-19],[4,-20]],[[3759,3944],[-11,-25]],[[3748,3919],[2,-45],[21,-80],[16,-25],[35,-41],[59,-47],[53,-27],[66,-15],[80,-5],[137,-2],[19,-6]],[[4236,3626],[-2,-19],[-52,-17],[-202,-24],[-57,0],[-147,27],[-106,33],[-44,30],[-44,38],[-46,49]],[[3536,3743],[-36,31],[-35,1]],[[3474,5304],[20,-17],[29,-40],[48,-36],[32,-19],[120,-45],[81,-22],[47,-21],[35,-28],[89,-125],[39,-29],[47,-21],[95,-23],[45,1],[42,5],[226,88],[41,10],[25,-5],[8,-19],[-7,-29],[-23,-36]],[[3474,5304],[79,19]],[[3553,5323],[78,26],[161,25],[89,28]],[[3545,2342],[-46,-58],[-20,-15]],[[3502,2427],[19,21],[2,33]],[[3523,2481],[2,172],[-14,18]],[[3567,5714],[-36,5]],[[3553,2985],[-15,45],[2,16],[15,18],[29,11],[47,-2],[28,-22],[135,-189],[16,-14],[123,-78],[86,-93],[10,-19],[2,-30],[18,-16],[40,-1],[45,8],[34,-3],[44,-21],[17,-26],[-7,-43],[11,-63],[16,-16],[263,-129],[162,-95]],[[3536,3743],[36,-4],[22,8],[37,49],[-2,10]],[[3545,2342],[56,-6],[32,-7],[64,-91],[28,-34],[50,-44],[21,-13],[76,-20],[37,-2],[45,3],[49,23],[43,54],[34,53]],[[3563,2477],[-1,-59],[-4,-33],[-13,-43]],[[3553,5323],[44,-33],[56,-28],[131,-45],[37,-5],[147,2],[36,-3],[29,-13],[69,-49],[43,-9],[41,9],[32,44]],[[3570,5647],[24,-9]],[[3567,5714],[51,-9],[-4,-15]],[[3567,5714],[16,61],[-5,40]],[[4100,6961],[1,-41],[-7,-20],[-53,-84],[0,-21],[10,-29],[75,-72],[42,-28],[13,-12],[10,-30],[-6,-22],[-34,-45],[-20,-15],[-47,-53],[-40,-74],[-41,-33],[-36,-50]],[[3967,6332],[-84,-80],[-1,-23],[17,-18],[27,-8],[107,0],[31,-4],[22,-11],[85,-76],[55,-78],[58,-52],[9,-19],[0,-24],[-9,-57],[-11,-25],[-62,-63],[-19,-62]],[[4192,5732],[-22,31],[0,26],[63,76],[-6,26],[-35,53],[-25,21],[-33,13],[-60,10],[-35,-1],[-52,-17],[-41,-29],[-32,-31],[-29,-15],[-61,-13],[-64,-5],[-112,1],[-76,15]],[[3578,5815],[-6,78]],[[5818,975],[-20,-8],[-49,-12],[-80,-10],[-98,-7],[-154,-9]],[[5417,929],[-27,-1],[-66,11],[-46,22],[-41,27],[-121,63],[-46,16]],[[5070,1067],[-123,11],[-50,0],[-61,-3],[-54,-11],[-72,-22],[-56,-32],[-51,-32],[-46,-38],[-46,-44]],[[4511,896],[-162,-156],[-112,-102]],[[4237,638],[-86,-83],[-50,-39],[-31,-18],[-44,-16],[-94,-25],[-92,-16],[-161,-13],[-102,-7]],[[3863,5476],[19,26],[25,67],[44,73],[2,28],[-4,87],[-2,10],[-35,14],[-334,34]],[[3863,5476],[-17,17],[-15,32],[-22,30],[-78,31]],[[3731,5586],[-37,8],[-81,10],[-30,-2]],[[3583,5602],[11,36]],[[3594,5638],[20,52]],[[4095,9180],[-122,-36],[0,-103],[-24,-114],[-72,-176],[-29,-82],[13,-155],[31,-162],[-81,-86],[-213,-118]],[[3685,990],[-37,-15]],[[3648,975],[-42,-20]],[[3629,3806],[-11,48]],[[3618,3854],[6,17],[124,48]],[[3690,7364],[-26,7]],[[3664,7371],[-37,10]],[[4237,638],[-79,25],[-46,6],[-32,0],[-61,16],[-60,37],[-18,18],[-85,130],[-27,17],[-171,73],[-10,15]],[[3648,975],[-10,44],[11,15],[163,71],[49,34],[34,31],[88,92],[31,17],[36,2],[52,13],[100,44]],[[4521,1408],[-33,-33],[-34,-23],[-278,-137],[-163,-70],[-65,-27],[-138,-75],[-125,-53]],[[4080,8072],[3,-76],[-135,-115],[-136,-132],[-88,-136],[-37,-97],[31,-72]],[[5135,6939],[-19,-28],[-6,-30],[-30,-38],[-16,-12],[-16,-36],[-39,-33],[4,-24],[-12,-91],[-18,-31],[-29,-29],[-31,-15],[-32,0],[-12,48],[-17,34],[-17,10],[-24,-3],[-51,-35],[-21,-1],[-29,32]],[[4720,6657],[0,24],[-10,16],[-17,10],[-79,15]],[[4614,6722],[-30,-10],[-41,49],[-28,4]],[[4515,6765],[-22,41],[32,99],[2,51],[-30,75],[-15,14],[-89,27],[-66,14],[-75,27],[-87,39],[-45,49],[-45,26],[-15,15],[3,100],[-13,18]],[[4050,7360],[-20,-15],[0,-36],[-7,-27],[-26,-31],[-5,-24],[17,-56],[0,-62],[35,-52],[46,-46],[36,-21],[-26,-29]],[[4100,6961],[-31,-11],[-25,31],[-22,13],[-59,19],[-49,28],[-33,82],[-36,58],[-12,91],[15,87],[20,57],[34,53],[44,51],[74,79],[-3,11],[-23,-8],[-136,-102],[-49,-29],[-59,-56],[-37,-42],[-23,-9]],[[4092,1918],[-105,-45],[-104,-66],[-111,-57],[-37,-49]],[[3735,1701],[-21,-36],[-4,-20]],[[3710,1645],[15,-44],[46,-58],[40,-26],[52,3],[293,40]],[[3735,1701],[-21,16]],[[3729,3999],[-5,32]],[[3724,4031],[-5,27]],[[3718,5549],[13,37]],[[3731,5586],[14,35],[20,22],[36,28]],[[3759,3944],[-30,55]],[[4247,4797],[-111,-86],[-88,-47],[-51,-21],[-70,-7],[-82,3],[-60,10],[-15,-6],[31,-22],[94,-49],[70,-24],[171,-21],[66,-15],[20,-12],[20,-30]],[[4242,4470],[15,-32],[6,-74],[-6,-83],[-25,-116],[4,-49],[45,-41],[18,-11],[187,-44],[15,-8],[-10,-12],[-222,-42],[-72,-4],[-36,1],[-66,13],[-22,1]],[[4073,3969],[38,-26],[89,-31],[67,-15],[99,-11],[71,-19],[86,-27],[44,-23],[-5,-12],[-112,23],[-91,2],[-55,-10],[-190,-50],[-60,-7],[-101,12],[-68,24],[-35,21],[-36,32],[-53,84]],[[3761,3936],[-2,8]],[[3761,3936],[28,13],[52,-3],[62,27],[126,27]],[[3863,5476],[18,-74]],[[3868,4852],[92,-39],[66,-20],[68,-9],[57,-1],[96,14]],[[4247,4797],[42,12],[115,47],[109,37]],[[4923,6155],[-42,-19],[-24,-25],[-15,-74],[1,-53],[-7,-109],[-39,-81],[-42,-62],[-74,-122],[-32,-76],[-16,-9],[-44,0],[-52,9],[-12,-6],[-65,-69],[-91,-33],[-69,-35],[-63,-44]],[[4237,5347],[-44,48],[-26,13]],[[4167,5408],[-25,22],[14,36]],[[4156,5466],[56,128],[12,38],[3,30],[-5,45],[-30,25]],[[4192,5732],[-16,-64],[-15,-29],[-30,-42],[-50,-58],[-31,-43]],[[4050,5496],[-24,-30],[-26,-23],[-64,-29],[-55,-12]],[[4092,9603],[-58,6],[-106,-31]],[[3967,6332],[3,-23],[27,-11],[29,4],[69,44],[77,41]],[[4050,5496],[47,5]],[[4050,7360],[30,42],[29,24]],[[4080,2258],[37,4]],[[4100,8448],[-10,39],[-5,77],[15,85]],[[4092,1918],[131,-10],[61,-8],[145,-42]],[[4278,1947],[-52,19],[-59,8],[-22,-2],[-38,-14],[-15,-40]],[[4097,5501],[30,-9],[29,-26]],[[4117,2262],[64,-8],[32,-12],[95,-56],[35,-30],[40,-168],[-9,-26],[-11,-6],[-85,-9]],[[5106,5109],[-102,-20],[-46,-10],[-40,-16],[-47,-12],[-35,-2],[-40,3],[-49,11],[-43,29],[-90,99],[-36,32],[-57,15],[-46,-2],[-46,-11],[-106,-30],[-51,-4],[-54,2]],[[4218,5193],[-50,25],[-26,25],[-18,39],[-7,41],[9,41],[20,29],[21,15]],[[4167,5408],[157,110],[32,28],[25,33],[9,22],[8,50],[2,80],[5,49],[32,121],[3,67],[-25,183],[-21,94],[-21,38],[-46,30],[-119,46],[-36,28]],[[4172,6387],[-9,12],[-5,29],[8,27],[21,27],[64,30],[122,39],[52,26],[80,60],[12,50],[-2,78]],[[4515,6765],[49,77],[90,55]],[[4156,1560],[68,-32],[34,-7],[67,2],[22,-5],[14,-24],[3,-16],[-11,-43],[-11,-14],[-44,-35],[-20,-9]],[[4156,1560],[87,89],[52,55],[79,69]],[[4152,4363],[33,23],[21,22],[20,41],[16,21]],[[4278,1377],[-76,-39]],[[6678,4057],[-5,-14],[-34,-62],[-117,-245],[-70,-94],[-11,-30],[-9,-71],[-25,-58],[-26,-32]],[[6381,3451],[-35,-22],[-23,-9],[-70,1],[-315,35],[-203,17],[-531,-47],[-64,-9],[-107,-25],[-69,-32],[-117,-69],[-68,-55],[-24,-6],[-47,-3],[-29,6],[-34,16],[-36,25],[-41,44]],[[4568,3318],[-22,40],[-41,37],[-139,161],[-53,36]],[[4313,3592],[-45,32],[-32,2]],[[4984,5477],[-107,-85],[-41,-25],[-60,-16],[-46,-3],[-116,4],[-116,-7],[-112,-16],[-91,-7],[-32,5],[-26,20]],[[4247,4797],[-1,-49],[18,-41],[17,-107],[27,-50],[31,-48],[50,-49],[46,-34],[34,-51],[43,-57],[37,-130],[22,-45]],[[4571,4136],[22,-18],[118,-76],[74,-71],[61,-50],[197,-89],[62,-18]],[[4313,3592],[30,-247],[40,-117],[21,-38],[65,-72],[73,-43],[68,-32]],[[4610,3043],[50,-12],[43,2],[33,7],[94,34],[194,37],[66,35],[121,97],[53,27],[26,8],[59,10],[173,2],[213,8],[137,-2],[132,-18],[187,-6],[164,4],[30,19],[11,31],[-15,125]],[[4374,1773],[41,-4],[50,-12],[21,-15]],[[4374,1773],[29,58],[26,27]],[[4828,2327],[-52,-21]],[[4776,2306],[-51,-35],[-51,-48]],[[4674,2223],[-86,-94],[-20,-17],[-77,-100],[-12,-31],[-9,-79],[-41,-44]],[[4429,1858],[61,-34],[36,-30],[26,-17],[50,-17]],[[6130,2905],[-60,-9],[-85,-27],[-67,-37],[-268,-142],[-189,-89],[-518,-171],[-69,-25],[-33,-27],[-33,-18],[-58,-9]],[[4750,2351],[-31,8],[-70,48],[-98,13],[-43,20],[-31,24]],[[4486,1742],[24,-11]],[[4511,896],[73,-31],[94,-43],[52,-51],[111,-174],[26,-21],[27,-6],[61,-2]],[[4510,1731],[44,-20]],[[4513,4893],[99,18],[113,1],[40,-5],[43,-16],[27,-30]],[[4835,4861],[10,-23],[12,-144],[1,-48],[-16,-34],[-51,-61],[0,-14],[22,-2],[93,12],[108,-13],[299,-3],[40,-9],[-75,-48],[-66,-14],[-83,-11],[-145,0],[-85,-10],[-53,-11],[-41,-35],[-25,-64],[11,-38],[83,-112],[44,-35],[66,-77],[44,-102],[11,-45],[42,-88],[24,-18]],[[5105,3814],[55,-46]],[[4521,1408],[143,-15],[133,-8],[176,-15],[87,-3],[106,0]],[[4532,1473],[-11,-65]],[[4602,1760],[-5,-21],[-24,-20],[-19,-8]],[[4554,1711],[-5,-56],[2,-52],[7,-46],[-11,-45],[-15,-39]],[[4571,4136],[-14,-86],[9,-93],[22,-32],[45,-29],[15,-24],[22,-109],[4,-48],[0,-62],[2,-82],[-2,-42]],[[4674,3529],[-24,-23],[-28,-37],[-19,-100],[-35,-51]],[[4568,3318],[-4,-30],[14,-73],[51,-61],[60,-49],[1,-19],[-18,-20],[-62,-23]],[[4847,7246],[-70,-63],[-52,-75],[-20,-39],[-51,-172]],[[4654,6897],[-40,-175]],[[4614,6722],[-25,-134],[-3,-39],[23,-91],[31,-87],[35,-65],[45,-41],[42,-18],[34,-6]],[[4796,6241],[24,-2],[47,6]],[[4867,6245],[25,5],[48,25],[25,18],[165,172],[11,14]],[[4602,1760],[97,13],[35,1],[163,-7],[96,-16]],[[4993,1751],[84,-25],[125,-50],[41,-9],[56,-19],[39,-19],[30,-23],[34,-39]],[[5402,1567],[39,-47],[19,-32]],[[5460,1488],[6,-37],[-10,-53]],[[4720,6657],[-52,-118],[11,-44],[40,-12],[30,8],[23,0],[20,-12],[4,-22],[-5,-53],[10,-62],[-5,-101]],[[5160,3768],[-18,-53],[-46,-63],[-67,-40],[-36,-8],[-130,-8],[-77,-16],[-112,-51]],[[4867,6245],[10,-20],[46,-70]],[[4923,6155],[69,20],[-3,55],[9,19],[37,30],[26,-1],[5,-35],[29,-60],[41,-39],[7,-25],[-12,-9],[-131,-46],[-21,-23],[-10,-38],[1,-41],[15,-96],[-11,-78],[0,-80],[10,-231]],[[4984,5477],[-6,-50],[-55,-68],[-76,-67],[-22,-27],[-50,-34],[-60,20],[-27,-10],[6,-24],[46,-26],[39,-1],[59,13],[50,26],[49,33],[26,-6],[-5,-16],[-40,-37],[-56,-77],[-32,-11],[-58,-7],[14,-21],[72,0],[95,32],[31,16],[57,18],[25,0],[28,-23],[12,-21]],[[5106,5109],[-9,-71],[-15,-23],[-22,-20],[-97,-53],[-60,-25],[-20,-30],[-48,-26]],[[4750,2351],[10,-25]],[[4776,2306],[-16,20]],[[4828,2327],[13,-9],[73,-34],[44,-38],[31,-9]],[[5070,1067],[-30,-35]],[[5040,1032],[-14,-6],[-61,-5],[-54,-13],[-8,-14],[20,-13],[30,-1],[103,5]],[[5056,985],[46,-9],[50,-23],[-15,-20]],[[5330,1110],[-184,-5],[-66,4],[-50,14],[-31,19],[-6,15],[1,33],[24,25],[26,13]],[[4993,1751],[36,67],[-6,22]],[[5056,985],[-16,47]],[[5160,5117],[-54,-8]],[[8383,2212],[-46,-63],[-152,-241],[-141,-233],[-271,-430],[-124,-170]],[[7037,587],[-108,-52],[-88,-35],[-201,-64],[-220,-52],[-265,-50],[-587,-91],[-447,-67]],[[5160,3768],[28,-9],[87,9],[59,-13],[37,-14],[81,7],[91,-6],[167,11],[120,24],[209,49],[138,4],[166,108],[57,55],[107,30],[117,23],[54,18]],[[5166,1367],[92,-4],[56,2],[77,27],[65,6]],[[5330,1110],[45,-35],[31,-31],[11,-55],[0,-60]],[[5456,1398],[20,-37],[5,-69],[-9,-31],[-5,-57],[-11,-33],[-17,-24],[-64,-25],[-45,-12]],[[5402,1567],[141,36],[50,24],[92,15]],[[5456,1398],[142,-31],[61,-23],[81,-53],[50,-42]],[[5790,1249],[32,-226],[-4,-48]],[[5460,1488],[382,-22],[19,-16],[54,-21],[30,-18],[23,-27],[-4,-39]],[[5964,1345],[-30,-47],[-33,-27],[-111,-22]],[[5857,946],[-20,21],[-19,8]],[[6630,1234],[-2,-37],[-10,-36],[-16,-30],[-120,-67],[-45,-20],[-131,-40],[-125,-28],[-243,-37],[-52,-5],[-29,12]],[[5964,1345],[62,-6],[55,3],[86,36],[81,61],[49,28],[49,13]],[[6267,2970],[-50,-42],[-25,-9],[-62,-14]],[[6856,3407],[-40,-59],[-34,-78],[-32,-93],[-41,-73],[-35,-39],[-45,-37],[-88,-41],[-90,-22],[-86,-4],[-98,9]],[[1337,4192],[0,502],[1678,450],[257,133],[189,186],[104,222],[72,546],[194,429],[1,137],[-128,366],[-1,135],[67,119],[335,336],[5,-526]],[[4110,7227],[632,16],[-43,-60],[-140,-607],[96,-290],[111,-71],[147,3],[85,50],[143,163],[2,-158]],[[5146,6124],[5,-447]],[[5153,5519],[7,-388],[0,-55]],[[5160,5076],[2,-127]],[[5162,4949],[228,-1]],[[5617,4948],[66,-1],[366,-1]],[[6049,4946],[32,0]],[[6081,4946],[575,-3]],[[6656,4943],[4,-1430],[29,0]],[[6689,3513],[2,-106]],[[6691,3407],[183,0]],[[6874,3407],[-43,-62],[-65,-178],[-42,-71],[-71,-66],[-91,-49],[-158,-22],[-42,-30]],[[6362,2929],[-56,5],[-434,105],[-189,20],[-94,-2],[-78,-28],[-182,-101],[-212,-62],[-556,-102],[-156,28],[-90,49],[-81,54],[-77,73],[-57,70],[-76,157],[-90,109],[-210,112],[-145,105],[-113,109],[-24,40],[-38,112]],[[3404,3782],[-23,79],[-19,53],[-54,55],[-87,41],[-100,23],[-50,8],[-41,-14],[-82,-43],[-340,-406]],[[2608,3578],[-138,98],[-1134,-4]],[[1338,5185],[-1,112]],[[1334,6009],[-6,991],[0,142]],[[127,7937],[-57,46],[86,81],[532,1],[0,512],[604,584],[62,55],[58,37],[61,33],[66,27],[68,23],[72,18],[75,11],[76,5],[75,0],[76,-5],[419,-53],[107,-9],[106,-1],[107,8],[105,17],[102,25],[97,32],[93,39],[86,46],[60,39],[363,254],[83,47],[87,40],[95,33],[97,27],[102,18],[9,-1231],[3,-454]],[[4102,8242],[-90,0],[1,-170],[46,-76],[-117,-103],[-145,-143],[-128,-214],[14,-36],[-51,-57],[-28,-40],[-21,-43],[-15,-43],[-8,-43],[-3,-45],[4,-45],[16,-65],[97,-236],[11,-38],[12,-57],[3,-59],[-5,-59],[-11,-56],[-21,-57],[-30,-58],[-50,-76],[-45,-80],[-33,-88],[-24,-88],[-6,-56],[-34,-339],[-11,-70],[-20,-66],[-31,-64],[-37,-61],[-48,-57],[-53,-55],[-62,-48],[-69,-45],[-75,-39],[-78,-32],[-86,-26],[-1534,-412],[1,388]],[[4105,7915],[-47,-38],[-349,-351],[-3,10],[123,206],[141,139],[135,114]],[[5140,6524],[0,-1],[-217,-240],[-147,-15],[-12,5],[-55,47],[-81,228],[139,631],[38,35],[138,35]],[[5130,7254],[5,-345],[0,-42]],[[1334,2830],[0,47]],[[1334,2928],[0,283]],[[1336,3443],[0,170]],[[2608,3578],[-197,-238],[-529,-226],[-548,-284]],[[1332,1493],[0,28]],[[1332,1694],[0,45]],[[1332,1739],[0,6]],[[1333,1979],[0,237]],[[1333,2506],[0,85]],[[1334,2747],[0,83]],[[3404,3782],[-375,-49],[11,-64],[4,-45],[-11,-86],[-62,-76],[143,-375],[363,-178],[50,-59],[29,-83],[-16,-404],[-70,-65],[-91,-66],[-105,-526],[98,-174],[22,-17],[117,-230],[5,-114],[-448,-227],[-581,-108],[-63,-33],[-30,111],[-327,-40],[-734,7],[0,435]],[[6656,4943],[3,0]],[[6659,4943],[30,-1430]],[[6874,3407],[1925,-8],[-36,1],[23,-20],[-335,-154],[30,-36],[-212,-99],[30,-36],[-203,-94],[68,-84],[-103,-144],[-81,-150],[-56,-138],[-182,-551],[-1341,1006],[-39,29]],[[8824,3399],[35,0],[-22,-11],[-13,11]]],"transform":{"scale":[0.0000017181888381838962,0.0000016103721376538054],"translate":[-122.722023594454,45.506484658523]}}